,uuid,creditCode,regNo,orgCodes,entStatus,regCap,frName,industryPhyName,esDate,opFrom,opTo,regOrgProvince,regOrg,entType,entName,dom,opScope,approvedTime,phoneNumber,email,oldName,validTime,industryLargeName,industryMiddleName,county,industryType,createTime,updateTime,isDeleted,state,city,website
0,ef04726a-d834-11e9-80c9-fa163e3115c2,913702002645941215,370205228025417,264594121,在营（开业）企业,4005.000000万,丁香鹏,制造业,1994-12-13,1994-12-13,,山东省,青岛市市场监督管理局,股份有限公司(非上市、自然人投资或控股),青岛国林环保科技股份有限公司,青岛市市北区瑞昌路168号,生产：消毒器械（臭氧发生器）（消毒产品生产企业卫生许可证有效期限以许可证为准）。臭氧技术产品研究、开发、生产；工业管道GC2安装；高低压成套电气设备的制造、销售；D1、D2类低、中压容器设计、制造；工业气体分离与净化技术研发、制造、销售、技术服务；机电一体化电子产品开发、生产；电子功能陶瓷产品研究、开发、生产、销售；晶体乙醛酸一水合物的生产、销售；环保工程设计、安装、施工；货物及技术进出口；批发、零售：金属材料（不含稀贵金属）、五金交电、化工产品（不含危险品）、环保设备（公司住所仅限办公）。（依法须经批准的项目，经相关部门批准后方可开展经营活动）。（依法须经批准的项目，经相关部门批准后方可开展经营活动）,2019-04-08,0532-84992167,office@china-guolin.com,青岛国林实业股份有限公司,长期,专用设备制造业,医疗仪器设备及器械制造,市北区,大健康,2019-09-16 11:49:07,2019-09-16 11:49:07,0,1,青岛市,http://www.china-guolin.com
1,92a1a58b-d83f-11e9-80c9-fa163e3115c2,9111000079598548XH,110113001479889,79598548X,开业,40000.000000万人民币,申东日,批发和零售业,2006-11-09,2006-11-09,,北京市,北京市工商行政管理局顺义分局,股份有限公司(上市、自然人投资或控股),朗姿股份有限公司,北京市顺义区马坡镇白马路63号,生产服装；销售服装、日用品、鞋帽箱包、五金、婴幼儿用品、化妆品、玩具、皮革制品；货物进出口；技术进出口；代理进出口；承办展览展示活动；仓储服务；技术服务。（企业依法自主选择经营项目，开展经营活动；依法须经批准的项目，经相关部门批准后依批准的内容开展经营活动；不得从事本市产业政策禁止和限制类项目的经营活动。）,2017-06-30,53518800,无,"北京朗姿服装实业有限公司,北京申诚信和服装有限公司",长期,批发业,纺织、服装及家庭用品批发,顺义区,大健康,2019-09-16 13:05:17,2019-09-16 13:05:17,0,1,北京市,http://langzi.tmall.com
2,6accc9ba-4bc2-11e9-a8b1-fa163e5275a2,91350200612261252T,350200200013196,612261252,存续（在营、开业、在册）,15054.000000万人民币,林瑞梅,制造业,1994-12-07,1994-12-07,9999-12-31,福建省,厦门市市场监督管理局,其他股份有限公司(上市),厦门光莆电子股份有限公司,厦门市思明区岭兜西路608号,机器人及智能设备的设计、研发、制造及销售（不含须经许可审批的项目）；电光源制造；照明灯具制造；灯用电器附件及其他照明器具制造；半导体分立器件制造；光电子器件及其他电子器件制造；软件开发；信息系统集成服务；其他未列明信息技术服务业（不含需经许可审批的项目）；机械治疗及病房护理设备制造；其他电子设备制造；互联网销售；第一类医疗器械批发；第二类医疗器械批发；第三类医疗器械批发；建筑装饰业；自有房地产经营活动；经营本企业自产产品的出口业务和本企业所需的机械设备、零配件、原辅材料的进口业务（不另附进出口商品目录），但国家限定公司经营或禁止进出口的商品及技术除外。,2018-09-10,6022013,无,,长期,计算机、通信和其他电子设备制造业,电子元件制造,思明区,大健康,2019-03-21 18:16:40,2019-03-21 18:16:40,0,0,厦门市,https://mall.jd.com/index-1000072606.html
3,9306fd65-d83f-11e9-80c9-fa163e3115c2,91430000745928604G,430000000001637,745928604,存续（在营、开业、在册）,309839.419200万人民币,陈邦,卫生和社会工作,2003-01-24,2003-01-24,,湖南省,湖南省市场监督管理局,股份有限公司(上市、自然人投资或控股),爱尔眼科医院集团股份有限公司,长沙市芙蓉区长冲路99号隆平高科技园省科研成果转化中心一楼,眼科医院的投资和医院经营管理服务（不得从事吸收存款、集资收款、受托贷款、发行票据、发放贷款等国家金融监管及财政信用业务）；眼科医疗技术的研究，远程医疗软件的研发、生产、销售；眼科、内科、麻醉科、检验科、影视像科、验光配镜。（依法须经批准的项目，经相关部门批准后方可开展经营活动）,2019-07-22,0731-85179288,无,,长期,卫生,医院,芙蓉区,大健康,2019-09-16 13:05:17,2019-09-16 13:05:17,0,1,长沙市,aierchina.com
4,9356eff3-d83f-11e9-80c9-fa163e3115c2,91441900708014002M,441900000178999,708014002,在营（开业）,54585.426400,王蔚,其他农业,1998-08-06,1998-08-06,长期,广东省,广东省东莞市工商行政管理局,股份有限公司(上市、自然人投资或控股),盈康生命科技股份有限公司,东莞市塘厦镇蛟坪大道83号,医疗器械的研发和经营；医疗行业投资；对外投资；股权投资；货物及技术进出口；为成员企业及关联企业提供经营决策和企业管理咨询、财务管理咨询、资本经营管理和咨询。(依法须经批准的项目，经相关部门批准后方可开展经营活动)〓,2019-08-07,7722382,,,长期,,,,大健康,2019-09-16 13:05:18,2019-09-16 13:05:18,0,1,东莞市,
5,93a5e74e-d83f-11e9-80c9-fa163e3115c2,911100007000084768,110000410140103,700008476,开业,178165.292100万人民币,蒲忠杰,制造业,1999-06-11,1999-06-11,2057-06-10,北京市,北京市工商行政管理局昌平分局,股份有限公司(中外合资、上市),乐普（北京）医疗器械股份有限公司,北京市昌平区超前路37号,生产、销售医疗器械及其配件；医疗器械及其配件的技术开发；提供自产产品的技术咨询服务；上述产品的进出口；技术进出口；佣金代理（不含拍卖、涉及配额许可证管理、专项规定管理的商品按国家有关规定办理）。（依法须经批准的项目，经相关部门批准后依批准的内容开展经营活动。）,2019-05-15,80120666,office_lepu@lepumedical.com,,2057-06-10,专用设备制造业,医疗仪器设备及器械制造,昌平区,大健康,2019-09-16 13:05:18,2019-09-16 13:05:18,0,1,北京市,http://www.lepumedical.com
6,93f42530-d83f-11e9-80c9-fa163e3115c2,913201006089812733,320100400012542,608981273,存续（在营、开业、在册）,10000.000000万人民币,隆晓辉,制造业,2000-05-10,2000-05-10,,江苏省,南京市市场监督管理局,股份有限公司(中外合资、未上市),南京微创医学科技股份有限公司,南京高新开发区高科三路10号,医疗器械的研发、生产与销售（凭许可证所列事项生产经营）；与本企业业务相关的产品及技术的进出口业务（不涉及国营贸易管理商品，涉及配额、许可证管理商品的，按国家有关规定办理申请）；消毒灭菌服务；企业管理咨询服务；自有房屋及设备租赁；网上销售医疗器械。（依法须经批准的项目，经相关部门批准后方可开展经营活动）,2019-03-20,025-58646365,mjj@micro-tech.com.cn,南京微创医学科技有限公司,长期,专用设备制造业,医疗仪器设备及器械制造,,大健康,2019-09-16 13:05:19,2019-09-16 13:05:19,0,1,南京市,www.micro-tech.com.cn
7,9468ad54-d83f-11e9-80c9-fa163e3115c2,913502007617290664,350205200008366,761729066,存续（在营、开业、在册）,40193.000000万人民币,林志雄,制造业,2004-08-12,2004-08-12,,福建省,厦门市市场监督管理局,股份有限公司(台港澳与境内合资、上市),大博医疗科技股份有限公司,厦门市海沧区山边洪东路18号,研发生产二类6826物理治疗设备、二类6865医用缝合材料和三类6810矫形外科（骨科）手术器械；二类6810矫形外科（骨科）手术器械、三类6846植入材料；一类医疗器械的研发、生产；骨科植入材料模具的制造；批发和进出口：三类、二类：注射穿刺器械、医用电子仪器设备、医用光学器具仪器及内窥镜设备、医用超声仪器及有关设备、物理治疗及康复设备、临床检验分析仪器（体外诊断试剂除外）、植入材料和人工器官、手术室急救室诊疗室设备及器具、口腔科材料、医用卫生材料及敷料、医用缝合材料及粘合剂；三类、二类：医用高分子材料及制品；二类：手术器械、普通诊察器械、中医器械、口腔科设备及器具、病房护理设备及器具、消毒和灭菌设备及器具。,2019-03-01,6087672,无,,长期,专用设备制造业,医疗仪器设备及器械制造,海沧区,大健康,2019-09-16 13:05:20,2019-09-16 13:05:20,0,1,厦门市,http://www.double-medical.com/
8,94b5c121-d83f-11e9-80c9-fa163e3115c2,913101150512565326,,051256532,存续（在营、开业、在册）,5397.814700万人民币,彭博,批发和零售业,2012-08-17,2012-08-17,,上海市,上海市市场监督管理局,股份有限公司(台港澳与境内合资、未上市),上海微创心脉医疗科技股份有限公司,上海市浦东新区康新公路3399弄1号,生产Ⅲ类6846支架、Ⅲ类6877血管内导管，销售自产产品；研发主动脉、外周血管介入治疗医疗器械，转让自研技术，并提供相关技术服务、技术咨询；从事医疗器械（Ⅰ类、Ⅱ类、Ⅲ类）的批发、进出口、佣金代理（拍卖除外），并提供相关配套服务（不涉及国营贸易管理，涉及配额、许可证管理商品的，按国家有关规定办理申请）。【依法须经批准的项目，经相关部门批准后方可开展经营活动】,2012-08-17,021-38954600,xhzhu@microport.com,微创心脉医疗科技（上海）有限公司,长期,批发业,医药及医疗器材批发,浦东新区,大健康,2019-09-16 13:05:20,2019-09-16 13:05:20,0,1,上海市,www.endovastec.com
9,950d1022-d83f-11e9-80c9-fa163e3115c2,91440101759431420M,440126400010558,759431420,在营（开业）企业,20000.000000万人民币,韩广源,制造业,2004-04-30,2004-04-30,,广东省,广州市市场监督管理局,股份有限公司(台港澳与境内合资、上市),广州维力医疗器械股份有限公司,广州市番禺区化龙镇金湖工业城C区4号,医疗卫生用塑料制品制造;非许可类医疗器械经营（即不需申请《医疗器械经营企业许可证》即可经营的医疗器械”，包括第一类医疗器械和国家规定不需申请《医疗器械经营企业许可证》即可经营的第二类医疗器械）;医疗用品及器材零售（不含药品及医疗器械）;假肢、人工器官及植（介）入器械制造;医疗诊断、监护及治疗设备制造;机械治疗及病房护理设备制造;医疗、外科及兽医用器械制造;口腔科用设备及器具制造;医疗实验室设备和器具制造;外科、牙科等医疗专用设备及器械制造;医用消毒设备和器具制造;医疗诊断、监护及治疗设备批发;许可类医疗器械经营（即申请《医疗器械经营企业许可证》才可经营的医疗器械”，包括第三类医疗器械和需申请《医疗器械经营企业许可证》方可经营的第二类医疗器械）;医疗诊断、监护及治疗设备零售;,2018-07-26,020-84758878,chenmeiling@welllead.com.cn,,长期,专用设备制造业,医疗仪器设备及器械制造,番禺区,大健康,2019-09-16 13:05:21,2019-09-16 13:05:21,0,1,广州市,www.welllead.com.cn
10,955b5da2-d83f-11e9-80c9-fa163e3115c2,91110000101927796W,110000004631855,101927796,开业,292374.278200万人民币,王靖,科学研究和技术服务业,1995-12-02,2000-08-16,,北京市,北京市工商行政管理局海淀分局,其他股份有限公司(上市),北京信威科技集团股份有限公司,北京市海淀区东北旺西路8号中关村软件园7号楼一层,技术开发、技术推广、技术转让、技术咨询、技术服务；销售、租赁、安装及维修通讯设备、电子产品；计算机系统服务；货物进出口、技术进出、代理进出口。（企业依法自主选择经营项目，开展经营活动；依法须经批准的项目，经相关部门批准后依批准的内容开展经营活动；不得从事本市产业政策禁止和限制类项目的经营活动。）,2017-11-16,010-62802288,investor@xinwei.com.cn,"北京中创信测科技股份有限公司,北京信威通信科技集团股份有限公司",长期,科技推广和应用服务业,其他科技推广和应用服务业,海淀区,大健康,2019-09-16 13:05:21,2019-09-16 13:05:21,0,1,北京市,http://www.xinweigroup.com.cn/
11,694dc803-d850-11e9-80c9-fa163e3115c2,91310000734047094H,310000400110706,734047094,存续（在营、开业、在册）,34101.018200万人民币,海乐,租赁和商务服务业,1995-03-30,1995-03-30,,上海市,上海市市场监督管理局,其他股份有限公司(上市),运盛（上海）医疗科技股份有限公司,上海市青浦区赵巷镇沪青平公路2855弄1-72号A座2A层2A08号,从事医疗科技领域内的科技技术开发、技术咨询、技术服务、技术转让，医疗器械经营，投资咨询和投资管理，医疗行业计算机软硬件的技术开发、项目投资管理，实业投资管理，企业管理咨询。【依法须经批准的项目，经相关部门批准后方可开展经营活动】,1995-03-30,021-50720888,无,运盛（上海）实业股份有限公司,长期,商务服务业,企业管理服务,青浦区,大健康,2019-09-16 15:05:48,2019-09-16 15:05:48,0,1,上海市,http://www.winsan.cn/
12,960f5f7e-d83f-11e9-80c9-fa163e3115c2,9142058373914001XH,420500400000854,73914001X,存续（在营、开业、在册）,42217.693800万,崔金海,批发和零售业,2002-07-24,2002-07-24,,湖北省,宜昌市市场监督管理局,股份有限公司(上市、自然人投资或控股),奥美医疗用品股份有限公司,枝江市马家店七星大道18号,生产、销售、研发医用卫生材料、无纺布制品及其它医疗用品、卫生用品、体育用品、婴儿用品、纺织、服装；货物进出口贸易（不包括进口商品分销业务；国家限制公司经营或限制进出口的商品或技术除外）；机械设备租赁；房屋出租；商务信息咨询服务、会务会展服务(按许可证或批准文件核定内容经营，未取得相关有效许可或批准文件的，不得经营)###,2019-05-27,0717-4211420,2193591074@qq.com,枝江奥美医疗用品有限公司,长期,批发业,医药及医疗器材批发,枝江市,大健康,2019-09-16 13:05:22,2019-09-16 13:05:22,0,1,宜昌市,allmed-china.com
13,966daebb-d83f-11e9-80c9-fa163e3115c2,91330600609661634M,330600400002113,609661634,存续,14000.000000万人民币,鲁建国,制造业,1994-08-18,1994-08-18,9999-09-09,浙江省,浙江省市场监督管理局,股份有限公司(上市、自然人投资或控股),振德医疗用品股份有限公司,浙江省绍兴市越城区皋埠镇皋北工业区,生产、销售：第一类医疗器械、第二类医疗器械、第三类医疗器械、一次性使用卫生用品、日常防护用品、劳动保护用品、特殊劳动防护用品、消毒产品、化妆品、运动防护用品、体育用品；货物进出口。（依法须经批准的项目，经相关部门批准后方可开展经营活动）,2019-08-05,18658515989,jhp@zhende.com,绍兴振德医用敷料有限公司,长期,纺织业,针织或钩针编织物及其制品制造,越城区,大健康,2019-09-16 13:05:23,2019-09-16 13:05:23,0,1,绍兴市,http://www.zhende.com
14,96bfadaf-d83f-11e9-80c9-fa163e3115c2,91320400250815683R,320483000092759,250815683,存续（在营、开业、在册）,16900.000000万人民币,李平,制造业,1990-07-04,1990-07-04,,江苏省,常州市市场监督管理局,股份有限公司(上市),江苏南方卫材医药股份有限公司,江苏武进经济开发区果香路1号,二类6864医用卫生材料及敷料的制造；贴剂、贴膏剂的制造、中药提取；一类基础外科手术器械、物理治疗设备、手术室、急救室、诊疗室设备及器具、医用冷疗、低温、冷藏设备及器具、医用高分子材料及制品的制造、销售；织布；日用品、运动用品及运动护具的制造、销售；化妆品销售；自营和代理各类商品及技术的进出口业务（国家禁止或限制企业经营的商品和技术除外）。（依法须经批准的项目，经相关部门批准后方可开展经营活动）,2019-06-28,0519-86361050,info@nanfangmedical.com,,长期,专用设备制造业,医疗仪器设备及器械制造,,大健康,2019-09-16 13:05:24,2019-09-16 13:05:24,0,1,,www.nfmedical.com.cn
15,971b1f14-d83f-11e9-80c9-fa163e3115c2,91440300279534922P,440301103299533,279534922,存续（在营、开业、在册）,70591.791400万人民币,梁桂秋,制造业,1998-03-13,1998-03-13,2048-03-13,广东省,深圳市市场监督管理局,股份有限公司(上市),深圳市尚荣医疗股份有限公司,深圳市龙岗区宝龙工业城宝龙5路2号尚荣科技工业园1号厂房2楼,一般经营项目是：医疗设备及医疗系统工程、医疗设施的技术开发（不含限制项目）；净化及机电设备的安装；建筑材料、五金制品、机电产品、电子电器产品的购销及其他国内商业、物资供销业（不含专营、专控、专卖商品）；兴办实业（具体项目另行申报）；医疗器械销售（具体按许可证办理）；医疗器械设计、生产及销售；医疗器械、设备的租赁；进出口业务（具体按进出口资格证书经营）；建筑工程施工；建筑工程安装；建筑室内外装修装饰工程；市政公用工程的施工；地基与基础工程的施工；房屋建筑消防设施工程的施工；建筑劳务分包（取得建设行政主管部门的资质证书方可经营）；救护车生产和销售；投资建设医院。，许可经营项目是：,2019-06-20,0755-82290988,hr@glory-medical.com.cn,深圳市尚荣医疗设备有限公司,2048-03-13,专用设备制造业,医疗仪器设备及器械制造,龙岗区,大健康,2019-09-16 13:05:24,2019-09-16 13:05:24,0,1,深圳市,http://www.glory-medical.com.cn
16,29afa6e4-4bc1-11e9-a8b1-fa163e5275a2,91310000769685408G,310109000393135,769685408,存续（在营、开业、在册）,3120万人民币,夏其峰,信息传输、软件和信息技术服务业,2004-12-09,2004-12-09,,上海市,上海市工商行政管理局,股份有限公司（非上市、自然人投资或控股）,上海海典软件股份有限公司,中国（上海）自由贸易试验区金湘路345号2225室,计算机软硬件、网络技术、信息技术领域内的“四技”服务，第二类增值电信业务中的信息服务业务（不含固定网电话信息服务和互联网信息服务），计算机软硬件销售。【依法须经批准的项目，经相关部门批准后方可开展经营活动】,2004-12-09,021-50111521,fengjun1016@hydee.cn,上海海典软件有限公司,长期,软件和信息技术服务业,信息技术咨询服务,自由贸易试验区,大健康,2019-03-21 18:07:41,2019-03-21 18:07:41,0,0,,WWW.HYDEE.CN
17,9783e870-d83f-11e9-80c9-fa163e3115c2,9137020273728436XX,370202228063854,73728436X,在营（开业）企业,2189.782000万,赵兴庭,信息传输、软件和信息技术服务业,2002-05-23,2002-05-23,,山东省,青岛市市场监督管理局,其他股份有限公司(非上市),青岛雨诺网络信息股份有限公司,青岛市市南区宁夏路288号软件产业基地G3楼113室、115室,计算机软硬件开发及技术服务；数据库及网络技术开发、服务；批发、零售自有研发产品、计算机软硬件及配件、电子设备及耗材；企业管理咨询；营销策划；形象策划；市场调查；人才信息咨询服务（不含劳务中介咨询）；展览展示服务；设计、制作、代理、发布国内广告业务；批发、零售：Ⅰ、Ⅱ类医疗器械；网上销售药品、医疗器械；医疗器械租赁；办公设备租赁。（以上范围需经许可经营的，须凭许可证经营）。,2019-07-08,0532-85886309,romens@romens.cn,青岛雨人软件科技有限公司,长期,互联网和相关服务,互联网信息服务,市南区,大健康,2019-09-16 13:05:25,2019-09-16 13:05:25,0,1,青岛市,
18,97d9153e-d83f-11e9-80c9-fa163e3115c2,9133000025393934X6,,25393934X,存续,72831.262800万人民币,葛航,信息传输、软件和信息技术服务业,1997-12-10,1997-12-10,,浙江省,浙江省市场监督管理局,股份有限公司(上市、自然人投资或控股),创业慧康科技股份有限公司,浙江省杭州市滨江区长河街道越达巷92号创业智慧大厦五楼,物联网技术、数据处理技术、信息技术的技术开发、技术咨询、技术服务，经营增值电信业务（凭许可证经营），医疗器械生产（详见《医疗器械生产企业许可证》），医疗器械经营（限批发，范围详见《中华人民共和国医疗器械经营企业许可证》），电子计算机软件的技术开发、咨询及服务、成果转让，电子计算机的安装、维修，智能楼宇工程、电子与智能化工程、消防设施工程、机电安装工程、灯光工程、音响工程、舞台机械工程的设计、施工，电子计算机及配件的批发，经营进出口业务。（依法须经批准的项目，经相关部门批准后方可开展经营活动）,2019-08-01,0571-88217878,bsoft@bsoft.com.cn,创业软件股份有限公司,长期,软件和信息技术服务业,软件开发,滨江区,大健康,2019-09-16 13:05:25,2019-09-16 13:05:25,0,1,杭州市,http://www.bsoft.com.cn
19,982e7f9a-d83f-11e9-80c9-fa163e3115c2,91330000754441902G,330102000028950,754441902,存续,80788.533400万人民币,章笠中,批发和零售业,2003-11-21,2003-11-21,2033-11-19,浙江省,浙江省市场监督管理局,其他股份有限公司(上市),思创医惠科技股份有限公司,浙江省杭州市拱墅区莫干山路1418—25号（上城科技经济园）,塑胶产品、电子产品、五金产品的制造（凭许可证经营）。物联网技术开发、技术应用推广服务，信息系统集成，塑胶产品、电子产品、五金产品的开发及销售，货物进出口，商业、饮食、服务专用设备、社会公共安全设备及器材的制造，房屋、设备租赁，医疗技术、计算机软硬件的技术开发、技术咨询、技术服务，洗衣服务，纺织品、医疗器械、日用百货、消毒用品（不含药品）的销售。（依法须经批准的项目，经相关部门批准后方可开展经营活动）,2018-05-28,28975273,,杭州中瑞思创科技股份有限公司,2033-11-19,批发业,机械设备、五金产品及电子产品批发,拱墅区,大健康,2019-09-16 13:05:26,2019-09-16 13:05:26,0,1,杭州市,
20,8384bd74-4bbf-11e9-a8b1-fa163e5275a2,91350200612040492E,350298200002795,612040492,存续（在营、开业、在册）,43000.000000万人民币,张曦,信息传输、软件和信息技术服务业,2000-07-14,2000-07-14,2050-07-13,福建省,厦门市市场监督管理局,股份有限公司(上市、自然人投资或控股),易联众信息技术股份有限公司,厦门市软件园二期观日路18号502室,其他未列明信息技术服务业（不含需经许可审批的项目）(研发、设计和生产智能卡、银行卡；销售智能卡)；商务信息咨询；档案处理及档案电子化服务；第一类医疗器械批发；第一类医疗器械零售；第二类医疗器械批发；第二类医疗器械零售；第三类医疗器械批发；第三类医疗器械零售；医疗诊断、监护及治疗设备制造；其他医疗设备及器械制造(仅限其分支机构代为加工)；卫生材料及医药用品制造(仅限其分支机构代为加工)；互联网接入及相关服务（不含网吧）；软件开发；信息系统集成服务；信息技术咨询服务；数据处理和存储服务；集成电路设计；数字内容服务；其他机械设备及电子产品批发；呼叫中心（不含需经许可审批的项目）；新材料技术推广服务；其他未列明电信业务；计算机、软件及辅助设备批发；计算机、软件及辅助设备零售；通信设备零售；其他电子产品零售；节能技术推广服务；互联网销售；通讯及广播电视设备批发；对第一产业、第二产业、第三产业的投资（法律、法规另有规定除外）；投资管理（法律、法规另有规定除外）；资产管理（法律、法规另有规定除外）；投资咨询（法律、法规另有规定除外）；企业管理咨询；投资管理咨询（法律、法规另有规定除外）；经营各类商品和技术的进出口（不另附进出口商品目录），但国家限定公司经营或禁止进出口的商品及技术除外；互联网信息服务（不含药品信息服务和网吧）；包装装潢及其他印刷；装订及印刷相关服务。,2018-08-14,6307571,1757132245@qq.com,,2050-07-13,软件和信息技术服务业,信息系统集成服务,,大健康,2019-03-21 17:55:53,2019-03-21 17:55:53,0,0,厦门市,http://s3.ylzinfo.com:8085/
21,b5eb1336-4bc0-11e9-a8b1-fa163e5275a2,91330100563023775L,330108000063896,563023775,存续,8309.000000万人民币,杨一兵,信息传输、软件和信息技术服务业,2010-10-26,2010-10-26,,浙江省,浙江省工商行政管理局,其他股份有限公司(上市),浙江和仁科技股份有限公司,浙江省杭州市滨江区西兴街道新联路625号,第二类：软件经营；第二类6870软件生产（生产地址详见《医疗器械生产企业许可证》）。服务：软件开发，计算机软硬件、网络技术、系统集成、机电一体化产品的技术开发、技术服务、技术咨询、成果转让，建筑智能化工程的设计与施工（凭资质证书经营），自有房屋租赁，物业管理。（依法须经批准的项目，经相关部门批准后方可开展经营活动）,2018-12-05,057181397000,,,长期,软件和信息技术服务业,软件开发,滨江区,大健康,2019-03-21 18:04:27,2019-03-21 18:04:27,0,0,杭州市,http://www.herenit.com
22,851f43e6-4bbf-11e9-a8b1-fa163e5275a2,913200006933449995,320594000141931,693344999,存续（在营、开业、在册）,8092.260000万人民币,翁康,信息传输、软件和信息技术服务业,2009-08-14,2009-08-14,,江苏省,江苏省工商行政管理局,股份有限公司(中外合资、上市),苏州麦迪斯顿医疗科技股份有限公司,苏州工业园区归家巷222号,研发医疗器械、计算机软硬件及通信技术，医用机器人导航系统，微创手术平台系统，机电一体化产品；提供计算机系统集成、信息网络及数据处理的技术服务、技术咨询、技术转让；建筑智能化、净化工程的设计、施工及工程咨询；组装生产微型计算机；销售本公司自主研发生产的产品；从事医疗器械、计算机软硬件、电子产品的批发、进出口、佣金代理（拍卖除外）、自有房屋租赁及相关业务。（依法须经批准的项目，经相关部门批准后方可开展经营活动）,2017-12-05,051262621268,mengdi.c@medicalsystem.cn,,长期,软件和信息技术服务业,软件开发,,大健康,2019-03-21 17:55:56,2019-03-21 17:55:56,0,0,苏州市,www.medicalsystem.com.cn
23,98bcaaa7-d83f-11e9-80c9-fa163e3115c2,91330000102930559P,330000000002790,102930559,存续,32064.000000万人民币,吕建明,租赁和商务服务业,1995-08-30,1995-08-30,2025-08-29,浙江省,浙江省工商行政管理局,其他股份有限公司(上市),通策医疗投资股份有限公司,浙江省杭州市上城区平海路57号,医疗器械、日用品、消毒用品的销售，投资管理，经营进出口业务，技术开发、技术咨询及技术服务，培训服务（不含办班培训）。,2017-04-18,87283503,,中燕纺织股份有限公司,2025-08-29,商务服务业,企业管理服务,上城区,大健康,2019-09-16 13:05:27,2019-09-16 13:05:27,0,1,杭州市,http://www.tcmedical.com.cn
24,990acf5c-d83f-11e9-80c9-fa163e3115c2,91320100134896447M,320100000005754,134896447,存续（在营、开业、在册）,129271.341800万人民币,袁亚非,批发和零售业,1991-05-14,1991-05-14,2045-09-27,江苏省,南京市市场监督管理局,股份有限公司(上市),南京新街口百货商店股份有限公司,南京市秦淮区中山南路1号,预包装食品、散装食品（炒货、蜜饯、糕点、茶叶）、保健食品、冷热饮品销售；中餐制售；音像制品、卷烟、雪茄烟、烟丝、罚没国外烟草制品零售；百货、化妆品、纺织品、针织品、服装、鞋帽、眼镜（不含角膜接触镜及护理液）、钟表、玉器、珠宝、金银制品、乐器、体育用品、文化办公用品、五金交电、电脑软、硬件及耗材、照相器材、电器机械及器材、普通机械、电子产品及通信设备、工艺美术品、自行车、电动车、汽车配件、化工产品、劳保用品、金属材料、木材、建筑材料、橡胶及制品、汽车（不含小轿车）销售；设计、制作、代理、发布国内各类广告（凭许可证经营除外）；房屋销售、租赁；物业管理；经营各类商品和技术的进出口业务（国家限定公司经营或禁止进出口的商品及技术除外）；停车场服务；儿童室内软体游乐场；医疗行业投资；医疗信息服务；远程医疗软件研发、生产、销售；健康相关产业产品的技术开发、技术咨询、成果转让、咨询服务；医疗器械的研究、开发及技术咨询；保健食品研发及信息咨询服务；养老服务。（依法须经批准的项目，经相关部门批准后方可开展经营活动）,2018-12-13,025-84715188,IRM@njxb.com,,2045-09-27,批发业,纺织、服装及家庭用品批发,秦淮区,大健康,2019-09-16 13:05:27,2019-09-16 13:05:27,0,1,南京市,www.njxb.com
25,995bb3b8-d83f-11e9-80c9-fa163e3115c2,91310000631191552K,310000000063412,631191552,存续（在营、开业、在册）,44160.900000万人民币,张宪淼,租赁和商务服务业,1998-07-01,1998-07-01,,上海市,上海市市场监督管理局,其他股份有限公司(上市),上海康德莱企业发展集团股份有限公司,上海市嘉定区高潮路658号1幢2楼,实业投资、资产管理；国内贸易（除专项审批项目）；电子产品、机械成套、金属材料、计算机软硬件、高新技术产品的科研、开发、加工、生产；医用高分子材料及制品、卫生材料及敷料、塑料制品、金属管的制造、销售，生产、销售一次性输血、输液器具、一次性注射器械，销售一次性使用血管内导管，麻醉用导管；进出口（外经贸委批准范围内）。【依法须经批准的项目，经相关部门批准后方可开展经营活动】,1998-07-01,021-59140559,xux@kdlchina.com,,长期,商务服务业,企业管理服务,嘉定区,大健康,2019-09-16 13:05:28,2019-09-16 13:05:28,0,1,上海市,www.kdlchina.com
26,99a8c300-d83f-11e9-80c9-fa163e3115c2,91621200720251588Y,621200200001523,720251588,存续（在营、开业、在册）,186523.643000万人民币,王伟,制造业,2001-09-30,2001-09-30,2031-09-29,甘肃省,陇南市工商行政管理局,股份有限公司,恒康医疗集团股份有限公司,甘肃省陇南市康县王坝独一味工业园区,片剂、糖浆剂、颗粒剂、散剂、酒剂、硬胶囊剂、软胶囊剂、口服液、合剂、丸剂（微丸）、滴丸剂（含中药前处理、提取）、凝胶膏；中、藏药材种植、研究，高原生物开发、收购（国家明令禁止的除外），中药饮片；药品、食品、医疗器械的研究开发及技术咨询；日化用品、生物制品销售；医疗投资管理。,2019-08-23,028-85950888,28519114@qq.com,,2031-09-29,医药制造业,生物药品制造,康县,大健康,2019-09-16 13:05:28,2019-09-16 13:05:28,0,1,陇南市,www.hkmg.com
27,9a018849-d83f-11e9-80c9-fa163e3115c2,91330000754917034P,330000000011986,754917034,存续,45485.636500万人民币,陈海军,制造业,2003-09-30,2003-09-30,,浙江省,浙江省工商行政管理局,股份有限公司(上市、自然人投资或控股),创新医疗管理股份有限公司,浙江诸暨市山下湖镇郑家湖村,医院管理咨询服务，实业投资，医疗器械、医药产品的研发及技术咨询，医疗企业管理咨询服务，健康管理咨询服务（不含诊疗业务），经营进出口业务（范围详见《中华人民共和国进出口企业资格证书》）。（依法须经批准的项目，经相关部门批准后方可开展经营活动）,2019-01-08,0575-87682763,,"千足珍珠集团股份有限公司,浙江千足珍珠股份有限公司,浙江山下湖珍珠集团股份有限公司",长期,文教、工美、体育和娱乐用品制造业,工艺美术品制造,诸暨市,大健康,2019-09-16 13:05:29,2019-09-16 13:05:29,0,1,绍兴市,http://www.shanxiahupearl.com
28,9a5c2c8d-d83f-11e9-80c9-fa163e3115c2,91445200231131526C,440000000006711,231131526,在营（开业）企业,497386.167500万人民币,马兴田,批发和零售业,1997-06-18,1997-06-18,,广东省,广东省揭阳市工商行政管理局,股份有限公司(上市、自然人投资或控股),康美药业股份有限公司,广东省普宁市流沙揭神路东侧,生产：中药饮片（净制、切制、醋制、酒制、盐制、炒、煅、蒸、煮、炖、燀、制炭、炙制、制霜、水飞、含毒性饮片、直接口服饮片）、中药提取、中药配方颗粒、颗粒剂、片剂、硬胶囊剂（均含头孢菌素、青霉素类）、原料药（甲磺酸多沙唑嗪、盐酸丙哌维林、泛酸钙、吉法酯、盐酸坦洛新、雷贝拉唑钠）、食品；批发：中药材、中药饮片、中成药、化学原料药、化学药制剂、抗生素原料药、抗生素制剂、生化药品、生物制品（含体外诊断试剂、除疫苗）、第二类精神药品（制剂）、医疗用毒性药品（西药）、蛋白同化制剂、肽类激素、麻醉药品和第一类精神药品（区域性批发）；保健食品生产、销售；批发兼零售：预包装食品、散装食品（干果，坚果，烘焙食品，糖果蜜饯，罐头，烹调佐料，腌制品，酒精饮料，非酒精饮料）（以上各项具体按本公司有效许可证经营）；销售：电子产品，五金、交电，金属材料（不含金、银），建筑材料，百货，工艺美术品（不含金、银饰品），针、纺织品、化妆品、消毒剂、卫生产品、计生用品、农副产品；食品销售管理；房地产投资，猪、鱼、鸡、鹅、鸭饲养，水果种植；自营和代理除国家组织统一联合经营的16种出口商品和国家实行核定、准予公司经营的14种进口商品以外的其他商品及技术的进出口（按省外经贸委粤外经贸进字[97]339号文经营）；医疗器械（凭有效医疗器械经营企业许可证经营），医疗用毒性药品（中药材）；信息服务业务（仅限互联网信息服务业务，按经营许可证许可项目经营）；在经核准的区域内直销经核准的产品（具体区域和产品以商务部直销行业管理网站公布的为准）、普通货运、商务信息咨询服务；会议展览服务；仓储服务；自有房产租赁；市场管理服务；技术推广服务。(依法须经批准的项目，经相关部门批准后方可开展经营活动)〓,2019-07-17,0663-2917777,kangmeixg@kangmei.com.cn,,长期,批发业,医药及医疗器材批发,普宁市,大健康,2019-09-16 13:05:30,2019-09-16 13:05:30,0,1,揭阳市,http://www.kangmei.com.cn/cn/index.jp
29,9ac76a07-d83f-11e9-80c9-fa163e3115c2,91330700147493495C,330723000011204,147493495,存续,14387.160400万人民币,李明焱,批发和零售业,1997-03-03,1997-03-03,9999-09-09,浙江省,浙江省市场监督管理局,其他股份有限公司(上市),浙江寿仙谷医药股份有限公司,浙江省武义县壶山街道商城路10号,"药品经营、中医科服务（以上经营范围仅限分支机构经营）；定型包装食品销售；食用菌菌种批发；含茶制品及代用茶（代用茶）、炒货食品及坚果制品（烘炒类）、蔬菜制品[食用菌制品（干制食用菌）]生产；中药(国家法律、法规禁止或限制的除外)研究；原生中药材（除麻醉药品药用原植物、甘草、麻黄草）、蔬菜、水果、食用菌种植、收购、销售；初级食用农副产品分装；食用菌种植技术培训、咨询；旅游资源管理；货物与技术进出口业务,谷物、薯类的种植、销售；化妆品、食品、药品的检测服务；非医疗性健康知识咨询服务；化妆品、洗涤用品的销售；糕点加工；水产品的养殖、加工、销售;营利性医疗机构筹建（限分支机构凭许可证经营）。（依法须经批准的项目，经相关部门批准后方可开展经营活动）",2019-07-26,0579-87621769,sxg@sxgoo.com,"浙江寿仙谷生物科技有限公司,浙江省武义金星食用菌有限公司",长期,零售业,医药及医疗器材专门零售,武义县,大健康,2019-09-16 13:05:30,2019-09-16 13:05:30,0,1,金华市,https://www.sxg1909.com
30,9b17ee3b-d83f-11e9-80c9-fa163e3115c2,91440000633210884T,440000000024049,633210884,在营（开业）企业,66147.633500万,王永辉,制造业,1986-04-30,1986-04-30,,广东省,广东省市场监督管理局,其他股份有限公司(上市),广州市香雪制药股份有限公司,广州市萝岗区广州经济技术开发区科学城金峰园路2号,中药材种植、收购、销售；生产气雾剂，片剂，硬胶囊剂（含头孢菌素类），颗粒剂，口服液，合剂，口服溶液剂，中药饮片，中药前处理及提取车间（口服制剂）（按有效许可证经营）；经营本企业自产产品及相关技术的出口业务，经营本企业生产、科研所需的原辅材料、机械设备、仪器仪表、零配件及相关技术的进出口业务，经营本企业的进料加工和“三来一补”业务（具体按资格证书经营）；市场策划，企业管理咨询。,2019-07-08,020-22211555,niandubaogao@xphcn.com,,长期,医药制造业,中药饮片加工,萝岗区,大健康,2019-09-16 13:05:31,2019-09-16 13:05:31,0,1,广州市,http://www.xphcn.com
31,9b69d3eb-d83f-11e9-80c9-fa163e3115c2,91410000706786295N,410000100015551,706786295,存续（在营、开业、在册）,57388.628300万,李景亮,制造业,1998-08-31,1998-08-31,,河南省,河南省市场监督管理局,其他股份有限公司(上市),河南太龙药业股份有限公司,郑州高新技术产业开发区金梭路８号,药品的生产、销售（限公司及分支机构凭有效许可证经营）；保健食品的生产、销售；预包装食品的销售；药用植物的种植、销售（按国家有关规定）；医疗器械的销售；卫生消毒用品的销售（不含易燃易爆危险化学品）；化妆品的销售；咨询服务，技术服务；经营本企业自产产品及相关技术的进出口业务（国家限定公司经营或禁止进出口的商品及技术除外）。,2016-05-26,0371-67985269,xh@taloph.com,,长期,医药制造业,中成药生产,,大健康,2019-09-16 13:05:31,2019-09-16 13:05:31,0,1,郑州市,www.taloph.com
32,9bb71127-d83f-11e9-80c9-fa163e3115c2,91110106682888608J,110106011460524,682888608,开业,1161.100000万人民币,陈睿,科学研究和技术服务业,2008-11-18,2008-11-18,,北京市,北京市工商行政管理局丰台分局,其他股份有限公司(非上市),北京京福安科技股份有限公司,北京市丰台区中核路3号院3号楼14层1403室(园区),技术开发、技术转让、技术服务；信息咨询；投资咨询；销售电器设备、电子元器件、机械设备、建筑材料、水产品、鲜肉、新鲜水果、新鲜蔬菜、日用品、办公用品、医疗器械、家用电器；医疗器械租赁；会议服务；组织文化艺术交流活动；企业管理服务；承办展览展示活动；设计、制作、代理、发布广告；居家养老服务；劳务服务；销售食品。（企业依法自主选择经营项目，开展经营活动；销售食品以及依法须经批准的项目，经相关部门批准后依批准的内容开展经营活动；不得从事本市产业政策禁止和限制类项目的经营活动。）,2019-08-15,13581654450,hr@jfakjgf.com,北京京福安科技服务有限公司,长期,科技推广和应用服务业,其他科技推广和应用服务业,丰台区,大健康,2019-09-16 13:05:32,2019-09-16 13:05:32,0,1,北京市,www.jingfuan.com
33,9c051fe6-d83f-11e9-80c9-fa163e3115c2,91320200578134646J,,578134646,存续（在营、开业、在册）,1724.200000万人民币,涂家钦,卫生和社会工作,2011-06-30,2011-06-30,,江苏省,无锡市行政审批局,股份有限公司(非上市),无锡朗高养老集团股份有限公司,无锡新区震泽路18号无锡软件园射手座B栋300室,老年人养护服务（凭有效许可证经营）；护理机构服务；医疗护理服务；专科医院（凭有效许可证经营）；老年婚姻服务；家庭服务；利用自有资产对老年护理行业投资；培训服务（不含发证、不含国家统一认可的职业证书类培训）；老年营养健康咨询服务；医疗器械的销售、租赁（不含融资性租赁）；日用品、服装的销售。（以下限分支机构经营）内科、康复医学科、临终关怀科、医学检验科、医学影像科、中医科。（依法须经批准的项目，经相关部门批准后方可开展经营活动）,2019-06-28,0510-85165700,xz9898@126.com,"无锡朗高养老股份有限公司,无锡朗高老年服务有限公司,无锡朗高老年服务股份有限公司",长期,社会工作,提供住宿社会工作,,大健康,2019-09-16 13:05:32,2019-09-16 13:05:32,0,1,无锡市,http://www.lgyanglao.com
34,de483e11-4bbf-11e9-a8b1-fa163e5275a2,91442000669829187Q,442000000067445,669829187,在营（开业）企业,1000.000000万人民币,严艺,信息传输、软件和信息技术服务业,2007-12-11,2007-12-11,,广东省,广东省中山市工商行政管理局,股份有限公司(非上市、自然人投资或控股),中山爱科数字科技股份有限公司,中山市火炬开发区会展东路1号德仲广场1幢25层2501,计算机软件、硬件、数字家庭相关产品的技术研究、技术开发、技术咨询、呼叫中心业务、信息服务业务（仅限互联网信息服务和移动网信息服务业务，含医疗保健，不含新闻、出版、教育、药品、医疗器械、电子公告以及其他按法律、法规规定需前置审批或专项审批的服务项目，业务覆盖范围：广东省）、公共软件服务、应用软件服务；销售：电子产品（电子游戏设备及配件除外）。货物或技术进出口；网上销售：化妆品、日用品；食品经营；药品经营；第二、三类医疗器械经营；电影发行；电影放映；广播电视节目制作单位；营业性演出；文学创作服务；大型活动组织服务；会议及展览服务（依法须经批准的项目，经相关部门批准后方可开展经营活动。）(依法须经批准的项目，经相关部门批准后方可开展经营活动)〓,2018-08-20,0760-88821226,iker@iker.cn,,长期,软件和信息技术服务业,软件开发,,大健康,2019-03-21 17:58:25,2019-03-21 17:58:25,0,0,中山市,www.iker.cn
35,9c6d10c5-d83f-11e9-80c9-fa163e3115c2,91110108565807581A,110108013363172,565807581,开业,1133.333200万人民币,冷泓昊,科学研究和技术服务业,2010-11-15,2010-11-15,,北京市,北京市工商行政管理局海淀分局,股份有限公司(非上市、自然人投资或控股),北京三开科技股份有限公司,北京市海淀区东北旺西路8号中关村软件园8号楼一层132,技术开发、技术转让、技术咨询、技术服务、技术推广；计算机技术培训（不得面向全国招生）；基础软件服务；应用软件服务；计算机系统集成；数据处理（数据处理中的银行卡中心、PUE值在1.5以上的云计算数据中心除外）；设计、制作、代理、发布广告；销售自行开发后的产品、计算机、软件及辅助设备、通讯设备、电子产品、机械设备、医疗器械Ⅰ、Ⅱ类；居家养老服务；销售食品；出版物零售；广播电视节目制作；电影摄制；集中养老服务。（企业依法自主选择经营项目，开展经营活动；出版物零售、销售食品、广播电视节目制作、集中养老服务以及依法须经批准的项目，经相关部门批准后依批准的内容开展经营活动；不得从事本市产业政策禁止和限制类项目的经营活动。）,2018-11-26,010-82346868,info@sankai.com,三开（北京）科技有限公司,长期,科技推广和应用服务业,其他科技推广和应用服务业,海淀区,大健康,2019-09-16 13:05:33,2019-09-16 13:05:33,0,1,北京市,www.sankai.com
36,9cbcd2d0-d83f-11e9-80c9-fa163e3115c2,91500107693918008A,500901000105229,693918008,存续(在营、开业、在册),1000.000000万,童俊平,信息传输、软件和信息技术服务业,2009-09-03,2009-09-03,,重庆市,重庆市工商行政管理局九龙坡区分局高新区局,股份有限公司,重庆软汇科技股份有限公司,重庆市九龙坡区科园一路73号附14-7号,批发Ⅱ类6820普通诊察器械、6821医用电子仪器设备、6840临床检验分析仪器及诊断试剂（诊断试剂除外）（按许可证核定的事项和期限从事经营），互联网络技术开发及应用，计算机软硬件、通信设备（不含卫星地面发射和接收设备）的技术开发、销售，互联网信息咨询，数据处理与存储服务，计算机网络系统集成，网络工程设计、安装、维护，计算机网络技术服务、技术转让，电子元器件、家用电器的销售，设计、制作、代理、发布国内外广告，美容电子产品及仪器销售，健身设备及器材销售。（依法须经批准的项目，经相关部门批准后方可开展经营活动。）,2018-09-05,86186608,441072840@QQ.COM,重庆华龄软汇科技有限公司,长期,软件和信息技术服务业,软件开发,九龙坡区,大健康,2019-09-16 13:05:34,2019-09-16 13:05:34,0,1,重庆市,http://www.egean.cn
37,6bf34322-d850-11e9-80c9-fa163e3115c2,913100001330605412,310000000036602,133060541,存续（在营、开业、在册）,256289.854500万人民币,陈启宇,制造业,1995-05-31,1998-03-31,,上海市,上海市市场监督管理局,其他股份有限公司(上市),上海复星医药（集团）股份有限公司,曹杨路510号9楼,生物化学产品，试剂，生物四技服务，生产销售自身开发的产品，仪器仪表，电子产品，计算机，化工原料（除危险品），咨询服务；经营本企业自产产品及相关技术的出口业务，经营本企业生产、科研所需的原辅材料、机械设备、仪器仪表、零配件及相关技术的进口业务。【依法须经批准的项目，经相关部门批准后方可开展经营活动】,1995-05-31,021-33987000,ir@fosunpharma.com,,长期,医药制造业,生物药品制造,,大健康,2019-09-16 15:05:53,2019-09-16 15:05:53,0,1,,http://www.fosunpharma.com
38,9d5a134e-d83f-11e9-80c9-fa163e3115c2,9131000013358488X7,310000000026221,13358488X,存续（在营、开业、在册）,284208.932200万人民币,周军,制造业,1994-01-18,1994-01-18,,上海市,上海市工商行政管理局,其他股份有限公司(上市),上海医药集团股份有限公司,中国（上海）自由贸易试验区张江路92号,原料药和各种剂型（包括但不限于片剂、胶囊剂、气雾剂、免疫制剂、颗粒剂、软膏剂、丸剂、口服液、吸入剂、注射剂、搽剂、酊剂、栓剂）的医药产品（包括但不限于化学原料药、化学药制剂、中药材、中成药、中药饮片、生化药品、生物制品、麻醉药品、精神药品、医疗用毒性药品【与经营范围相适应】、疫苗）、保健品、医疗器械及相关产品的研发、制造和销售，医药装备制造、销售和工程安装、维修，仓储物流、海上、陆路、航空货运代理业务，实业投资、资产经营、提供国际经贸信息和咨询服务，自有房屋租赁，自营和代理各类药品及相关商品和技术的进出口业务。【依法须经批准的项目，经相关部门批准后方可开展经营活动】,1994-01-18,021-63730908,pharm@sphchina.com,,长期,医药制造业,中成药生产,自由贸易试验区,大健康,2019-09-16 13:05:35,2019-09-16 13:05:35,0,1,,http://www.sphchina.com/
39,9da9a03e-d83f-11e9-80c9-fa163e3115c2,91510100633116839D,510100000012344,633116839,存续（在营、开业、在册）,87559.768400万人民币,柯尊洪,制造业,1996-10-03,1996-10-03,3999-01-01,四川省,成都市市场监督管理局,其他股份有限公司(上市),成都康弘药业集团股份有限公司,成都市金牛区蜀西路36号,药品和医疗器械的研发、生产、销售及社会经济信息咨询；货物及技术进出口。（依法须经批准的项目，经相关部门批准后方可开展经营活动）。,2019-07-23,028-87516462,018229@cnkh.com,成都大西南制药股份有限公司,长期,医药制造业,化学药品原料药制造,金牛区,大健康,2019-09-16 13:05:35,2019-09-16 13:05:35,0,1,成都市,http://www.cn-kanghong.com
40,c0341b76-4bbd-11e9-a8b1-fa163e5275a2,913206007448277138,,744827713,开业,153228.390900万,谷晓嘉,制造业,2002-12-30,2002-12-30,,江苏省,延安市工商行政管理局,股份有限公司(上市、自然人投资或控股),延安必康制药股份有限公司,陕西省延安市宝塔区新区创新创业小镇E区,中药材收购；药品的生产及自产品的销售；7—氨基—3—去乙酰氧基头孢烷酸（7—ADCA）、5，5—二甲基海因及其衍生产品、三氯吡啶醇钠、六氟磷酸锂、锂电池隔膜、高强高模聚乙烯纤维、无纬布及制品、盐酸、氟化氢（无水）、氢氟酸、苯乙酸、氯化铵、硫酸铵、硫酸吡啶盐、塑料制品的生产及自产品销售（上述产品的生产、销售需按环保审批意见执行）；化工设备（压力容器除外）、机械设备制造、安装；经营本企业自产产品及技术的出口业务和本企业所需的机械设备、零配件、原辅材料及技术的进口业务（国家限定公司经营或禁止进出口的商品及技术除外）。（依法须经批准的项目，经相关部门批准后方可开展经营活动）,2018-10-16,,,江苏九九久科技股份有限公司,长期,化学原料和化学制品制造业,基础化学原料制造,E区,大健康,2019-03-21 17:43:16,2019-03-21 17:43:16,0,0,,
41,9e113430-d83f-11e9-80c9-fa163e3115c2,91440300708453259J,440301501124347,708453259,存续（在营、开业、在册）,104601.600000万人民币,叶澄海,制造业,1998-11-03,1998-11-03,,广东省,深圳市市场监督管理局,股份有限公司(中外合资、上市),深圳信立泰药业股份有限公司,深圳市福田区深南大道6009号车公庙绿景广场主楼37层,一般经营项目是：货物及技术进出口业务（不含进口分销业务）；自有物业租赁。，许可经营项目是：开发研究、生产化学原料药、粉针剂、片剂、胶囊。,2019-05-16,0755-83867888,fanweiwei@salubris.cn,深圳信立泰药业有限公司,长期,医药制造业,化学药品原料药制造,福田区,大健康,2019-09-16 13:05:36,2019-09-16 13:05:36,0,1,深圳市,http://www.salubris.cn/ch/index.asp
42,9e60cf6e-d83f-11e9-80c9-fa163e3115c2,91542200741928586E,5423233002505,741928586,存续（在营、开业、在册）,108027.000000万,王俊民,批发和零售业,2005-08-26,2005-08-26,2055-08-25,西藏自治区,山南市市场监督管理局,股份有限公司(上市、自然人投资或控股),海思科医药集团股份有限公司,西藏山南市泽当镇三湘大道17号,中成药、化学原料药及其制剂、抗生素、生化药品、生物制品（不含预防性生物制品和诊断药品）。销售:化工原料（不含易燃易爆及剧毒化工原料）、药用辅料及I、II、III类医疗器械；6822医用光学器械、仪器及内窥镜设备；中、西药品及新产品的研究、开发、技术服务、技术转让；设计、制作、代理；进出口贸易。企业品牌维护及推广，企业形象策划，企业营销管理咨询，营销管理培训，网络数据服务、房屋租赁。(依法须经批准的项目，经相关部门批准后方可开展经营活动),2017-07-04,0893-7834870,haisco@haisco.com,西藏海思科药业集团股份有限公司,2055-08-25,批发业,医药及医疗器材批发,山南市,大健康,2019-09-16 13:05:36,2019-09-16 13:05:36,0,1,,www.haisco.com
43,9eb83303-d83f-11e9-80c9-fa163e3115c2,91222400243805786K,220000000072468,243805786,存续（在营、开业、在册）,116277.818100万人民币,李秀林,农、林、牧、渔业,1993-03-20,1993-03-20,2038-09-14,吉林省,延边朝鲜族自治州工商行政管理局,其他股份有限公司(上市),吉林敖东药业集团股份有限公司,吉林省敦化市敖东大街2158号,种植养殖、商业（国家专项控制、专营除外）；机械修理、仓储；本企业生产、科研所需的原辅材料、机械设备、仪器仪表、零配件（国家实行核定公司经营的12种进口商品除外）进口；医药工业、医药商业、医药科研与开发；汽车租赁服务；自有房地产经营活动。（依法须经批准的项目，经相关部门批准后方可开展经营活动）,2019-05-09,0433-6231477,000623@jlaod.com,延边敖东药业（集团）股份有限公司,2038-09-14,农业,中药材种植,敦化市,大健康,2019-09-16 13:05:37,2019-09-16 13:05:37,0,1,延边朝鲜族自治州,http://www.jlaod.com
44,9f0b0c5b-d83f-11e9-80c9-fa163e3115c2,916500006255547591,650000410002520,625554759,开业,224148.180000万人民币,张湧,批发和零售业,1981-01-01,1981-01-01,2031-01-01,新疆维吾尔自治区,新疆维吾尔自治区市场监督管理局,其他股份有限公司(上市),德展大健康股份有限公司,新疆乌鲁木齐市天山区金银路53号金融大厦1611室,化学原料药、化学药制剂、抗生素原料药、抗生素制剂、中成药、食品、保健食品、化妆品的研发（不含国家保护资源的中药材、中成药秘方产品的研发）、批发、进出口及相关配套业务（不涉及国营贸易管理商品，涉及配额、许可证管理及其它专项规定管理的商品，按国家有关规定办理申请）；制造原料药、注射剂（水针、冻干粉针）、片剂、胶囊剂、滴眼剂、散剂；经营本企业和成员企业自产产品及技术出口业务；本企业和成员企业生产所需的原辅材料、仪器仪表、机械设备、零配件及技术的进出口业务；经营进料加工和“三来一补”业务；医药生物制品的技术开发、技术咨询、技术服务、技术转让,2019-05-20,18160684111,Xjlg0991@126.com,"新疆天山毛纺织品有限公司,新疆天山毛纺织股份有限公司",2031-01-01,批发业,医药及医疗器材批发,天山区,大健康,2019-09-16 13:05:37,2019-09-16 13:05:37,0,1,乌鲁木齐市,www.chinatianshan.com
45,9f5d89bf-d83f-11e9-80c9-fa163e3115c2,913301007463034461,330100400024187,746303446,存续,40100.000000万人民币,丁列明,制造业,2003-01-07,2003-01-07,,浙江省,浙江省市场监督管理局,股份有限公司(中外合资、上市),贝达药业股份有限公司,浙江省杭州市余杭经济技术开发区兴中路355号,药品的研发、技术咨询、技术推广和技术服务，药品生产（凭许可证经营），从事进出口业务。（依法须经批准的项目，经相关部门批准后方可开展经营活动）,2019-05-14,0571-89263217,li.liu@bettapharma.com,,长期,医药制造业,卫生材料及医药用品制造,余杭区,大健康,2019-09-16 13:05:38,2019-09-16 13:05:38,0,1,杭州市,http://www.bettapharma.com/
46,9fbfb81a-d83f-11e9-80c9-fa163e3115c2,91440300618874367T,440301501126176,618874367,存续（在营、开业、在册）,193803.333800万人民币,朱保国,制造业,1992-12-18,1992-12-18,2042-12-18,广东省,深圳市市场监督管理局,有限责任公司(中外合资),健康元药业集团股份有限公司,深圳市南山区高新区北区朗山路17号健康元药业集团大厦,一般经营项目是：无，许可经营项目是：中成药、化学原料药、化学药制剂、抗生素原料药、抗生素制剂的研发（不含国家保护资源的中药材、中成药秘方产品的研发）、批发、进出口及相关配套业务（不涉及国营贸易管理商品，涉及配额、许可证管理及其它专项规定管理的商品，按国家有关规定办理申请）；食品、保健食品、化妆品的研发；预包装食品销售（不含冷藏冻食品）、特殊食品销售（保健食品销售、特殊医学用途配方食品销售）；第一类、第二类医疗器械的研发和销售。,2019-09-03,0755-86252018,heyanmei@joincare.com,"深圳健康药业集团股份有限公司,深圳太太保健食品有限公司,深圳太太药业有限公司,深圳太太药业股份有限公司,深圳爱迷尔食品有限公司",2042-12-18,医药制造业,中成药生产,南山区,大健康,2019-09-16 13:05:39,2019-09-16 13:05:39,0,1,深圳市,
47,a01f6a5c-d83f-11e9-80c9-fa163e3115c2,91330000725254155R,330000000007443,725254155,存续,123090.457700万人民币,程先锋,科学研究和技术服务业,2000-11-10,2000-11-10,,浙江省,浙江省市场监督管理局,其他股份有限公司(上市),亿帆医药股份有限公司,浙江省临安经济开发区,食品添加剂、饲料添加剂、高分子材料(除危险品及易制毒品)、医用中间体的研发、销售，包装材料、机械设备及配件的销售，生物技术、药物的研发、技术开发与转让、技术咨询与服务，经营进出口业务。,2019-07-04,63807895,,"亿帆鑫富药业股份有限公司,浙江杭州鑫富药业股份有限公司,浙江鑫富生化股份有限公司",长期,研究和试验发展,医学研究和试验发展,临安市,大健康,2019-09-16 13:05:39,2019-09-16 13:05:39,0,1,杭州市,http://www.yifanyy.com/
48,a06a8ccc-d83f-11e9-80c9-fa163e3115c2,91330000610008739T,,610008739,存续,32000.000000万人民币,李丽莎,租赁和商务服务业,1996-12-24,1996-12-24,,浙江省,浙江省市场监督管理局,其他股份有限公司(上市),济民健康管理股份有限公司,台州市黄岩区北院路888号,健康管理咨询，健康信息咨询，生物技术、医疗技术的技术开发、技术服务，实业投资，医院管理，生产销售大容量注射剂、冲洗剂（凭许可证经营），生产销售药品包装材料和容器，生产销售医疗器械，技术进出口和货物进出口。（依法须经批准的项目，经相关部门批准后方可开展经营活动）,2019-04-02,0576-84066588,office@chimin.cn,浙江济民制药股份有限公司,长期,商务服务业,企业管理服务,黄岩区,大健康,2019-09-16 13:05:40,2019-09-16 13:05:40,0,1,台州市,http://www.chimin.cn/
49,a0c8c6c6-d83f-11e9-80c9-fa163e3115c2,91110000633796475U,110000005103198,633796475,开业,104323.771000万人民币,冯毅,制造业,1997-05-16,1997-05-16,2097-05-15,北京市,北京市工商行政管理局朝阳分局,其他股份有限公司(上市),华润双鹤药业股份有限公司,北京市朝阳区望京利泽东二路1号,加工、制造大容量注射剂（含多层共挤膜输液袋）、小容量注射剂（含抗肿瘤类）、冻干粉针剂（含青霉素类）、片剂（含头孢菌素类）、硬胶囊剂、软胶囊剂（胶丸）、颗粒剂（含头孢菌素类）、冲洗剂、气雾剂、原料药、精神药品、小容量注射剂（聚丙烯安瓿）、涂剂、凝胶剂、进口药品分包装（硬胶囊剂）、中药提取（具体生产范围以《药品生产许可证》为准；（药品生产许可证有效期至2020年12月10日）；销售公司自产产品、机械电器设备；技术开发、技术转让、技术服务（未经专项审批项目除外）；生产制药机械设备（仅限分支机构经营）；自营和代理各类商品及技术的进出口业务，但国家限定公司经营或禁止进出口的商品及技术除外；经营进料加工和“三来一补”业务；经营对销贸易和转口贸易。（企业依法自主选择经营项目，开展经营活动；依法须经批准的项目，经相关部门批准后依批准的内容开展经营活动；不得从事本市产业政策禁止和限制类项目的经营活动。）,2019-07-01,01064742227,zongcaiban@dcpc.com,北京双鹤药业股份有限公司,2097-05-15,医药制造业,化学药品制剂制造,朝阳区,大健康,2019-09-16 13:05:40,2019-09-16 13:05:40,0,1,北京市,www.dcpc.com
50,a117cc3a-d83f-11e9-80c9-fa163e3115c2,91460000620000247L,460000000140801,620000247,存续（在营、开业、在册）,18317.643000万人民币,范敏华,制造业,1992-07-14,1992-07-14,,海南省,海南省市场监督管理局,股份有限公司(台港澳与境内合资、上市),海南普利制药股份有限公司,海口市美兰区桂林洋经济开发区,兴办工厂，西药原料药、中间体和制剂、中成药、药用辅料的研发、生产、销售，卫生及医药信息服务。,2018-08-14,65710369,yanghu740918@163.com,,长期,医药制造业,化学药品原料药制造,美兰区,大健康,2019-09-16 13:05:41,2019-09-16 13:05:41,0,1,海口市,
51,a16b5fcf-d83f-11e9-80c9-fa163e3115c2,91130100104397700P,130000000008365,104397700,存续（在营、开业、在册）,163080.472900万人民币,杨国占,制造业,1992-12-20,1992-12-20,,河北省,石家庄市市场监督管理局,其他股份有限公司(上市),华北制药股份有限公司,石家庄市和平东路388号,药品的生产、销售（按许可证核定的范围及有效期限经营）；中药饮片的生产和销售（按许可证核定的范围及有效期限经营）；医药中间体、植物提取物、食品添加剂（番茄红素、β-胡萝卜素）的生产、销售；货物仓储（法律、法规、国务院决定禁止或者需审批的除外）；普通货运；商品及技术的进出口业务，但国家限定公司经营或禁止进出口的商品及技术除外；医药化工技术转让、技术开发、技术咨询服务；机器设备清洗、机电仪安装、检定检修；粮食、包装材料、化妆品、办公用品、劳保用品、日常百货、服装、建筑材料、通讯器材、电子产品、塑橡制品、汽车配件、办公家具、润滑油、五金、仪器仪表、药用玻璃制品、化学试剂、机械设备、电器机械及零配件的批发、零售（以上事项需前置审批的除外）；卫生用品的销售；房屋租赁；以下仅限分支机构经营（涉及许可的凭许可证经营）：药用辅料(重组人血白蛋白)、栓剂、酊剂、散剂、空心胶囊、合剂、滴丸剂、口服液、溶液剂的生产；重组人血白蛋白（非血液制品、非药品）的生产、销售；兽药销售；中成药、化学原料药及其制剂、抗生素原料药及其制剂、生化药品、生物制品、第二类精神药品制剂的批发；计生用品（药品、需审批的医疗器械除外）、保健品、药用中间体、植物提取物零售；药用玻璃瓶、日用玻璃制品、工业氧气的生产；预包装食品、化工产品、钢材及其制品、铝材及其制品、纸张、有色金属、焦炭的批发、零售；中药类产品、中西药、生物技术产品、农兽药及综合技术的研发、技术咨询；预包装食品、保健食品、特殊医学用途配方食品的研发、加工、生产、销售。（依法须经批准的项目，经相关部门批准后方可开展经营活动）,2018-07-09,0311-85993999,无,,长期,医药制造业,化学药品原料药制造,,大健康,2019-09-16 13:05:41,2019-09-16 13:05:41,0,1,石家庄市,http://www.ncpc.com.cn/
52,a1c74550-d83f-11e9-80c9-fa163e3115c2,91110000108283057Y,110000011167914,108283057,开业,92816.0351万元,陈庆财,科学研究和技术服务业,1996-12-24,1996-12-24,,北京市,丰台分局,其他股份有限公司(上市),北京奥赛康药业股份有限公司,北京市丰台区南四环西路188号七区28号楼,医学研究与试验发展；技术咨询、技术服务；货物进出口、技术进出口；企业管理;销售化工产品。（企业依法自主选择经营项目，开展经营活动；销售化工产品以及依法须经批准的项目，经相关部门批准后依批准的内容开展经营活动；不得从事本市产业政策禁止和限制类项目的经营活动。）,2019-03-04,010-63706999,bnec@bnec.cn,北京东方新星石化工程股份有限公司,长期,研究和试验发展,医学研究和试验发展,丰台区,大健康,2019-09-16 13:05:42,2019-09-16 13:05:42,0,1,北京市,http://www.bnec.cn
53,a21ccd58-d83f-11e9-80c9-fa163e3115c2,91230199128175037N,230199100000366,128175037,存续（在营、开业、在册）,252339.217600万,张镇平,制造业,1991-12-28,1991-12-28,,黑龙江省,哈尔滨市市场监督管理局,其他股份有限公司(上市),哈药集团股份有限公司,哈尔滨市利民开发区利民西四大街68号,按直销经营许可证从事直销。购销化工原料及产品（不含危险品、剧毒品），按外经贸部核准的范围从事进出口业务；以下仅限分支机构：医疗器械、制药机械制造（国家有专项规定的除外）、医药商业及药品制造、纯净水、饮料、淀粉、饲料添加剂、食品、化妆品制造、包装、印刷；生产阿维菌素原药；卫生用品（洗液）的生产、销售；以下仅限分支机构经营：保健食品、日用化学品的生产和销售。,2019-08-27,0451-51961111-15262,wyhzty2007@126.com,,长期,医药制造业,化学药品制剂制造,,大健康,2019-09-16 13:05:43,2019-09-16 13:05:43,0,1,哈尔滨市,www.hayao.com
54,a271d8e0-d83f-11e9-80c9-fa163e3115c2,9112000010409702XT,120000000002592,10409702X,存续（在营、开业、在册）,301105.479300万人民币,姚小青,制造业,2000-09-30,2000-09-30,2050-09-29,天津市,天津市市场和质量监督管理委员会,股份有限公司(上市),天津红日药业股份有限公司,天津新技术产业园区武清开发区泉发路西,小容量注射剂、片剂、硬胶囊剂、颗粒剂、原料药生产、中药提取；生物工程药品、基因工程药品、植化药品、化学药品的研究、开发、咨询、服务；普通货运；下列项目在天津新技术产业园区武清开发区源泉路17号开展生产活动：中药材前处理；原料药；药用辅料；大容量注射剂；冻干粉针剂；化工产品（危险品及易制毒品除外）批发兼零售；货物及技术进出口（法律、行政法规另有规定的除外）。（以上范围涉及药品的凭药品生产许可经营）（依法须经批准的项目，经相关部门批准后方可开展经营活动）,2019-05-15,59623160,wj811204@163.com,,2050-09-29,医药制造业,化学药品制剂制造,武清区,大健康,2019-09-16 13:05:43,2019-09-16 13:05:43,0,1,天津市,http://www.chasesun.cn/
55,a2c656ba-d83f-11e9-80c9-fa163e3115c2,914504001982304689,450400000010031,198230468,存续（在营、开业、在册）,347510.714700万,欧阳静波,租赁和商务服务业,1993-07-28,1993-07-28,,广西壮族自治区,梧州市行政审批局,其他股份有限公司(上市),广西梧州中恒集团股份有限公司,广西梧州工业园区工业大道１号第１幢,对医药、能源、基础设施、城市公用事业、酒店旅游业、物流业的投资与管理；房地产开发与经营（凭有效资质证书开展经营活动）、投资；自有资产经营与管理；国内商业贸易（除国家有专项规定以外）。,2016-03-24,0774-3939063,zhongheng@wz-zhongheng.com,广西梧州中恒股份有限公司,长期,商务服务业,企业管理服务,,大健康,2019-09-16 13:05:44,2019-09-16 13:05:44,0,1,梧州市,www.wz-zhongheng.com
56,a3137516-d83f-11e9-80c9-fa163e3115c2,91320700138997640W,320000000015406,138997640,存续（在营、开业、在册）,59288.103800万人民币,肖伟,制造业,1996-05-08,1996-05-08,,江苏省,连云港市市场监督管理局,股份有限公司(上市),江苏康缘药业股份有限公司,连云港经济技术开发区江宁工业城,中药、化学药、生物药、天然药物制品、食品（以上按许可经营）、日用化学产品（限行业分类268类）的生产；药品、食品的原料、辅料、中间体、包装材料、试剂耗材（不含危化品）、设施设备的收购、加工、生产、销售；自营和代理各类商品和技术的进出口业务（但国家禁止或限制企业进出品的商品和技术除外）。（依法须经批准的项目，经相关部门批准后方可开展经营活动）***,2019-06-27,0518-85521990,fzb@kanion.com,,长期,医药制造业,化学药品制剂制造,,大健康,2019-09-16 13:05:44,2019-09-16 13:05:44,0,1,连云港市,http://www.kanion.com/
57,a37acc1b-d83f-11e9-80c9-fa163e3115c2,91330000704503984N,330000000031464,704503984,存续,72487.200000万人民币,吕钢,制造业,1999-02-13,1999-02-13,,浙江省,浙江省工商行政管理局,其他股份有限公司(上市),浙江京新药业股份有限公司,浙江省新昌县羽林街道新昌大道东路800号,药品生产业务范围详见《药品生产许可证》。化工中间体（不含危险品）的生产销售，新产品开发及技术转让，经营进出口业务（范围详见外经贸部门批）。,2019-01-15,86176710,,,长期,医药制造业,化学药品制剂制造,新昌县,大健康,2019-09-16 13:05:45,2019-09-16 13:05:45,0,1,绍兴市,http://www.jingxinpharm.com/
58,a3d2b2ce-d83f-11e9-80c9-fa163e3115c2,91310000630459924R,310000000048680,630459924,存续（在营、开业、在册）,105622.687000万人民币,周斌,制造业,1996-11-27,1996-11-27,,上海市,上海市市场监督管理局,其他股份有限公司(上市),上海现代制药股份有限公司,上海市建陆路378号,药品，保健品制造，药用原辅料，制药机械批售，药品、保健品等产品的研究开发、技术转让、技术咨询、技术服务、技术培训，货物进出口业务及技术进出口业务，生产：大蒜油软胶囊、卵磷脂软胶囊、深海鱼油软胶囊，自有设备租赁，自有房屋租赁。【依法须经批准的项目，经相关部门批准后方可开展经营活动】,1996-11-27,021-62510990,shyndec@sinopharm.com,,长期,医药制造业,化学药品原料药制造,,大健康,2019-09-16 13:05:45,2019-09-16 13:05:45,0,1,,www.hyndec.com
59,a422010e-d83f-11e9-80c9-fa163e3115c2,91460000201289453D,460000000147194,201289453,存续（在营、开业、在册）,133597.926400万,刘悉承,批发和零售业,1992-12-30,1992-12-30,,海南省,海南省市场监督管理局,其他股份有限公司(上市),海南海药股份有限公司,海口市秀英区南海大道192号,精细化工产品、化学原料药、中药材、中药成药、西药成药、保健品、药用辅料、化工原料及产品（专营除外）、建材、金属材料（专营除外）、家用电器、日用百货、机械产品、纺织品的生产、批发、零售、代购代销；自有房产经营；中药材、花卉种植经营；进出口业务；医药咨询服务。,2016-11-16,0898-68660860,hnhy@haiyao.com.cn,,长期,批发业,医药及医疗器材批发,秀英区,大健康,2019-09-16 13:05:46,2019-09-16 13:05:46,0,1,海口市,www.haiyao.com.cn
60,a475ac33-d83f-11e9-80c9-fa163e3115c2,91230100718460989M,230000400002254,718460989,存续（在营、开业、在册）,219812.295000万人民币,朱吉满,制造业,2000-03-27,2000-03-27,,黑龙江省,哈尔滨市市场监督管理局,股份有限公司(中外合资、上市),哈尔滨誉衡药业股份有限公司,黑龙江省哈尔滨市呼兰区利民经济技术开发区北京路29号.,生产销售片剂、胶囊剂、颗粒剂、粉针剂（均为头孢菌素类）、粉针剂（激素类）、干混悬剂、小容量注射剂（含抗肿瘤药）、冻干粉针剂（含抗肿瘤药、头孢菌素类）、栓剂、原料药（秦龙苦素、炎琥宁、依托咪酯、氟比洛芬酯）、进口药品分包装（注射剂（玻璃酸钠注射液）、治疗用生物制品（重组人胰岛素注射液、精蛋白重组人胰岛素注射液、精蛋白重组人胰岛素注射液（预混30/70））），技术咨询、工艺技术转让、技术开发。,2017-10-17,0451-57351368,ceooffice@gloria.cc,,长期,医药制造业,化学药品制剂制造,呼兰区,大健康,2019-09-16 13:05:47,2019-09-16 13:05:47,0,1,哈尔滨市,http://www.gloria.cc/
61,25b9e047-4bbd-11e9-a8b1-fa163e5275a2,91440300748855818E,440301103008894,748855818,存续（在营、开业、在册）,93469.254000万人民币,曾少贵,制造业,2003-04-02,2003-04-02,,广东省,深圳市市场监督管理局,股份有限公司(上市),深圳翰宇药业股份有限公司,深圳市南山区高新技术工业园中区翰宇生物医药园办公大楼四层,经营进出口业务（法律、行政法规、国务院决定禁止的项目除外，限制的项目须取得许可后方可经营）。生产经营片剂、硬胶囊剂、颗粒剂、小容量注射剂、冻干粉针剂、原料药（按照《药品生产许可证》批准的种类生产）。,2019-03-01,0755-26588000,webmaster@hybio.com.cn,深圳市翰宇药业有限公司,长期,化学原料和化学制品制造业,专用化学产品制造,南山区,大健康,2019-03-21 17:38:57,2019-03-21 17:38:57,0,0,深圳市,http://www.hybio.com.cn
62,a4ddd22d-d83f-11e9-80c9-fa163e3115c2,91210100243490227Y,210100000035297,243490227,存续（在营、开业、在册）,60719.908300万人民币,魏海军,制造业,1993-06-10,1993-06-10,2043-06-10,辽宁省,沈阳市市场监督管理局,其他股份有限公司(上市),东北制药集团股份有限公司,沈阳经济技术开发区昆明湖街,许可经营项目：原料药、无菌原料药、食品添加剂、饲料添加剂、危险化学品生产（以上经营范围按生产许可证规定项目及地址从事生产经营活动）；一般经营项目：医药中间体副产品、包装材料、化工产品（不含危险化学品）、化妆品制造；医药新产品开发、技术咨询服务、成果转让；污水处理、环保技术服务、环保技术咨询；金属材料销售；厂房、设备租赁，自营和代理各类商品和技术的进出口，但国家限定公司经营或禁止进出口的商品和技术除外。（依法须经批准的项目，经相关部门批准后方可开展经营活动。）,2019-07-03,024-25806688,25806688@163.com,东北制药集团股份有限公司(沈阳),2043-06-10,医药制造业,化学药品原料药制造,,大健康,2019-09-16 13:05:47,2019-09-16 13:05:47,0,1,沈阳市,www.nepharm.com.cn
63,a5393723-d83f-11e9-80c9-fa163e3115c2,91370800706117999P,370833018004046,706117999,在营（开业）企业,45335.300000万人民币,杜振新,制造业,1998-11-06,1998-11-06,,山东省,济宁高新技术产业开发区市场监督管理局,其他股份有限公司(上市),辰欣药业股份有限公司,济宁高新区同济科技工业园,片剂、软膏剂、乳膏剂、眼膏剂、滴眼剂、搽剂（均含激素类）、灌肠剂、洗剂，冻干粉针剂（含抗肿瘤药），大容量注射剂（含抗肿瘤药）、滴耳剂、滴鼻剂、硬胶囊剂、软胶囊剂、酊剂（外用）、冲洗剂、小容量注射剂（含激素类、抗肿瘤药）、粉针剂，原料药，特殊医学用途配方食品、第二类精神药品制剂的生产与销售（有效期限以许可证为准)；货物与技术的进出口业务（国家限制或禁止的除外）；药品研发技术服务；保健食品“辰欣牌果味维生素C咀嚼片”、“辰欣牌钙咀嚼片（孕妇型）”、“辰欣牌钙咀嚼片（青少年儿童型）”、“辰欣牌维C加锌咀嚼片”、“辰欣牌叶酸铁片”、“辰欣牌维D3钙咀嚼片（中老年型）”的生产、销售。(依法须经批准的项目，经相关部门批准后方可开展经营活动),2017-12-05,0537-2985796,cxyy@cisenyy.com,,长期,医药制造业,化学药品制剂制造,,大健康,2019-09-16 13:05:48,2019-09-16 13:05:48,0,1,济宁市,http://www.lkcisen.com/
64,a586e609-d83f-11e9-80c9-fa163e3115c2,915002262038944463,500226000003922,203894446,存续(在营、开业、在册),40006.000000万,游洪涛,制造业,1996-11-04,1996-11-04,,重庆市,重庆市工商行政管理局荣昌区分局,股份有限公司(上市公司),重庆华森制药股份有限公司,重庆市荣昌区工业园区,粉针剂、冻干粉针剂、小容量注射剂、片剂、硬胶囊剂、颗粒剂、散剂、原料药（铝碳酸镁）、原料药（甲磺酸加贝酯）、原料药（阿戈美拉汀）、原料药（埃索美拉唑钠）、原料（盐酸戊乙奎醚）、原料药（甲磺酸雷沙吉兰）、原料药（苹果酸阿莫曲坦）、软胶囊剂（以上具体生产项目经国家相关认证许可后方可执业）。销售：医疗器械、卫生材料；新药技术成果转让、技术咨询，经营本企业自产产品的出口业务和企业所需的机械设备、零配件、原辅材料的进口业务，但国家限定公司经营或禁止进出口的商品及技术除外；中药材研发及技术推广；中药材种植及培育、销售。【以上经营范围依法须经批准项目，经相关部门批准后方可开展经营活动】★★★★★,2017-12-14,67622999,121744149@qq.com,重庆华森制药有限公司,长期,医药制造业,化学药品原料药制造,荣昌区,大健康,2019-09-16 13:05:48,2019-09-16 13:05:48,0,1,,http://pharscin.com
65,a5d3e03f-d83f-11e9-80c9-fa163e3115c2,91310000132209607P,310000000005918,132209607,存续（在营、开业、在册）,68471.201000万人民币,赵文斌,信息传输、软件和信息技术服务业,1990-11-17,1990-11-17,,上海市,上海市工商行政管理局,其他股份有限公司(上市),上海复旦复华科技股份有限公司,上海市杨浦区复旦科技园四平路1779号103室,电脑系统、通讯设备、自动化仪表、生物技术、光源照明等产品的研制及生产销售，经外经贸委批准的进出口业务，科技成果陈列，投资参股其它领域的生产产品及经营，“四技”和“三来一补”业务。【依法须经批准的项目，经相关部门批准后方可开展经营活动】,1990-11-17,021-63872288,akun@forwardgroup.com,,长期,软件和信息技术服务业,信息系统集成服务,杨浦区,大健康,2019-09-16 13:05:49,2019-09-16 13:05:49,0,1,上海市,www.forwardgroup.com
66,a6280def-d83f-11e9-80c9-fa163e3115c2,912101001179988209,210100401000628,117998820,存续（在营、开业、在册）,8243.000000万人民币,刘继东,制造业,1977-03-24,1977-03-24,,辽宁省,沈阳市市场监督管理局,股份有限公司(台港澳与境内合资、上市),沈阳兴齐眼药股份有限公司,沈阳市东陵区泗水街68号,滴眼剂（含激素类）、眼膏剂、眼用凝胶剂、溶液剂（眼用）、吸入制剂、大容量注射剂、塑料瓶、原料药、保健食品、化妆品生产，药品检验服务，医疗器械生产、销售，场地租赁，设备租赁，自营和代理各类商品和技术的进出口，但国家限定公司经营或禁止进出口的商品和技术除外。（依法须经批准的项目，经相关部门批准后方可开展经营活动。）,2019-06-03,024-88026043,sinqi_das@sinqi.com,"东北制药集团沈阳市兴齐制药厂,沈阳兴齐制药有限公司,沈阳市兴齐制药有限责任公司",长期,医药制造业,化学药品制剂制造,东陵区,大健康,2019-09-16 13:05:49,2019-09-16 13:05:49,0,1,沈阳市,www.sinqi.com
67,a6774935-d83f-11e9-80c9-fa163e3115c2,91540000710906683D,540000100003710,710906683,存续（在营、开业、在册）,17961.920500万,陈达彬,制造业,1999-07-14,1999-07-14,2039-07-14,西藏自治区,西藏自治区市场监督管理局,其他股份有限公司(上市),西藏诺迪康药业股份有限公司,拉萨市北京中路９３号,生产、销售胶囊剂、颗粒剂；涂膜剂、中药材采集、销售；进出口贸易（进口：医疗器械、保健用品、化妆品。出口：中成药、藏药、原料药、药材、保健食品、食品）；房屋租赁[依法须经批准的项目，经相关部门批准后，方可经营该项活动]。,2018-04-09,0891-6835752,zqb@xzyy.cn,,2039-07-14,医药制造业,化学药品原料药制造,,大健康,2019-09-16 13:05:50,2019-09-16 13:05:50,0,1,拉萨市,www.xzyy.cn
68,a6d400b1-d83f-11e9-80c9-fa163e3115c2,914400007361542488,440000000036052,736154248,在营（开业）企业,16147.100000万人民币,李捍雄,批发和零售业,2002-02-04,2002-02-04,,广东省,广东省市场监督管理局,其他股份有限公司(上市),一品红药业股份有限公司,广州市天河区珠江新城金穗路星汇国际大厦西塔17层01单元,研究、开发：药品；医药技术转让；货物进出口、技术进出口。,2018-12-05,020-28877666,,广东一品红药业有限公司,长期,批发业,医药及医疗器材批发,天河区,大健康,2019-09-16 13:05:50,2019-09-16 13:05:50,0,1,广州市,http://www.gdyph.com/
69,a721cce1-d83f-11e9-80c9-fa163e3115c2,91130100732914772Y,130000000011859,732914772,存续（在营、开业、在册）,93496.687800万人民币,高晓东,制造业,2000-09-28,2000-09-28,,河北省,石家庄市市场监督管理局,其他股份有限公司(上市),河北常山生化药业股份有限公司,河北省石家庄市正定县富强路9号,经营本企业自产产品和技术的出口业务和本企业所需的原辅材料、机械设备、零配件及技术的进口业务（国家限定公司经营和禁止进出口的商品及技术除外）；片剂、硬胶囊剂、小容量注射剂、原料药（肝素钠、肝素钙、低分子量肝素钠（依诺肝素钠、达肝素钠）、低分子量肝素钙（那屈肝素钙）、无蛋白肝素粗品、类肝素、肝素锂、透明质酸钠、枸橼酸西地那非）的生产（凭许可证经营）。（依法须经批准的项目，经相关部门批准后方可开展经营活动）,2019-05-27,0311-89190198,csyy0198@126.com,,长期,医药制造业,化学药品原料药制造,正定县,大健康,2019-09-16 13:05:51,2019-09-16 13:05:51,0,1,石家庄市,http://www.heparin.cn/
70,a7792b04-d83f-11e9-80c9-fa163e3115c2,913500007297027606,350926100003095,729702760,存续（在营、开业、在册）,14000.000000万人民币,李国平,制造业,2001-06-28,2001-06-28,,福建省,福建省市场监督管理局,股份有限公司(上市、自然人投资或控股),福建广生堂药业股份有限公司,柘荣县东源乡富源工业区,凭药品生产许可证生产销售：片剂、胶囊剂、茶剂、颗粒剂、原料药、人工天竺黄；凭食品卫生许可证生产销售保健食品；出口：本企业自产的医药制品（医药行业有规定的从其规定）；进口：本企业生产、科研所需的原辅材料、机械设备、零配件及技术的进口业务；药品、保健食品、食品的研发及提供相关技术服务。(依法须经批准的项目，经相关部门批准后方可开展经营活动),2019-06-20,0591-38305326,linby@cosunter.com,,长期,医药制造业,化学药品原料药制造,柘荣县,大健康,2019-09-16 13:05:52,2019-09-16 13:05:52,0,1,宁德市,http://www.cosunter.com
71,a7dbe32d-d83f-11e9-80c9-fa163e3115c2,91370000163099017C,370000018002826,163099017,在营（开业）企业,23433.148500万人民币,任年峰,制造业,1993-06-26,1993-06-26,,山东省,山东省市场监督管理局,股份有限公司(上市),山东山大华特科技股份有限公司,沂南县县城振兴路6号,二氧化氯制备成套装置的集成、销售、安装及技术服务；二氧化氯发生器、次氯酸钠发生器、臭氧发生器的开发、生产、销售、安装及技术服务；消毒产品的销售；环保设备、水处理设备的开发、生产、销售、安装；智慧协同消毒系统的开发及应用；环保、建筑智能化、市政公用工程设计、施工、工程总承包；水污染治理工程、污水处理及再生利用工程、工业废水废气废物处理工程、大气污染治理工程总承包；地源热泵工程总承包；计算机软件技术开发及服务、产品销售；计算机集成及网络工程施工；工业自动控制设备、信息设备、大屏幕显示设备开发、生产、销售、安装；沥青、防水材料销售；房屋租赁；高新技术开发、成果转让、技术服务；进出口业务。（依法须经批准的项目，经相关部门批准后方可开展经营活动）,2019-06-14,0531-85198090,earwa@163.com,,长期,皮革、毛皮、羽毛及其制品和制鞋业,制鞋业,沂南县县,大健康,2019-09-16 13:05:52,2019-09-16 13:05:52,0,1,,http://www.sd-wit.com
72,a82e1662-d83f-11e9-80c9-fa163e3115c2,913205007141233790,320500000046593,714123379,存续（在营、开业、在册）,83432.055100万人民币,郁霞秋,租赁和商务服务业,1999-09-09,1999-09-09,,江苏省,江苏省市场监督管理局,股份有限公司(上市、自然人投资或控股),长江润发医药股份有限公司,江苏省张家港市金港镇晨丰公路,医药原料药及制剂、生化药品及化工产品（危险化学品除外）、中成药、医疗器械的研发、生产和销售；进口药品分包及销售；医疗服务、医疗投资、健康产业投资；升降移动机械、港口门座起重机、电梯配件、汽车型材及配件制造、加工、销售；自有厂房、设施设备出租；自营和代理各类商品及技术的进出口业务（国家限定企业经营或禁止进出口的商品和技术除外）。（依法须经批准的项目，经相关部门批准后方可开展经营活动）,2018-12-20,0512-56926898,cjrf@cjrfjx.com,长江润发机械股份有限公司,长期,商务服务业,企业管理服务,张家港市,大健康,2019-09-16 13:05:53,2019-09-16 13:05:53,0,1,苏州市,www.cjrfjx.com
73,a88cff0f-d83f-11e9-80c9-fa163e3115c2,91540091785815591P,540091100002122,785815591,存续（在营、开业、在册）,42300.000000万,张勇,科学研究和技术服务业,2006-03-17,2012-05-25,,西藏自治区,拉萨经济技术开发区市场监督管理局,其他股份有限公司(上市),西藏卫信康医药股份有限公司,拉萨经济技术开发区B区园区南路5号工业中心4号楼3层,医药技术研发、技术咨询、技术服务、技术转让；药品技术的引进和推广；信息咨询、投资咨询（不含金融和经纪业务）；企业管理咨询、会议主持、展示展览服务（不含大型演出）。【依法须经批准的项目，经相关部门批准后，方可经营该项活动】,2019-02-18,15289085732,728113533@qq.com,"西藏中卫信康医药科技发展有限公司,西藏中卫康医药科技有限公司,西藏卫信康医药有限公司",长期,研究和试验发展,医学研究和试验发展,B区,大健康,2019-09-16 13:05:53,2019-09-16 13:05:53,0,1,拉萨市,http://www.wxkpharma.com/
74,a8e4076a-d83f-11e9-80c9-fa163e3115c2,91140000701108049W,140000100070635,701108049,存续（在营、开业、在册）,77000.002300万,任武贤,批发和零售业,1999-01-26,1999-01-26,,山西省,山西省市场监督管理局,其他股份有限公司(上市),亚宝药业集团股份有限公司,山西省运城市芮城县富民路43号,药品生产、药品销售：贴剂、中药提取、小容量注射剂、软膏剂、巴布膏剂、原料药、冻干粉针剂、片剂（含外用）、硬胶囊剂、软胶囊剂、颗粒剂、乳膏剂、贴膏剂、糊剂、散剂、煎膏剂（膏滋）、凝胶贴膏、精神药品、胶贴、醒脑贴、退热贴、药用辅料、中药材种植、中药饮片加工、医疗器械、卫生材料、药用包装材料、塑料制品；医疗器械生产、医疗器械销售：敷料、无纺布胶带、珠光膜胶带、胶贴；化妆品生产：日用化妆品生产、销售；兽药生产、兽药经营；饲料生产、饲料添加剂生产；食品经营：保健品、保健食品、营养食品、特殊医学用途配方食品、食品、饮料、酒；药品经营、中西药的研究与开发、医药信息咨询及技术转让服务；互联网科技创新平台：资源与知识产权交易服务；道路货物运输；城市配送服务；经营本企业生产所需的原辅材料；仪器仪表、普通机械设备及零配件、化工产品（危化品除外）的生产及销售；进出口：自营和代理各类商品和技术的进出口业务。（依法须经批准的项目，经相关部门批准后方可开展经营活动）,2019-05-06,010-57809900,lina@yabaoyaoye.com,,长期,批发业,食品、饮料及烟草制品批发,芮城县,大健康,2019-09-16 13:05:54,2019-09-16 13:05:54,0,1,运城市,http://www.yabao.com.cn
75,a937c37a-d83f-11e9-80c9-fa163e3115c2,911100007002230889,110302000409597,700223088,开业,48416.600000万人民币,马骉,制造业,1999-05-20,1999-05-20,,北京市,北京市工商行政管理局北京经济技术开发区分局,股份有限公司(上市、自然人投资或控股),北京赛升药业股份有限公司,北京市北京经济技术开发区兴盛街8号,原料药、针剂的制造；技术开发、技术转让、技术咨询、技术服务；商业特许经营；投资、投资管理、投资咨询。（企业依法自主选择经营项目，开展经营活动；依法须经批准的项目，经相关部门批准后依批准的内容开展经营活动；不得从事本市产业政策禁止和限制类项目的经营活动。）,2018-11-20,010-67877178,1033702003@qq.com,北京赛生药业有限公司,长期,医药制造业,化学药品原料药制造,,大健康,2019-09-16 13:05:54,2019-09-16 13:05:54,0,1,,http：//www.ssyy.com.cn
76,a98a1d07-d83f-11e9-80c9-fa163e3115c2,91110000102017145R,110000004222500,102017145,开业,48898.987600万人民币,王代雪,制造业,1992-09-05,2001-02-08,,北京市,北京市工商行政管理局密云分局,其他股份有限公司(上市),北京北陆药业股份有限公司,北京市密云区水源西路3号,生产、销售片剂、颗粒剂、胶囊剂、小容量注射剂、大容量注射剂、原料药（钆喷酸葡胺、碘海醇、格列美脲、瑞格列奈）；自有房屋的物业管理；出租商业用房、出租办公用房；货物进出口、技术进出口、代理进出口；以下项目限沧州分公司经营：中药前处理、中药提取。（企业依法自主选择经营项目，开展经营活动；依法须经批准的项目，经相关部门批准后依批准的内容开展经营活动；不得从事本市产业政策禁止和限制类项目的经营活动。）,2018-12-11,010-62622266,yangying@beilu.com.cn,,长期,医药制造业,化学药品原料药制造,密云区,大健康,2019-09-16 13:05:55,2019-09-16 13:05:55,0,1,,www.beilu.com.cn
77,a9db6204-d83f-11e9-80c9-fa163e3115c2,91120000103069502J,120000000001527,103069502,存续（在营、开业、在册）,18245.499200万人民币,齐铁栓,制造业,1981-06-17,1981-06-17,,天津市,天津市市场和质量监督管理委员会,股份有限公司(上市),天津力生制药股份有限公司,天津市西青经济开发区赛达北一道16号,片剂、硬胶囊剂、颗粒剂、滴丸剂、原料药及塑料瓶、化工原料（危险品、易燃易爆、易制毒产品除外）生产（以上限分支机构经营）；普通货运；自有设备、自有房屋的租赁业务；经营本企业自产产品的出口业务和本企业所需的机械设备、零配件、原辅材料的进口业务（国家限定公司经营或禁止进出口的商品及技术除外）；收购农产品（以上经营范围涉及行业许可的凭许可证件，在有效期内经营，国家有专项专营规定的按规定办理）,2017-09-26,022-27364241,lisheng@lishengpharma.com,,长期,医药制造业,化学药品原料药制造,西青区,大健康,2019-09-16 13:05:56,2019-09-16 13:05:56,0,1,天津市,www.lishengpharma.com
78,6b63d4f2-d840-11e9-80c9-fa163e3115c2,915422007543753944,540000200018477,754375394,存续（在营、开业、在册）,36400.000000万,陶灵萍,批发和零售业,2003-12-24,2003-12-24,2023-12-23,西藏自治区,山南市市场监督管理局,其他股份有限公司(上市),灵康药业集团股份有限公司,山南市泽当镇乃东路68号乃东县商住楼第二幢一层,中成药、化学药制剂、抗生素制剂的批发；对医药行业的投资及管理；药品、保健品、医疗设备技术的研发（不得从事具体经营）。[依法须经批准的项目，经相关部门批准后方可经营该项目],2019-03-27,0893-7830888,x3621@163.com,西藏灵康药业集团股份有限公司,2023-12-23,零售业,综合零售,乃东县,大健康,2019-09-16 13:11:20,2019-09-16 13:11:20,0,1,山南地区,www.lingkang.com.cn
79,6bbb9d5a-d840-11e9-80c9-fa163e3115c2,914306007121062680,430000000002121,712106268,存续（在营、开业、在册）,87977.435100万人民币,叶湘武,租赁和商务服务业,1998-12-18,1998-12-18,,湖南省,岳阳市市场监督管理局,其他股份有限公司(上市),湖南景峰医药股份有限公司,湖南省平江县天岳开发区天岳大道48号,以自有资产进行医药、医疗项目投资；生物制药技术项目的研发与投资；商品进出口贸易；企业管理咨询、医疗医药研发技术咨询。（依法须经批准的项目，经相关部门批准后方可开展经营活动）,2016-07-26,0731-88913276,ir@jfzhiyao.com,湖南天一科技股份有限公司,长期,商务服务业,企业管理服务,平江县,大健康,2019-09-16 13:11:21,2019-09-16 13:11:21,0,1,岳阳市,www.jfzhiyao.com
80,6c0af3fa-d840-11e9-80c9-fa163e3115c2,915000006219193432,500000000000944,621919343,存续(在营、开业、在册),81224.120500万,邱宇,制造业,1999-09-06,1999-09-06,,重庆市,重庆市工商行政管理局,股份有限公司(上市公司),重庆莱美药业股份有限公司,重庆市南岸区玉马路99号,生产、销售（限本企业自产）粉针剂、片剂、大容量注射剂、小容量注射剂（含抗肿瘤药）、冻干粉针剂（含抗肿瘤药、含激素类）、胶囊剂。（依法须经批准的项目，经相关部门批准后方可开展经营活动）,2016-07-07,02362451122,cqlm@cqlummy.com,,长期,医药制造业,化学药品原料药制造,南岸区,大健康,2019-09-16 13:11:21,2019-09-16 13:11:21,0,1,重庆市,www.cqlummy.com
81,6c58300f-d840-11e9-80c9-fa163e3115c2,913201922497944756,320192000001028,249794475,存续（在营、开业、在册）,50400.000000万人民币,梁玉堂,批发和零售业,1998-09-08,2002-01-22,,江苏省,南京市市场监督管理局经济技术开发区分局,股份有限公司(上市),金陵药业股份有限公司,南京经济技术开发区新港大道58号,中西药原料和制剂、生化制品、医疗器械销售、保健食品、化妆品、医药包装装潢印刷制品、天然饮料生产、销售（限分支机构经营）。新产品研制、技术服务及开发；医疗信息服务；经营本企业自产产品及技术的出口业务；经营本企业生产、科研所需的原辅材料、仪器仪表、机械设备、零配件及技术的进口业务（国家限定公司经营和国家禁止进出口的商品及技术除外）；经营进料加工和“三来一补”业务；道路货物运输。（依法须经批准的项目，经相关部门批准后方可开展经营活动）,2019-04-04,025-83118510,jlyy919@163.com,,长期,批发业,医药及医疗器材批发,,大健康,2019-09-16 13:11:22,2019-09-16 13:11:22,0,1,,www.jlyy000919.com
82,6cadf72d-d840-11e9-80c9-fa163e3115c2,91320500134792998F,320000000009770,134792998,存续（在营、开业、在册）,71238.883200万人民币,王小刚,制造业,1994-06-28,1994-06-28,,江苏省,苏州市行政审批局,股份有限公司(上市),江苏吴中实业股份有限公司,苏州市吴中区东方大道988号,输液剂、注射剂、冻干针剂、片剂、硬胶囊剂、栓剂制造、原料药、销售（限指定的分支机构领取许可证后经营）；房地产开发、经营，房屋租赁；服装，工艺美术品[金银制品除外]、不锈钢制品、照相器材、皮革及制品、箱包的制造、销售，国内贸易（国家有专项规定的办理许可证后经营）。本企业自产的服装、绣什品、床上用品、工艺美术品、箱包、皮革及制品、不锈钢制品、药品、原料药出口业务，本企业生产、科研所需的原辅材料、机械设备、仪器仪表、零配件进出口业务。（依法须经批准的项目，经相关部门批准后方可开展经营活动）,2019-08-02,0512-66981888,jswz@600200.com,,长期,纺织服装、服饰业,机织服装制造,吴中区,大健康,2019-09-16 13:11:22,2019-09-16 13:11:22,0,1,苏州市,www.600200.com
83,6d029395-d840-11e9-80c9-fa163e3115c2,91230100607168790X,230100400002133,607168790,存续（在营、开业、在册）,31660.005000万人民币,秦剑飞,制造业,1996-06-21,1996-06-21,,黑龙江省,哈尔滨市市场监督管理局,股份有限公司(上市、自然人投资或控股),哈尔滨三联药业股份有限公司,哈尔滨市利民开发区北京路,药品生产（按药品生产许可证核定范围，药品生产许可证有效期至2020年12月31日）；生产五层共挤输液用袋、三层共挤输液用袋、直立式聚丙烯输液袋、聚丙烯输液瓶、聚丙烯安瓿、聚乙烯安瓿、塑料组合盖、塑料接口、医疗器械（含微生物培养基）、消毒剂、消毒器械、卫生用品、化妆品；食品生产，食品经营；药品技术开发，技术检测服务；生物技术研究、开发；房屋租赁。,2019-05-22,0451-57355696,medisan1996@medisan.cn,,长期,医药制造业,化学药品原料药制造,,大健康,2019-09-16 13:11:23,2019-09-16 13:11:23,0,1,哈尔滨市,http://www.median.com.cn/
84,6d6045e7-d840-11e9-80c9-fa163e3115c2,913201927453675877,320192000004405,745367587,存续（在营、开业、在册）,12000.000000万人民币,曹于平,制造业,2003-01-15,2003-01-15,,江苏省,南京市市场监督管理局经济技术开发区分局,股份有限公司(上市、自然人投资或控股),南京海辰药业股份有限公司,南京经济技术开发区恒发路1号,"药品生产(按许可证所列范围经营)。开发医药产品；开发、生产植物提取物；销售自产产品；药品及原料的进出口贸易（涉及国家有关规定的，按规定执行）。（依法须经批准的项目,经相关部门批准后方可开展经营活动）",2019-09-04,025-83241383,hicin@hicin.com.cn,,长期,医药制造业,化学药品制剂制造,,大健康,2019-09-16 13:11:24,2019-09-16 13:11:24,0,1,,www.hicin.cn
85,6daf71d0-d840-11e9-80c9-fa163e3115c2,91440400192520640G,440400000016680,192520640,在营（开业）企业,12361.300000万,刘杰,制造业,1999-12-30,1999-12-30,,广东省,珠海市工商行政管理局,股份有限公司(上市、自然人投资或控股),珠海润都制药股份有限公司,珠海市金湾区三灶镇机场北路6号,"研发、生产、销售原料药（具体品种详见药品生产许可证）、小容量注射剂、片剂、硬胶囊剂、制剂中间体（微丸）,药用辅料（有效期至2020年12月31日）,医药中间体（不含危险品）。",2019-05-29,,,,长期,医药制造业,化学药品原料药制造,金湾区,大健康,2019-09-16 13:11:24,2019-09-16 13:11:24,0,1,珠海市,www.rdpharma.cn
86,5e007125-4bbd-11e9-a8b1-fa163e5275a2,91510100762295001Q,510122000083030,762295001,存续（在营、开业、在册）,40174.387200万人民币,蒯一希,科学研究和技术服务业,2004-07-15,2004-07-15,3999-01-01,四川省,成都市市场监督管理局,股份有限公司(上市、自然人投资或控股),四川金石东方新材料设备股份有限公司,成都市双流县九江镇万家社区,研发、生产、销售塑料复合管材、管件及设备，真空镀膜设备及其应用技术开发，工业机械，管件模具，施工机具；特种设备的生产、安装、改造、维修；经营本企业自产产品及技术的进出口业务和本企业所需的机械设备、零配件、原辅材料的进出口业务（依法须经批准的项目，经相关部门批准后方可开展经营活动）。,2019-01-02,028-87086858,852740449@qq.com,四川金石东方新材料设备有限公司,长期,专业技术服务业,其他专业技术服务业,双流县,大健康,2019-03-21 17:40:31,2019-03-21 17:40:31,0,0,成都市,http://www.goldstone-group.com/
87,6e1fa0eb-d840-11e9-80c9-fa163e3115c2,91430100722520761D,430181000023195,722520761,存续（在营、开业、在册）,23468.000000万人民币,朱志宏,批发和零售业,2001-01-19,2001-01-19,,湖南省,长沙市市场监督管理局,股份有限公司(上市、自然人投资或控股),湖南九典制药股份有限公司,长沙市浏阳经济技术开发区健康大道1号,药品、二类医疗器械、消毒剂、化工产品、卫生用品、化妆品、保健品、保健食品、食品、特殊医学用途配方食品、特殊膳食食品、一类医疗器械、中医药、生物制品、植物提取物的研发；化学药品制剂、化学药品原料药、生物药品、消毒剂、卫生材料及医药用品、化工产品、食品添加剂、固体饮料的制造；药用辅料、一类医疗器械、二类医疗器械、中药提取物、中成药、生物制品、卫生用品、化妆品、特殊医学用途配方食品、特殊膳食食品、保健食品的生产；药品、医药原料、生物制品、一类医疗器械、二类医疗器械、消毒剂、植物提取物、医药辅料、保健品、化妆品及卫生用品、保健食品、食品、预包装食品、散装食品、特殊医学用途配方食品、特殊膳食食品、食品添加剂、化工产品的销售；中成药、中药饮片的批发；医疗用品及器材的零售；生物技术开发服务、咨询、交流服务、转让服务；中药饮片加工；药用辅料的技术研发、咨询、技术转让；医学研究和试验发展；科技文献服务；科技信息咨询服务；化学工程研究服务；机械设备租赁；房屋租赁；场地租赁；自营和代理各类商品及技术的进出口，但国家限定公司经营或禁止进出口的商品和技术除外。（依法须经批准的项目，经相关部门批准后方可开展经营活动）,2018-05-25,0731-88220220,yly@jiudianph.com,湖南九典制药有限公司,长期,批发业,医药及医疗器材批发,浏阳市,大健康,2019-09-16 13:11:25,2019-09-16 13:11:25,0,1,长沙市,http://www.hnjiudian.com
88,6e7d1710-d840-11e9-80c9-fa163e3115c2,91220501244584110P,220503000000331,244584110,存续（在营、开业、在册）,66601.467400万人民币,孙军,租赁和商务服务业,2000-01-27,2000-01-27,2063-01-27,吉林省,梅河口市市场监督管理局,其他股份有限公司(上市),吉药控股集团股份有限公司,通化市二道江区铁厂镇,控股公司服务；实业投资控股、投资信息咨询（不得从事集资、贷款、理财、吸储等业务）；医药企业受托管理及资产重组；医药技术信息咨询、医药科技成果转让；物流服务；社会经济信息咨询（不含金融、证券、期货投资管理咨询及中介）；企业管理信息咨询；会议服务。（依法须经批准的项目，经相关部门批准后方可开展经营活动）,2019-08-26,0435-6096999,shuanglong@thslhg.com,"吉药控股股份有限公司,通化双龙化工股份有限公司",2063-01-27,商务服务业,企业管理服务,二道江区,大健康,2019-09-16 13:11:25,2019-09-16 13:11:25,0,1,通化市,http://www.thslhg.com/
89,16b88c2a-4bc8-11e9-a8b1-fa163e5275a2,91330600146342118G,330683000017575,146342118,存续,9000.000000万人民币,方南平,制造业,2001-12-30,2001-12-30,9999-09-09,浙江省,浙江省工商行政管理局,其他股份有限公司(上市),浙江昂利康制药股份有限公司,嵊州市嵊州大道北1000号,生产、销售：片剂（含头孢菌素类）、硬胶囊剂（含头孢菌素类）、颗粒剂（头孢菌素类）、冻干粉针剂（青霉素类）、原料药（谷维素、糠甾醇、多索茶碱、头孢拉定、托西酸舒他西林、盐酸班布特罗、维生素E烟酸酯、左氧氟沙星、头孢氨苄、头孢羟氨苄、碘海醇、头孢泊肟酯、替米沙坦、甘草酸二铵、氨甲环酸、苯磺酸左旋氨氯地平、头孢克洛、头孢克肟、头孢呋辛钠、硫酸头孢匹罗、西沙必利、兰索拉唑、尼扎替丁、精氨酸、头孢拉定/L-精氨酸、酮亮氨酸钙、消旋酮异亮氨酸钙、酮苯丙氨酸钙、消旋羟蛋氨酸钙、酮缬氨酸钙）；销售：四甲基胍盐酸盐水溶液、氢氧化纳水溶液；回收特戊酸（水溶液）、回收氨水、回收硫酸铵、回收硫酸铵-氯化铵、回收氯化钠、回收氯化钠-氯化钾；技术开发、技术咨询、技术转让；销售：化工原料（不含危险化学品）；货物进出口。,2018-12-21,83123228,mail@alkpharm.com,"嵊州市昂利康制药有限公司,浙江昂利康制药有限公司",长期,医药制造业,化学药品原料药制造,嵊州市,大健康,2019-03-21 18:57:16,2019-03-21 18:57:16,0,0,绍兴市,http://www.alkpharm.com
90,6f07123c-d840-11e9-80c9-fa163e3115c2,913303007303249630,330322000001788,730324963,存续,11928.000000万人民币,颜贻意,制造业,2001-06-22,2001-06-22,2031-06-21,浙江省,浙江省市场监督管理局,股份有限公司(上市、自然人投资或控股),浙江诚意药业股份有限公司,温州市洞头区化工路118号,硬胶囊剂、小容量注射剂、片剂、颗粒剂、原料药（利巴韦林、硫唑嘌呤、巯嘌呤、阿昔洛韦、克林霉素磷酸酯、维生素K1、维生素K4、亚硫酸氢钠钾萘醌、维生素B4、天麻素、诺氟沙星、托拉塞米、乙酰半胱氨酸、盐酸氨基葡萄糖）生产（在《药品生产许可证》有效期内经营）；医药中间体（不含危险化学品、监控化学品及易制毒品）生产、销售；货物进出口、技术进出口。（依法须经批准的项目，经相关部门批准后方可开展经营活动）,2019-06-04,0577-63489509,shelley@chengyipharma,浙江诚意药业有限公司,2031-06-21,医药制造业,化学药品制剂制造,洞头区,大健康,2019-09-16 13:11:26,2019-09-16 13:11:26,0,1,温州市,http://www.zjcyyy.com/
91,6f62f4dd-d840-11e9-80c9-fa163e3115c2,91330000146644116H,330400000013719,146644116,存续,32259.249900万人民币,陈德康,制造业,2000-07-17,2000-07-17,,浙江省,浙江省市场监督管理局,股份有限公司(上市、自然人投资或控股),浙江莎普爱思药业股份有限公司,浙江省平湖市经济开发区新明路1588号,滴眼剂、大容量注射剂、口服溶液剂、片剂（含头孢菌素类）、硬胶囊剂（含头孢菌素类）、栓剂、颗粒剂（含头孢菌素类）、原料药、冲洗剂、合剂的生产（凭许可证经营），胶囊剂、片剂、颗粒剂类保健食品生产（凭许可证经营），包装装潢、其他印刷品印刷（限浙江莎普爱思药业股份有限公司印刷部经营），从事各类商品及技术的进出口业务，化妆品、日用百货的销售，医疗器械的生产、销售（涉及许可的凭许可证经营），消毒产品的生产（凭许可证经营），消毒产品的销售。（依法须经批准的项目，经相关部门批准后方可开展经营活动）,2019-06-06,0573-85013183,zjspas@zjspas.com,,长期,医药制造业,化学药品制剂制造,平湖市,大健康,2019-09-16 13:11:27,2019-09-16 13:11:27,0,1,嘉兴市,http://www.zjspas.com
92,7167121c-d850-11e9-80c9-fa163e3115c2,916100002941964072,610000100022703,294196407,开业,37327.028500万,吴一坚,批发和零售业,1996-02-14,1996-02-14,,陕西省,陕西省市场监督管理局,股份有限公司(上市),金花企业（集团）股份有限公司,陕西省西安市高新区科技四路202号,金属材料（专控除外）、化工材料(易制毒、监控、危险化学品除外)、化学仪器、电子产品、机械水暖材料、汽车配件、日用百货、办公用品、工艺品、绝缘材料、家具、玻璃陶瓷、计算机、服装针织、装饰材料、园艺产品、玩具、灶具、空气调节设备的批发和零售；与本企业生产经营相关的服务业（许可经营项目除外）；房屋租赁；珠宝加工及批发、零售；本企业生产的药品、机电产品的出口；本企业生产、科研所需的原辅材料、机械设备、仪器仪表及零配件的进口业务（国家限制或禁止公司经营的商品和技术除外）。以下经营范围限分支机构持许可证在有效期内经营：药品、纯净水的生产、加工、销售；化工原料的生产、销售（易制毒、危险、监控化学品除外）。（依法须经批准的项目，经相关部门批准后方可开展经营活动）,2019-05-20,029-88336635,irm@ginwa.com.cn,,长期,零售业,货摊、无店铺及其他零售业,,大健康,2019-09-16 15:06:02,2019-09-16 15:06:02,0,1,西安市,www.ginwa.com.cn
93,7005e01c-d840-11e9-80c9-fa163e3115c2,91460000708873536T,460000000017507,708873536,存续（在营、开业、在册）,45000.000000万,洪江游,制造业,1994-01-20,1994-01-20,,海南省,海南省市场监督管理局,其他股份有限公司(上市),康芝药业股份有限公司,海南省海口国家高新技术产业开发区药谷工业园药谷三路6号,生产销售粉针剂（头孢菌素类）、冻干粉针剂、片剂、胶囊剂、颗粒剂、干混悬剂、散剂；生产加工康芝牌橘红含片、康芝牌春天胶囊；产品研究开发及技术服务；生产退热贴，医疗器械（I类）的销售；医药信息咨询服务。,2017-11-13,68661669,gaocy@honz.com.cn,海南康芝药业股份有限公司,长期,医药制造业,化学药品制剂制造,,大健康,2019-09-16 13:11:28,2019-09-16 13:11:28,0,1,海口市,www.honz.com.cn
94,7057f807-d840-11e9-80c9-fa163e3115c2,91440400737568573N,440400000086623,737568573,在营（开业）企业,16000.000000万,蔡南桂,批发和零售业,2002-04-03,2002-04-03,,广东省,珠海市工商行政管理局,股份有限公司(上市、自然人投资或控股),珠海赛隆药业股份有限公司,珠海市吉大海滨南路47号光大国际贸易中心二层西侧,???????????????????????????????????????????????????????????????药品、食品、营养食品、保健食品、保健品、医疗机械的研发、生产和技术服务；中成药、化学原料药、化学药制剂、抗生素原料药、抗生素制剂、生化药品的批发；预包装食品、食品、保健品、保健食品的销售；化工产品及原料（不含化学危险品）的批发，企业策划；咨询与调查；房屋、机械设备的租赁。(依法须经批准的项目，经相关部门批准后方可开展经营活动)〓,2017-11-23,,,珠海赛隆药业有限公司,长期,批发业,医药及医疗器材批发,,大健康,2019-09-16 13:11:29,2019-09-16 13:11:29,0,1,珠海市,
95,70b1abf5-d840-11e9-80c9-fa163e3115c2,915400917835344626,540000800000113,783534462,存续（在营、开业、在册）,18972.000000万,高帆,批发和零售业,2007-12-29,2007-12-29,,西藏自治区,拉萨经济技术开发区市场监督管理局,其他股份有限公司(上市),西藏易明西雅医药科技股份有限公司,拉萨经济技术开发区林琼岗路6号,销售中药材、中药饮片、中成药、化学药制剂、抗生素制剂、化学原料药（仅限西藏易明西雅医药科技股份有限公司拥有股权或合作开发的产品）、抗生素原料药（仅限用于西藏易明西雅医药科技股份有限公司拥有股权或合作开发及子公司生产使用）（药品经营许可证有限期至2024年02月14日）；批发Ⅲ类；注射穿刺器械；医用核磁共振设备；医用高能射线设备；介入器材；Ⅱ类、Ⅲ类；手术器械；医用电子仪器设备、医用光学器具、仪器及内窥镜设备（除角膜接触镜）、医用超声仪器及有关设备、医用激光仪器设备、医用高频仪器设备、物理治疗及康复设备、医用X射线设备、医用核素设备、临床检验分析仪器、体外循环及血液处理设备、植入材料、手术室、急救室、诊疗室设备及器具医用冷疗、低温、冷藏设备及器具，口腔科材料，医用卫生材料及敷料，医用缝合材料及粘合剂，医用高分子材料及制品。Ⅱ类：医用X射线附属设备及部件，中医器械，医用化验和基础设备器具，口腔科设备及器具，病房护理设备及器具，消毒和灭菌设备及器具（医疗器械经营企业许可证有效期至2024年4月11日）；药材研发及技术成果转让；营销策划；市场调研、推广、开发；健康咨询；房屋租赁；食品的生产、加工及销售；冬虫夏草的收购、加工及销售；土特产品的收购、加工及销售；中药材、藏药材种植。【依法须经批准的项目，经相关部门批准后方可经营该项目】,2019-06-25,0891-6862369,ymky@ymky.com,西藏易明西雅生物医药科技有限公司,长期,零售业,医药及医疗器材专门零售,,大健康,2019-09-16 13:11:29,2019-09-16 13:11:29,0,1,拉萨市,www.emyy.cn
96,7101178e-d840-11e9-80c9-fa163e3115c2,91321000714094280W,320000000006964,714094280,存续（在营、开业、在册）,28545.627000万人民币,夏春来,制造业,2000-02-22,2000-02-22,,江苏省,江苏省扬州工商行政管理局,股份有限公司(上市),江苏联环药业股份有限公司,扬州市文峰路21号,"药品生产（按许可证所列范围生产）。自营和代理各类商品及技术的进出口业务。药品相关技术的授权使用、成果转让、服务咨询。（依法须经批准的项目,经相关部门批准后方可开展经营活动）",2018-08-30,0514-87829701,lh@lhpharma.com,,长期,医药制造业,化学药品原料药制造,,大健康,2019-09-16 13:11:30,2019-09-16 13:11:30,0,1,扬州市,http://www.lhpharma.com/
97,714f6a6c-d840-11e9-80c9-fa163e3115c2,9146000072122491XG,460000400004559,72122491X,存续（在营、开业、在册）,40500.000000万人民币,王成栋,制造业,2000-05-22,2000-05-22,,海南省,海南省市场监督管理局,股份有限公司(中外合资、上市),海南双成药业股份有限公司,海口市秀英区兴国路16号,注射剂、胶囊剂、片剂、颗粒剂、原料药的研究、开发、生产、销售；化工产品(专营除外）、普通机械设备的生产销售；药品研发项目的咨询和转让；自有房屋租赁；转让、出租自有专利、非专利技术及商标。,2016-11-21,68635601,356746996@qq.com,,长期,医药制造业,化学药品制剂制造,秀英区,大健康,2019-09-16 13:11:30,2019-09-16 13:11:30,0,1,海口市,http://www.shuangchengmed.com/
98,71b0167e-d840-11e9-80c9-fa163e3115c2,91140200770127753X,140200400002021,770127753,存续（在营、开业、在册）,20830.800000万人民币,赵群,制造业,2005-03-23,2005-03-23,2035-03-23,山西省,大同市市场监督管理局,股份有限公司(上市、自然人投资或控股),山西仟源医药集团股份有限公司,大同市经济技术开发区湖滨大街53号,生产销售原料药、粉针剂（含青霉素类、头孢菌素类）、片剂（含青霉素类、头孢菌素类）、硬胶囊剂（含青霉素类、头孢菌素类）、颗粒剂（含青霉素类）、散剂、栓剂、精神药品（地西泮片、艾斯唑仑片、硝西泮片、地西泮注射液）（凭有效许可证经营）***生产销售精细化工原料（不含危险化学品、爆炸品）（国家禁止经营专项审批的除外）***,2016-09-21,18636278687,zhanghua@cy-pharm.com,山西仟源制药股份有限公司,2035-03-23,医药制造业,卫生材料及医药用品制造,,大健康,2019-09-16 13:11:31,2019-09-16 13:11:31,0,1,大同市,www.cy-pharm.com
99,721cbfd7-d840-11e9-80c9-fa163e3115c2,91340100723323559X,340100400003589,723323559,存续（在营、开业、在册）,40387.348000万,陶悦群,制造业,2000-10-26,2000-10-26,,安徽省,合肥市高新开发区市场监督管理局,其他股份有限公司(上市),欧普康视科技股份有限公司,合肥市高新区望江西路4899号,三类医用光电仪器类、医用检验类、人工脏器类、二类医用装备类，角膜塑形镜，三类植入体内或长期接触体内的眼科光学器具生产销售，消毒产品、护理产品及眼镜的生产及销售，验光及配镜服务，眼部健康咨询服务，镜片护理及维修；预包装食品与保健食品的销售。（依法须经批准的项目，经相关部门批准后方可开展经营活动）,2019-05-23,0551-62952201,autekchina@126.com,,长期,医药制造业,卫生材料及医药用品制造,,大健康,2019-09-16 13:11:32,2019-09-16 13:11:32,0,1,合肥市,http：//www.orthok.cn
100,7277d00f-d840-11e9-80c9-fa163e3115c2,91370000744521618L,370000400004566,744521618,在营（开业）企业,96403.108600万人民币,刘文静,制造业,2002-12-02,2002-12-02,,山东省,山东省市场监督管理局,股份有限公司(台港澳与境内合资、上市),蓝帆医疗股份有限公司,山东省淄博市齐鲁化学工业区清田路21号,生产加工PVC手套、丁腈手套及其他塑料制品、粒料，销售本公司生产的产品。丁腈手套、乳胶手套、纸浆模塑制品、一类、二类医疗器械产品的批发业务。(依法须经批准的项目，经相关部门批准后方可开展经营活动，有效期以许可证为准),2019-05-27,0533-7871017,1270252242@qq.com,山东蓝帆塑胶股份有限公司,长期,橡胶和塑料制品业,塑料制品业,齐鲁化学工业区,大健康,2019-09-16 13:11:32,2019-09-16 13:11:32,0,1,淄博市,http://blueail.tmall.com/index.htm?pm=a1z10.5.w5002-3572873782.2.z8PLL3
101,ac6cd39f-4bbf-11e9-a8b1-fa163e5275a2,91440300743219767A,440301103617854,743219767,存续（在营、开业、在册）,40001.000000万人民币,陈志强,信息传输、软件和信息技术服务业,2002-09-27,2002-09-27,,广东省,南山局,其他股份有限公司(上市),深圳开立生物医疗科技股份有限公司,深圳市南山区粤海街道麻岭社区高新中区科技中2路1号深圳软件园(2期)12栋201、202,医疗器械的软件开发（不含国家限制项目）；生物技术开发、技术转让、技术服务、技术咨询；自产产品技术维护服务；自产产品售后服务；经营进出口业务（法律、行政法规、国务院决定禁止的项目除外，限制的项目须取得许可后方可经营）。生产经营医疗器械及其配套试剂及产品软件开发；生产经营显示器产品及电子产品。,2019-01-03,0755-26722890,liusf@sonoscape.net,深圳市开立科技有限公司,长期,软件和信息技术服务业,信息系统集成服务,南山区,大健康,2019-03-21 17:57:02,2019-03-21 17:57:02,0,0,深圳市,http://www.sonoscape.com.cn
102,72dd089e-d840-11e9-80c9-fa163e3115c2,9111000063379674X4,110000005102777,63379674X,开业,54081.619900万人民币,谢宇峰,科学研究和技术服务业,1997-05-12,1997-05-12,2047-05-11,北京市,北京市工商行政管理局朝阳分局,其他股份有限公司(上市),北京万东医疗科技股份有限公司,北京市朝阳区酒仙桥东路9号院3号楼,技术咨询、技术服务；货物进出口；技术进出口；代理进出口；机器设备安装、维修；劳务服务；销售汽车（不含九座以下乘用车）、I、II类医疗器械；物业管理；出租商业用房；出租办公用房；医疗器械制造；销售III类医疗器械。（企业依法自主选择经营项目，开展经营活动；销售III类医疗器械以及依法须经批准的项目，经相关部门批准后依批准的内容开展经营活动；不得从事本市产业政策禁止和限制类项目的经营活动。）,2019-06-18,010-84569688,wdyL055@263.net.cn,"北京万东医疗装备股份有限公司,华润万东医疗装备股份有限公司",2047-05-11,科技推广和应用服务业,技术推广服务,朝阳区,大健康,2019-09-16 13:11:33,2019-09-16 13:11:33,0,1,北京市,www.wandong.com.cn
103,7331885a-d840-11e9-80c9-fa163e3115c2,91370000168611868Q,370000018078729,168611868,在营（开业）企业,59496.774700万人民币,扈永刚,制造业,1993-11-08,1993-11-08,,山东省,山东省市场监督管理局,其他股份有限公司(上市),山东省药用玻璃股份有限公司,淄博市沂源县城,许可证范围内医疗器械生产、销售；汽车货运；包装装潢印刷品印刷；药品包装材料和容器注册证范围内的药品包装材料和容器的生产、销售（凭注册证书经营）；成品油零售（限分支机构经营）；(以上项目有效期限以许可证为准)；日用玻璃制品的生产、销售；纸箱加工、销售；玻璃生产专用设备的制造、销售；玻璃包装容器的生产、加工、销售；备案范围内的进出口业务。(依法须经批准的项目，经相关部门批准后方可开展经营活动)。,2019-06-24,0533-3259029,rub149@pharmglass.com,,长期,非金属矿物制品业,玻璃制品制造,沂源县,大健康,2019-09-16 13:11:33,2019-09-16 13:11:33,0,1,淄博市,http://www.pharmglass.com/
104,7389710b-d840-11e9-80c9-fa163e3115c2,91500109203249834P,500109000014539,203249834,存续(在营、开业、在册),15120.000000万,邓勇,制造业,1989-10-27,1989-10-27,,重庆市,重庆市北碚区市场监督管理局,股份有限公司(上市公司),重庆正川医药包装材料股份有限公司,重庆市北碚区龙凤桥街道正川玻璃工业园,制造、加工、销售：锁口瓶，药用玻璃瓶，瓶盖，塑料制品，玻璃仪器及制品，医药包装技术服务；货物进出口。[经营范围中属于法律、行政法规禁止的不得经营；法律、行政法规规定须经批准的项目，应当依法经过批准后方可经营]**,2018-05-31,023-68349817,zccw@cqzcjt.com,,长期,非金属矿物制品业,玻璃制品制造,北碚区,大健康,2019-09-16 13:11:34,2019-09-16 13:11:34,0,1,重庆市,www.cqzcjt.com
105,08ca6046-4bbd-11e9-a8b1-fa163e5275a2,91310000770943355B,310117002570397,770943355,存续（在营、开业、在册）,10436.32万人民币,林武辉,制造业,2005-01-18,2005-01-18,,上海市,上海市工商行政管理局,股份有限公司（上市、自然人投资或控股）,上海海顺新型药用包装材料股份有限公司,上海市松江区洞泾镇蔡家浜路18号,新型药用包装材料、儿童保护包装材料、高阻隔涂布材料、耐蒸煮复合材料、高阻隔复合材料、特种薄膜材料的生产和销售，包装装潢印刷，货物及技术的进出口业务。【依法须经批准的项目，经相关部门批准后方可开展经营活动】,2005-01-18,021-57675717,weivlin@126.com,,长期,印刷和记录媒介复制业,印刷,松江区,大健康,2019-03-21 17:38:08,2019-03-21 17:38:08,0,0,上海市,www.haishunpackaging.com
106,7416f124-d840-11e9-80c9-fa163e3115c2,914400007265265110,440000000020808,726526511,在营（开业）企业,52001.300000万,柯云峰,批发和零售业,1999-02-12,1999-02-12,,广东省,广东省市场监督管理局,股份有限公司(上市、自然人投资或控股),大参林医药集团股份有限公司,广东省广州市荔湾区龙溪大道410号、410-1号,批发：中药材（收购）、中药饮片、中成药、化学药制剂、抗生素原料药、抗生素制剂、生化药品、生物制品（除疫苗）、蛋白同化制剂、肽类激素（胰岛素），五金产品、电子产品；零售（连锁）：中药饮片，中成药，化学药制剂，抗生素制剂，生化药品，生物制品（除疫苗）；保健食品连锁经营；食品经营管理；批发兼零售：特殊食品（保健食品、特殊医学用途配方食品、婴幼儿配方乳粉、其他婴幼儿配方食品），预包装食品；普通货运；呼叫中心业务、信息服务业务（仅限互联网信息服务和移动网信息服务业务）；销售（含网上销售）：医疗器械，眼镜，福利彩票，充值卡，农副产品，化妆品，日用百货，消毒用品，个人护理用品，家居护理用品，文具用品，普通机械，五金、交电，计算机，家用电器，电子产品，健身器材，饰物，食品添加剂，宠物用品，纺织品及针织品，服装，家庭用品，花卉，通信设备，矿产品，建材，化工产品；票务服务；仓储，冷库服务，人力资源服务；会议、展览服务；企业管理咨询，经济信息咨询；母婴保健；家政、职业中介服务；生物技术开发；眼镜加工。下列项目由分支机构经营：门诊部（所），验光配镜服务，零售处方药、非处方药；商贸信息咨询，商品推广宣传，营销策划；项目投资；货物进出口；设计、制作、代理、发布各类广告；代收水电费；房屋及柜台租赁服务及其相关业务策划；贸易经纪与代理；项目投资管理；组织文化艺术交流活动；包装、仓储、装卸搬运，运输代理；机械设备租赁；电子产品、日用品维修；技术进出口；中药材种植；养老院、医院、康复中心管理服务；健康管理咨询；以特许经营方式从事商业活动；品牌策划咨询；冷藏车道路运输。,2019-07-19,81284688,limingxia@dslyy.com,,长期,零售业,医药及医疗器材专门零售,荔湾区,大健康,2019-09-16 13:11:35,2019-09-16 13:11:35,0,1,广州市,
107,74d8df3b-d840-11e9-80c9-fa163e3115c2,9143070067558223X2,430700000011314,67558223X,存续（在营、开业、在册）,37680.600600万人民币,高毅,批发和零售业,2008-06-20,2008-06-20,,湖南省,常德市市场监督管理局,股份有限公司(台港澳与境内合资、上市),益丰大药房连锁股份有限公司,湖南省常德市武陵区人民路2638号,中药材、中药饮片、中成药、化学药制剂、抗生素制剂、生化药品、生物制品零售；凭医疗器械经营许可证核准范围从事医疗器械零售，食盐零售；凭食品经营许可证核准范围从事食品经营;书报刊零售、食品添加剂、保健用品、洗涤化妆品、消毒剂、健身器材、日用百货、五金交电、纺织品及针织品、文具用品、花卉、通信设备、农副产品的零售；眼镜的加工、验配、销售；票务服务；水生野生动物的经营利用（限经营许可证许可品种和区域）；普通货物道路运输及代理；百货、连锁零售仓储服务、冷库服务；互联网药品信息服务；互联网药品交易服务；第二类增值电信业务中的信息服务业务（按许可证经营）；企业管理咨询服务；会议及展览服务；广告设计、制作、代理、发布服务；职业中介服务；企业管理培训、在职人员培训、商务培训服务、综合医院、康复中心、社区卫生服务中心、门诊部、诊所服务（限分支机构凭医疗机构执业许可证经营）；母婴保健服务（凭母婴保健服务执业许可证经营）；代居民收水电费及其他费用；房屋及柜台租赁服务及相关业务的策划、咨询与促销服务。（依法须经批准的项目，经相关部门批准后方可开展经营活动）,2018-12-21,0731-89953938,无,,长期,零售业,医药及医疗器材专门零售,武陵区,大健康,2019-09-16 13:11:36,2019-09-16 13:11:36,0,1,常德市,www.yfdyf.cn
108,7566487d-d840-11e9-80c9-fa163e3115c2,91210000117590366A,210000004919553,117590366,存续（在营、开业、在册）,152970.981600万人民币,尚书志,批发和零售业,1993-09-02,1993-09-02,,辽宁省,辽宁省市场监督管理局,股份有限公司(上市、国有控股),辽宁成大股份有限公司,大连市中山区人民路７１号,自营和代理货物及技术进出口（国家禁止的不得经营，限制的品种办理许可证后方可经营），经营进料加工和“三来一补”业务，开展对销贸易和转口贸易，承包本行业境外工程和境内国际招标工程，上述境外工程所需的设备、材料出口；对外派遣本行业工程、生产及服务行业的劳务人员，农副产品收购（粮食除外），化肥连锁经营，中草药种植，房屋租赁，仓储服务，煤炭批发经营。（依法须经批准的项目，经相关部门批准后方可开展经营活动。）,2017-01-12,0411-82511999,liucc@chengda.com.cn,,长期,批发业,贸易经纪与代理,中山区,大健康,2019-09-16 13:11:37,2019-09-16 13:11:37,0,1,大连市,www.chengda.com.cn
109,75bb477d-d840-11e9-80c9-fa163e3115c2,91110000710925737B,110000002918724,710925737,开业,76440.439100万人民币,姜修昌,制造业,1999-12-21,1999-12-21,,北京市,北京市工商行政管理局东城分局,股份有限公司(上市、国有控股),国药集团药业股份有限公司,北京市东城区永外三元西巷甲12号,批发中成药、中药饮片、中药材、化学药制剂、化学原料药、抗生素、生化药品、生物制品、麻醉药品和第一类精神药品（含原料药）、第二类精神药品、蛋白同化制剂和肽类激素、医疗用毒性药品（注射用A型肉毒毒素、蟾酥粉、注射用三氧化二砷），麻黄素原料药（小包装）（药品经营许可证有效期至2019年10月14日）；组织药品生产；销售医疗器械（Ⅱ、Ⅲ类）（医疗器械经营许可证有效期至2021年03月30日）；互联网信息服务不含新闻、出版、教育、医疗保健、电子公告服务，含药品和医疗器械（互联网信息服务增值电信业务经营许可证有效期至2020年07月02日）；第二类增值电信业务中的信息服务业务（不含固定网电话信息服务和互联网信息服务）（增值电信业务经营许可证有效期至2019年08月29日）；预包装食品销售（含冷藏冷冻食品）、特殊食品销售、限保健食品、特殊医学用途配方食品、婴幼儿配方乳粉）（食品经营许可证有效期至2021年07月10日）；销售医疗器械（Ⅰ类）、日用百货、化妆品、汽车、电子产品、计算机软件及辅助设备、家用电器、卫生用品、机电设备、机械设备及配件；进出口业务；与上述业务有关的咨询；会议服务；技术服务；技术开发；计算机系统服务；机械设备租赁。（企业依法自主选择经营项目，开展经营活动；销售医疗用毒性药品以及依法须经批准的项目，经相关部门批准后依批准的内容开展经营活动；不得从事本市产业政策禁止和限制类项目的经营活动。）,2018-11-28,010-67275666,zhanglei240@sinopharm.com,,长期,医药制造业,化学药品原料药制造,东城区,大健康,2019-09-16 13:11:38,2019-09-16 13:11:38,0,1,北京市,www.ecncm.com.cn
110,764c26ab-d840-11e9-80c9-fa163e3115c2,91430000782853875C,430000000015859,782853875,存续（在营、开业、在册）,28655.636500万人民币,谢子龙,批发和零售业,2005-12-01,2005-12-01,,湖南省,湖南省市场监督管理局,股份有限公司(台港澳与境内合资、上市),老百姓大药房连锁股份有限公司,长沙市开福区青竹湖路808号,西药零售；中药材零售；中药饮片零售；中成药零售；化学药制剂零售；抗生素制剂零售；生化药品零售；生物制品销售；门诊部；一类医疗器械零售；二类医疗器械零售；三类医疗器械零售；水生野生动物的经营利用；预包装食品（含冷藏冷冻食品）销售；预包装食品（含酒类）销售；散装食品（不含冷藏冷冻食品）销售；保健食品销售；特殊医学用途配方食品的销售；婴幼儿配方乳粉销售；其他婴幼儿配方食品的销售；预包装饮料酒批发；药品、医疗器械互联网信息服务；互联网药品交易；第二类增值电信业务中的信息服务业务（不含固定网电话信息服务和互联网信息服务）；贸易代理；生物技术开发服务；充值卡销售；健康管理；眼镜零售；消毒剂销售；卫生消毒用品零售；日用品销售；化妆品零售；小家电经营；食盐零售；以特许经营方式从事商业活动；柜台租赁；企业营销策划；市场营销策划服务；品牌策划咨询服务；商品信息咨询服务；货物和技术进出口（国家禁止或涉及行政审批的货物和技术进出口除外）。（依法须经批准的项目，经相关部门批准后方可开展经营活动）,2019-07-24,0731-84596000,无,,长期,零售业,医药及医疗器材专门零售,开福区,大健康,2019-09-16 13:11:39,2019-09-16 13:11:39,0,1,长沙市,www.lbxcn.com
111,76d90922-d840-11e9-80c9-fa163e3115c2,91530000725287862K,,725287862,存续（在营、开业、在册）,56776.981100万人民币,阮鸿献,,2000-11-08,2000-11-08,,云南省,昆明市工商行政管理局,股份有限公司(上市、自然人投资或控股),一心堂药业集团股份有限公司,云南省昆明市经济技术开发区鸿翔路1号,药品（根据《药品经营许可证》核定的经营范围和时限开展经营活动）、I、II、III类医疗器械（凭许可证经营）、食品销售（凭许可证经营）、消毒产品、农副产品、日用百货、化妆品、食品添加剂、宠物用品、纺织、服装及家庭用品、文化、体育用品及器材、矿产品、建材及化工产品、机械设备、五金产品及电子产品的批发、零售；眼镜的加工、验配、销售；互联网药品交易服务（向个人消费者提供药品）；互联网信息服务（凭许可证经营）；互联网销售商品；包装、仓储、软件和信息技术、人力资源、会议及展览、企业管理、经济信息咨询、母婴保健服务；家政服务；其他服务；受委托代收费；设计、制作、代理、发布国内各类广告；贸易经纪与代理；国内贸易、物资供销；项目投资及对所投资项目进行管理；组织文化艺术交流活动；装卸搬运和运输代理；机械设备租赁；房屋租赁；电子产品和日用产品修理；职业技能培训；货物及技术进出口；中药材种植。门诊医疗服务（限分支机构凭许可证经营）、养老院经营管理、医院管理、康复中心管理、健康管理咨询，医疗器械租赁服务。（依法须经批准的项目，经相关部门批准后方可开展经营活动）,2019-06-26,,,,长期,,,,大健康,2019-09-16 13:11:40,2019-09-16 13:11:40,0,1,昆明市,
112,98bcaaa7-d83f-11e9-80c9-fa163e3115c2,91330000102930559P,330000000002790,102930559,存续,32064.000000万人民币,吕建明,租赁和商务服务业,1995-08-30,1995-08-30,2025-08-29,浙江省,浙江省工商行政管理局,其他股份有限公司(上市),通策医疗投资股份有限公司,浙江省杭州市上城区平海路57号,医疗器械、日用品、消毒用品的销售，投资管理，经营进出口业务，技术开发、技术咨询及技术服务，培训服务（不含办班培训）。,2017-04-18,87283503,,中燕纺织股份有限公司,2025-08-29,商务服务业,企业管理服务,上城区,大健康,2019-09-16 13:05:27,2019-09-16 13:05:27,0,1,杭州市,http://www.tcmedical.com.cn
113,776684af-d840-11e9-80c9-fa163e3115c2,91321100703952657W,321100000069242,703952657,存续（在营、开业、在册）,100247.692900万人民币,吴光明,制造业,1998-10-22,1998-10-22,,江苏省,镇江市市场监督管理局,股份有限公司(上市、自然人投资或控股),江苏鱼跃医疗设备股份有限公司,江苏丹阳市云阳工业园（振新路南）,医疗器械（按许可证所核范围经营）；保健用品的制造与销售；金属材料的销售；经营本企业自产产品的出口业务和本企业所需的机械设备、零配件、原辅材料的进口业务（国家限定公司经营或禁止进出口的商品及技术除外）；机动医疗车改装（凭相关资质开展经营活动）；汽车的销售。（依法须经批准的项目，经相关部门批准后方可开展经营活动）,2019-06-12,0511-86900858,"dongmi@yuyue.com,cn",,长期,专用设备制造业,医疗仪器设备及器械制造,丹阳市,大健康,2019-09-16 13:11:40,2019-09-16 13:11:40,0,1,镇江市,http://www.yuyue.com.cn/
114,77bc1a19-d840-11e9-80c9-fa163e3115c2,9132062372933999XT,320623000110081,72933999X,存续（在营、开业、在册）,8080.000000万人民币,王凝宇,制造业,2001-10-30,2001-10-30,,江苏省,南通市行政审批局,股份有限公司(上市),江苏爱朋医疗科技股份有限公司,如东县经济开发区永通大道东侧,三类6854手术室、急救室、诊疗室设备及器具、二类6864医用卫生材料及敷料、6870软件生产；医疗器械（按《医疗器械经营企业许可证》核定的范围和期限经营）、电脑设备销售；日用品生产、销售；软件开发、销售；自营和代理各类商品及技术的进出口业务（国家限定公司经营或者禁止进出口的除外）；医疗器械的技术服务、技术咨询、市场调研服务。（依法须经批准的项目，经相关部门批准后方可开展经营活动）,2019-06-30,0513-80158888,apon@apon.com.cn,南通爱普医疗器械有限公司,长期,专用设备制造业,医疗仪器设备及器械制造,,大健康,2019-09-16 13:11:41,2019-09-16 13:11:41,0,1,,网址：www.apon.com.cn
115,780f64b4-d840-11e9-80c9-fa163e3115c2,9144200071482954XH,442000000078040,71482954X,在营（开业）企业,11067.000000万人民币,赵玉昆,制造业,1999-06-22,1999-06-22,,广东省,广东省中山市工商行政管理局,股份有限公司(上市、自然人投资或控股),广东香山衡器集团股份有限公司,中山市东区起湾道东侧白沙湾工业园区,开发、生产、销售、网上销售衡器产品及其组配件，传感器，计量器材，计量器具，仪器仪表，电子测量仪器，计时仪器，钟表，机电设备，自动化装备，智能机械人，通迅器材，控制软件，智能自动化生产系统，智能化数控系统，生产辅助系统，信息技术和网络系统，应用软件及其辅助设备，计算机产品，网络产品，计算机数码产品，家用电器，电子电器产品，塑胶产品，五金制品，日用百货，工艺礼品（不含黄金），文化体育用品，训练健身器材和第一类医疗器械；第二类、第三类医疗器械经营；医疗器械生产；商务信息咨询；衡器维修；货物及技术进出口。（上述经营范围涉及制造、销售和进口计量器具；依法须经批准的项目，经相关部门批准后方可开展经营活动。）(依法须经批准的项目，经相关部门批准后方可开展经营活动)〓,2019-02-03,0760-88226108,zj32@camry.com.cn,,长期,通用设备制造业,烘炉、风机、衡器、包装等设备制造,,大健康,2019-09-16 13:11:42,2019-09-16 13:11:42,0,1,中山市,www.senssun.com
116,7864b553-d840-11e9-80c9-fa163e3115c2,911200006008904220,120000400004825,600890422,存续（在营、开业、在册）,43280.592100万人民币,刘毅,制造业,1995-08-22,1995-08-22,,天津市,天津市市场和质量监督管理委员会,股份有限公司(上市),天津九安医疗电子股份有限公司,天津市南开区雅安道金平路3号,开发、生产、销售电子产品、医疗器械(以医疗器械生产企业许可证核准产品范围为准)，仪器仪表、电气机械和器材、通信设备、可穿戴智能设备、智能车载设备、服务消费机器人、电声器件及零件及相关的技术咨询服务等；计算机软件及相关的技术咨询服务；计算机软件及信息技术的技术开发、技术咨询、技术服务、技术转让、互联网数据服务；日用百货、环保设备、空气净化器设备、美容仪器、医疗用品及器材，机械设备、家用视听设备、五金产品、灯具、家用电器及电子产品的零售及批发***（依法须经批准的项目，经相关部门批准后方可开展经营活动）,2018-12-28,022-87611660,lipeirong@jiuan.com,,长期,专用设备制造业,医疗仪器设备及器械制造,南开区,大健康,2019-09-16 13:11:42,2019-09-16 13:11:42,0,1,天津市,WWW.JIUAN.COM
117,78b70382-d840-11e9-80c9-fa163e3115c2,913100007793468809,310115000910700,779346880,存续（在营、开业、在册）,10000.000000万人民币,施琼,居民服务、修理和其他服务业,2005-08-22,2005-08-22,,上海市,上海市工商行政管理局,股份有限公司(台港澳与境内合资、上市),上海爱婴室商务服务股份有限公司,中国（上海）自由贸易试验区浦东大道2123号3E-1157室,电子商务领域、计算机软件、网络系统等上述专业技术领域的技术开发、技术转让、技术咨询及技术服务，商务信息咨询（除经纪），市场营销服务；日用百货、电子产品、化工产品（除危险化学品、监控化学品、烟花爆竹、民用爆炸物品、易制毒化学品）、塑料制品、预包装食品（不含熟食卤味、冷冻冷藏）的批发、佣金代理（拍卖除外）、进出口及相关配套业务；自有家用电器的租赁业务。【依法须经批准的项目，经相关部门批准后方可开展经营活动】,2005-08-22,021-68470177,111@aiyingshi.com,,长期,机动车、电子产品和日用产品修理业,计算机和办公设备维修,浦东新区,大健康,2019-09-16 13:11:43,2019-09-16 13:11:43,0,1,上海市,www.aiyingshi.com
118,790eb335-d840-11e9-80c9-fa163e3115c2,9112000013270080XR,120000000008313,13270080X,存续（在营、开业、在册）,44016.108900万人民币,李德福,制造业,1995-06-14,1995-06-14,,天津市,天津市市场和质量监督管理委员会,股份有限公司(上市),中源协和细胞基因工程股份有限公司,天津市滨海新区（津南）创意中心A座1002室,生命科学技术开发、干细胞基因工程产业化、风险投资、投资理财、投资咨询，国内贸易；货物及技术的进出口（以上范围内国家有专营专项规定的按规定办理）.,2019-03-13,022-58775766,yangweic@vcanbio.com,中源协和干细胞生物工程股份公司,长期,医药制造业,生物药品制造,滨海新区,大健康,2019-09-16 13:11:43,2019-09-16 13:11:43,0,1,天津市,www.vcanbio.com
119,795f484b-d840-11e9-80c9-fa163e3115c2,913100007728924912,310115400172284,772892491,存续（在营、开业、在册）,72218.002900万人民币,袁征,科学研究和技术服务业,2005-03-31,2005-03-31,,上海市,上海市市场监督管理局,股份有限公司(台港澳与境内合资、上市),上海凯利泰医疗科技股份有限公司,上海市浦东新区张江高科技园区东区瑞庆路528号23幢2楼,生物医学材料及制品的研发与生产，销售自产产品；生产医疗器械（以医疗器械生产许可证为限）；销售及进出口医疗器械（以医疗器械经营许可证为限），并提供相关技术咨询和售后技术服务；生产并销售教具；在浦东新区张江高科技园区瑞庆路528号23幢内从事自有生产用房出租。在青浦区香花桥街道天辰路508号从事自有房屋租赁及相关物业管理；仪表仪器、电子产品、医用辅料的原材料、医疗用品及器材的批发与进出口，电子设备的维修。【依法须经批准的项目，经相关部门批准后方可开展经营活动】,2005-03-31,021-50720558,KMC@shkmc.com.cn,,长期,专业技术服务业,其他专业技术服务业,浦东新区,大健康,2019-09-16 13:11:44,2019-09-16 13:11:44,0,1,上海市,http://www.hrgjk.com/
120,79b0d15e-d840-11e9-80c9-fa163e3115c2,91630000710402282C,630000100010609,710402282,存续（在营、开业、在册）,58706.074100万,张雪峰,制造业,1998-08-28,1998-08-28,,青海省,青海省市场监督管理局,其他股份有限公司(上市),青海春天药用资源科技股份有限公司,青海省西宁经济技术开发区东新路1号,青藏高原天然优势资源的综合开发、利用、生产、销售及咨询服务；其他生物资源开发利用；矿产品加工、销售；经济信息咨询服务；实业投资及开发；药品的销售，保健食品的销售；化妆品的销售，预包装食品（酒、冷藏冷冻食品）兼散装食品的销售；经营国家禁止和指定公司经营以外的进出口商品，经营进出口代理业务；设备租赁、房屋租赁。（以上范围依法须经批准的项目，经相关部门批准后方可开展经营活动）。****,2019-03-18,0971-8865718,962087145@qq.com,青海贤成矿业股份有限公司,长期,纺织业,棉纺织及印染精加工,,大健康,2019-09-16 13:11:44,2019-09-16 13:11:44,0,1,西宁市,
121,79fb43e2-d840-11e9-80c9-fa163e3115c2,91210000242666665H,210000004935110,242666665,存续（在营、开业、在册）,30940.000000万人民币,张晖,批发和零售业,1996-11-20,1996-11-20,2046-08-31,辽宁省,辽宁省市场监督管理局,股份有限公司(上市、国有控股),万方城镇投资发展股份有限公司,沈阳市和平区中华路１２６号,城市道路以及基础设施的建设及投资；给排水及管网建设及投资；城市燃气及管网建设及投资；城市服务项目（学校、医院等）的建设及投资；城市旧城改造；城市开发建设和基础设施其他项目的建设及投资；项目投资和项目管理；医疗技术开发；数据处理和储存服务；基础软件服务、应用软件服务；计算机网络的研制、开发、设计、安装；计算机软硬件的开发及销售、技术推广、技术转让、技术咨询及技术服务；互联网信息服务；信息系统集成服务；物联网技术服务；信息技术咨询服务。（依法须经批准的项目，经相关部门批准后方可开展经营活动。）,2018-06-08,010-64651999,vanfund@vanfund.com.cn,"万方地产股份有限公司,中国辽宁国际合作（集团）股份有限公司",2046-08-31,批发业,其他批发业,和平区,大健康,2019-09-16 13:11:45,2019-09-16 13:11:45,0,1,沈阳市,www.vanfund.com.cn
122,7a5fdb26-d840-11e9-80c9-fa163e3115c2,911500001141618816,150000000005047,114161881,存续（在营、开业、在册）,115965.544100万,张翀宇,房地产业,1993-03-13,1993-03-13,,内蒙古自治区,呼和浩特市工商行政管理局,股份有限公司(上市、自然人投资或控股)(1212),金宇生物技术股份有限公司,内蒙古自治区呼和浩特市经济技术开发区沙尔沁工业园区金宇大街1号,许可经营项目：无一般经营项目：生物技术推广应用；对生物药品投资管理、医疗器械制造投资管理、健康医疗产业投资管理；高新技术开发应用；房地产开发；物业管理,2019-07-11,0471-6539431,zhaozimu@jinyubaoling.com.cn,内蒙古金宇集团股份有限公司,长期,房地产业,物业管理,,大健康,2019-09-16 13:11:45,2019-09-16 13:11:45,0,1,呼和浩特市,
123,7abf2114-d840-11e9-80c9-fa163e3115c2,91540000219667563J,131081000002308,219667563,存续（在营、开业、在册）,310817.503800万,王爱军,制造业,1995-02-09,1995-02-09,2055-02-08,西藏自治区,西藏自治区市场监督管理局,其他股份有限公司(上市),梅花生物科技集团股份有限公司,拉萨市金珠西路158号阳光新城11幢5号,生产味精；预包装食品的批发兼零售；对氨基酸系列产品、生物多糖系列产品、饲料添加剂系列产品、添加剂预混合饲料、鸡精、变性淀粉、饴糖、葡萄糖、食用植物油、单一饲料、谷氨酰胺、肌醇、菲汀、调味品、调味汤料、呈味核苷酸二钠、纳他霉素、5-肌苷酸二钠、5-鸟苷酸二钠、黄原胶、化工原料、（危险化学品除外）、鸟苷、香精香料的投资（取得许可审批后方可从事生产经营）；货物进出口、技术进出口。【依法须经批准的项目，经相关部门批准后方可开展经营活动】。,2019-03-07,0891-6159899,304500205@qq.com,,2055-02-08,食品制造业,调味品、发酵制品制造,,大健康,2019-09-16 13:11:46,2019-09-16 13:11:46,0,1,拉萨市,http://www.meihuagrp.com
124,7b12f3f0-d840-11e9-80c9-fa163e3115c2,9111000071092358XT,110000009745520,71092358X,开业,60172.000000万人民币,王建成,制造业,1998-12-25,1998-12-25,,北京市,北京市工商行政管理局丰台分局,其他股份有限公司(上市),中牧实业股份有限公司,北京市丰台区南四环西路188号八区16-19号楼,加工、生产饲料原料、饲料、饲料添加剂、动物保健品、畜禽制品及其相关产品；粮食收购；销售兽药、饲料原料、饲料、饲料添加剂、动物保健品、畜禽制品及其相关产品、畜牧业生产资料；研究开发饲料新品种、饲料新技术；出租商业、办公用房；与以上项目相关的技术咨询、服务；货物进出口、技术进出口、代理进出口。（企业依法自主选择经营项目，开展经营活动；粮食收购以及依法须经批准的项目，经相关部门批准后依批准的内容开展经营活动；不得从事本市产业政策禁止和限制类项目的经营活动。）,2019-06-19,010-63701111,cahic@cahic.com,,长期,农副食品加工业,饲料加工,丰台区,大健康,2019-09-16 13:11:47,2019-09-16 13:11:47,0,1,北京市,www.cahic.com
125,7b728773-d840-11e9-80c9-fa163e3115c2,9131000013413459XC,310226000000028,13413459X,存续（在营、开业、在册）,64400.000000万人民币,张海明,制造业,1981-07-18,2010-04-19,,上海市,上海市市场监督管理局,股份有限公司(台港澳与外国投资者合资、上市),上海海利生物技术股份有限公司,上海市奉贤区金海公路6720号,兽用活疫苗、灭活疫苗、动物血清及动物制品、兽用诊断试剂及仪器的生产，销售公司自产产品；相关技术转让、技术服务、技术开发、技术咨询；养殖设备（限家禽及家畜饲养机械）、兽用器械、饲料添加剂、兽药、兽用诊断试剂、消毒剂，相关原辅材料的进出口、批发；农副产品收购（稻谷、玉米、小麦除外）。（不涉及国营贸易管理商品，涉及配额、许可证管理商品的，按国家有关规定办理申请）。【依法须经批准的项目，经相关部门批准后方可开展经营活动】,1981-07-18,021-60890888,china@hile-bio.com,,长期,医药制造业,生物药品制造,奉贤区,大健康,2019-09-16 13:11:47,2019-09-16 13:11:47,0,1,上海市,http://www.hile-bio.com/
126,7bc78faa-d840-11e9-80c9-fa163e3115c2,9141030074070138X6,411481612000410,74070138X,存续（在营、开业、在册）,32149.600000万,张许科,制造业,2002-06-22,2002-06-22,,河南省,洛阳市市场监督管理局,股份有限公司(上市、自然人投资或控股),普莱柯生物工程股份有限公司,中国（河南）自由贸易试验区洛阳片区高新开发区凌波路,兽用疫苗、卵黄抗体和兽用化学药品、中药、消毒剂、兽药的生产、销售及经营（具体范围和有效期限以相关部门核发的许可证为准）；兽药产品研发及技术转让、相关技术咨询及服务；技术和货物进出口业务（国家法律法规禁止的除外）。,2019-08-22,0379-65610003,pulikeggb@163.com,,长期,医药制造业,兽用药品制造,自由贸易试验区,大健康,2019-09-16 13:11:48,2019-09-16 13:11:48,0,1,洛阳市,http://www.pulike.com.cn/
127,7c2056d1-d840-11e9-80c9-fa163e3115c2,91120116730357968N,120000000002314,730357968,存续（在营、开业、在册）,40449.346300万人民币,李守军,科学研究和技术服务业,2001-08-02,2001-08-02,,天津市,天津市自由贸易试验区市场和质量监督管理局,股份有限公司(上市),天津瑞普生物技术股份有限公司,天津自贸试验区（空港经济区）东九道1号,生物技术开发、转让、咨询、服务；企业自有资金对高科技产业投资；兽药、添加剂预混合饲料及饲料添加剂的研发、销售；微生物及代谢物、酶、天然植物及提取物饲料原料的研发及推广服务；货物和技术的进出口；以下项目限分支机构经营：兽药、添加剂预混合饲料及饲料添加剂、微生物及代谢物、酶、天然植物及提取物饲料原料生产（依法须经批准的项目，经相关部门批准后方可开展经营活动）,2019-05-29,022-88958000,zcb@ringpu.com,,长期,科技推广和应用服务业,科技中介服务,(空港经济区,大健康,2019-09-16 13:11:48,2019-09-16 13:11:48,0,1,,http://rpshengwu.gotoip4.com/index.php?upcache=1
128,7c7647c2-d840-11e9-80c9-fa163e3115c2,91350000751354926F,350700400003127,751354926,存续（在营、开业、在册）,12000.000000万人民币,赖潭平,制造业,2003-06-13,2003-06-13,,福建省,福建省市场监督管理局,股份有限公司(台港澳与境内合资、上市),绿康生化股份有限公司,浦城县南浦生态工业园区19号,生产兽药原料药、医药原料药、兽药预混剂、兽用药品、食品添加剂及饲料添加剂等相关产品（不含国家限制类品种）。专项化学用品制造（不含国家限制类、禁止类品种，不含易制毒化学品）、热力生产和供应、火力发电。（依法须经批准的项目，经相关部门批准后方可开展经营活动）,2018-12-03,0599-2827451,lkshdm@pclifecome.com,,长期,医药制造业,兽用药品制造,浦城县,大健康,2019-09-16 13:11:49,2019-09-16 13:11:49,0,1,南平市,www.lifecomepc.com
129,7ccdcca6-d840-11e9-80c9-fa163e3115c2,91370000267171351C,370000018011499,267171351,在营（开业）企业,40642.809100万人民币,许尚峰,制造业,1993-04-18,1993-04-18,,山东省,山东省市场监督管理局,股份有限公司,山东新华医疗器械股份有限公司,淄博高新技术产业开发区新华医疗科技园,医疗仪器设备及器械生产、销售；消毒剂、消毒器械生产、销售；卫生材料及医药用品的制造；制药设备生产、销售；应用软件开发及经营；光学仪器的制造；环境保护专用设备制造、销售；仪器仪表及配套软件生产；房屋建筑工程、空气净化工程及室内装饰工程设计、施工，装饰装修；实验动物设备、实验仪器，空气净化器的生产、销售；医疗、制药设备安装及建筑智能化施工；设备租赁；教学设备的生产、销售；医药及医疗器材专门零售；包装设备制造；售后服务；技术服务。（依法须经批准的项目，经相关部门批准后方可开展经营活动）,2018-12-07,0533-3587766,shinva@163.com,,长期,专用设备制造业,医疗仪器设备及器械制造,,大健康,2019-09-16 13:11:49,2019-09-16 13:11:49,0,1,淄博市,http://www.shinva.net
130,7d1e9af4-d840-11e9-80c9-fa163e3115c2,914404001925952982,440400000022356,192595298,在营（开业）企业,79458.077600万,郝镇熙,批发和零售业,1996-04-01,1996-04-01,,广东省,珠海市工商行政管理局,股份有限公司(上市、自然人投资或控股),珠海和佳医疗设备股份有限公司,珠海市香洲区宝盛路5号,III类6821医用电子仪器设备，II类6822医用光学器具、仪器及内窥镜设备，II类6823医用超声仪器及有关设备，III类6824医用激光仪器设备，III类6825医用高频仪器设备，III类6826物理治疗及康复设备，III类6830医用X射线设备，II类6833医用核素设备，III类6845体外循环及血液处理设备，III类6854手术室、急救室、诊疗室设备及器具，II类6856病房护理设备及器具，II类6858医用冷疗、低温、冷藏设备及器具，III类6870软件，III类6877介入器材的研发、生产及相关技术咨询服务；三类及二类医用高频仪器设备、软件、介入器材、医用核素设备、医用激光仪器设备、医用光学器具、仪器及内窥镜设备、医用X射线设备、注射穿刺器械、医用高分子材料及制品、体外循环及血液处理设备、医用磁共振设备、手术室、急救室、诊疗室设备及器具，医用电子仪器设备，物理治疗及康复设备，医用超声仪器及有关设备；二类医用冷疗、低温、冷藏设备及器具、临床检验分析仪器、医用化验和基础设备器具的批发、零售；一类医疗器械的批发、零售；设备租赁；机电设备安装（凭资质证书经营）；建筑装饰装修工程设计与施工（凭资质证书经营）；压力管道安装（凭资质证书经营）；压力管道设计（凭资质证书经营）；建筑智能化工程（凭资质证书经营）；洁净工程（凭资质证书经营）；压力容器安装（凭资质证书经营）；智能高低压成套配电设备的生产、销售；生物技术的研究与咨询服务、技术服务及技术转让、销售化学试剂（不含危险化学品）、卫生材料、实验仪器；医学康复、养老康复等医疗投资管理。,2019-03-08,,,,长期,批发业,机械设备、五金产品及电子产品批发,香洲区,大健康,2019-09-16 13:11:50,2019-09-16 13:11:50,0,1,珠海市,
131,7d772c49-d840-11e9-80c9-fa163e3115c2,9137030068946500X7,370300400006654,68946500X,在营（开业）企业,19641.861400万人民币,刘方毅,制造业,2009-07-20,2009-07-20,,山东省,淄博市市场监督管理局,股份有限公司(上市、自然人投资或控股),山东英科医疗用品股份有限公司,淄博市临淄区齐鲁化学工业园清田路18号,塑胶手套生产、销售；丁腈手套、PE手套、乳胶手套、pvc粉、化工产品（不含危险、易制毒化学品）销售；货物进出口（依法须经批准的项目，经相关部门批准后方可开展经营活动)。,2019-06-04,0533-6298788,ir@intcomedical.com,淄博英科医疗制品有限公司,长期,橡胶和塑料制品业,橡胶制品业,临淄区,大健康,2019-09-16 13:11:51,2019-09-16 13:11:51,0,1,淄博市,http://www.intcomedical.com
132,776684af-d840-11e9-80c9-fa163e3115c2,91321100703952657W,321100000069242,703952657,存续（在营、开业、在册）,100247.692900万人民币,吴光明,制造业,1998-10-22,1998-10-22,,江苏省,镇江市市场监督管理局,股份有限公司(上市、自然人投资或控股),江苏鱼跃医疗设备股份有限公司,江苏丹阳市云阳工业园（振新路南）,医疗器械（按许可证所核范围经营）；保健用品的制造与销售；金属材料的销售；经营本企业自产产品的出口业务和本企业所需的机械设备、零配件、原辅材料的进口业务（国家限定公司经营或禁止进出口的商品及技术除外）；机动医疗车改装（凭相关资质开展经营活动）；汽车的销售。（依法须经批准的项目，经相关部门批准后方可开展经营活动）,2019-06-12,0511-86900858,"dongmi@yuyue.com,cn",,长期,专用设备制造业,医疗仪器设备及器械制造,丹阳市,大健康,2019-09-16 13:11:40,2019-09-16 13:11:40,0,1,镇江市,http://www.yuyue.com.cn/
133,950d1022-d83f-11e9-80c9-fa163e3115c2,91440101759431420M,440126400010558,759431420,在营（开业）企业,20000.000000万人民币,韩广源,制造业,2004-04-30,2004-04-30,,广东省,广州市市场监督管理局,股份有限公司(台港澳与境内合资、上市),广州维力医疗器械股份有限公司,广州市番禺区化龙镇金湖工业城C区4号,医疗卫生用塑料制品制造;非许可类医疗器械经营（即不需申请《医疗器械经营企业许可证》即可经营的医疗器械”，包括第一类医疗器械和国家规定不需申请《医疗器械经营企业许可证》即可经营的第二类医疗器械）;医疗用品及器材零售（不含药品及医疗器械）;假肢、人工器官及植（介）入器械制造;医疗诊断、监护及治疗设备制造;机械治疗及病房护理设备制造;医疗、外科及兽医用器械制造;口腔科用设备及器具制造;医疗实验室设备和器具制造;外科、牙科等医疗专用设备及器械制造;医用消毒设备和器具制造;医疗诊断、监护及治疗设备批发;许可类医疗器械经营（即申请《医疗器械经营企业许可证》才可经营的医疗器械”，包括第三类医疗器械和需申请《医疗器械经营企业许可证》方可经营的第二类医疗器械）;医疗诊断、监护及治疗设备零售;,2018-07-26,020-84758878,chenmeiling@welllead.com.cn,,长期,专用设备制造业,医疗仪器设备及器械制造,番禺区,大健康,2019-09-16 13:05:21,2019-09-16 13:05:21,0,1,广州市,www.welllead.com.cn
134,7def77e6-d840-11e9-80c9-fa163e3115c2,915001135656379811,500113000034742,565637981,存续(在营、开业、在册),3068.000000万,何小玉,制造业,2010-12-17,2010-12-17,,重庆市,重庆市工商行政管理局巴南区分局,股份有限公司,重庆市中迪医疗信息科技股份有限公司,重庆市巴南区智云大道1580号3幢2单元1-1至7-1,生产、销售：I、II、III类医疗器械（须经审批的经营项目，取得审批后方可从事经营）；销售：打印机及辅助设备及耗材、电子产品（不含电子出版物）；打印设备、医疗设备售后及维修服务；从事医疗科技领域内的技术开发、技术转让、技术咨询、技术服务；货物进出口、技术进出口；计算机软件的开发、设计和制作；计算机软、硬件及辅助设备的销售；计算机软、硬件租赁；计算机网络信息系统集成的维护及相关的技术咨询和技术服务；网络工程、弱电系统集成；计算机系统集成；医疗数据库建设与维护；数据处理和存储服务；互联网和物联网技术的开发、应用及信息服务；广告经营；健康信息咨询；健康管理；医疗信息咨询服务（以上均不含医疗诊治）；打字、复印（须经审批的经营项目，取得审批后方可从事经营）。（依法须经批准的项目，经相关部门批准后方可开展经营活动）***,2018-11-27,023-66239393,583155454@qq.com,重庆中迪医疗设备有限公司,长期,其他制造业,其他未列明制造业,巴南区,大健康,2019-09-16 13:11:51,2019-09-16 13:11:51,0,1,重庆市,http://www.zd-chongqing.com/
135,7e41216d-d840-11e9-80c9-fa163e3115c2,913501000797523780,350104100158115,079752378,存续（在营、开业、在册）,1001.000000万人民币,林茶花,信息传输、软件和信息技术服务业,2013-09-18,2013-09-18,2063-09-17,福建省,福州市市场监督管理局,股份有限公司(非上市、自然人投资或控股),福建国民商用软件股份有限公司,福建省福州市仓山区建新镇金洲北路7号88号楼四层,软件开发；医疗器械的研发、生产、销售；计算机、软件及辅助设备的销售、维修及技术服务;档案整理、保管、缩微及档案数字化服务。（依法须经批准的项目，经相关部门批准后方可开展经营活动）,2017-09-11,13960956158,zzy@vangeyl.com,"福州网格商用软件有限公司,福建网格商用软件股份有限公司",2063-09-17,软件和信息技术服务业,软件开发,仓山区,大健康,2019-09-16 13:11:52,2019-09-16 13:11:52,0,1,福州市,www.vangeyl.com
136,7ea02237-d840-11e9-80c9-fa163e3115c2,914403007084678371,440301501125882,708467837,存续（在营、开业、在册）,121569.126600万人民币,LI XITING,制造业,1999-01-25,1999-01-25,,广东省,南山局,股份有限公司(台港澳与境内合资、上市),深圳迈瑞生物医疗电子股份有限公司,深圳市南山区高新技术产业园区科技南十二路迈瑞大厦1-4层,生产经营医疗电子仪器及其配套试剂及产品的软件开发（不含国家限制项目）；自产产品售后服务，自有房屋租赁。,2019-01-15,0755-81888008,caixiaojia@mindray.com,"开曼迈瑞医疗电子（深圳）有限公司,深圳迈瑞生物医疗电子有限公司",长期,专用设备制造业,医疗仪器设备及器械制造,南山区,大健康,2019-09-16 13:11:53,2019-09-16 13:11:53,0,1,深圳市,www.mindray.com.cn
137,88447f12-4bc1-11e9-a8b1-fa163e5275a2,91430100740620301T,430193000005413,740620301,存续（在营、开业、在册）,56531.473400万人民币,李少波,制造业,2002-08-07,2002-08-07,,湖南省,长沙市工商行政管理局,股份有限公司(上市、自然人投资或控股),三诺生物传感股份有限公司,长沙高新技术产业开发区谷苑路265号,生物传感技术及产品、医疗器械、保健产品的研究和开发；医疗器械、体外诊断试剂的生产、销售（凭许可证、审批文件经营）；电子产品、通信系统设备的研发、生产和销售；自营和代理各类商品和技术的进出口，但国家限定公司经营或禁止进出口的商品和技术除外；健康管理咨询；教育管理；预包装食品、食品、化妆品及卫生用品、护肤品的销售；进口食品的零售；保健品、保健食品的销售；健康管理；计算机软件销售；软件开发；软件技术转让；软件技术服务；软件服务；软件测试服务；宠物专用品制造；动物诊疗；动物疾病诊断、诊疗和手术；宠物用品、医疗实验室设备和器具、日用品、检测设备、计量器具的销售。（依法须经批准的项目，经相关部门批准后方可开展经营活动）,2018-08-09,0731-89935529,mail@sinocare.com,,长期,专用设备制造业,电子和电工机械专用设备制造,,大健康,2019-03-21 18:10:20,2019-03-21 18:10:20,0,0,长沙市,https://mall.jd.com/index-1000003363.html
138,7f15a96c-d840-11e9-80c9-fa163e3115c2,914403001923672010,440301501133163,192367201,存续（在营、开业、在册）,58500.000000万人民币,张浩,批发和零售业,1995-08-02,1995-08-02,,广东省,坪山局,股份有限公司(上市),深圳市理邦精密仪器股份有限公司,深圳市坪山新区坑梓街道金沙社区金辉路15号,第一类、第二类、第三类医疗器械、医疗器械软件、体外诊断试剂及相关配附件的研发、生产、批发、零售、进出口、售后服务及相关配套业务；电子产品、仪器仪表、通讯产品、无线通讯产品、信息系统、计算机软件、兽用器械（含兽用医疗器械）、家用器械、消毒类产品的研发、生产、批发、零售、进出口、售后服务及相关配套业务。自有物业租赁；展览服务；物业管理；电子产品、通讯产品、医疗器械的检测、咨询服务。（涉及配套许可证管理、专项规定管理的商品按国家有关规定处理）^,2018-11-28,0755-26882220,liaozhaoying@edan.com.cn,深圳市理邦精密仪器有限公司,长期,批发业,机械设备、五金产品及电子产品批发,,大健康,2019-09-16 13:11:53,2019-09-16 13:11:53,0,1,深圳市,http://www.edan.com.cn
139,7f6c30fc-d840-11e9-80c9-fa163e3115c2,91330200610257495J,330225000032967,610257495,存续,28800.000000万人民币,陈再宏,制造业,1992-09-18,1992-09-18,,浙江省,宁波市市场监督管理局,股份有限公司(上市、自然人投资或控股),宁波戴维医疗器械股份有限公司,浙江省宁波市象山县石浦科技园区科苑路2号,第一、二、三类医疗器械生产、经营；自营和代理各类货物和技术的进出口，但国家限定公司经营或禁止进出口的商品和技术除外（分支机构经营场所设在浙江省象山经济开发区滨海工业园金兴路35号）。（依法须经批准的项目，经相关部门批准后方可开展经营活动）,2019-05-16,65967805,finance@nbdavid.com,宁波戴维医疗器械有限公司,长期,专用设备制造业,医疗仪器设备及器械制造,象山县,大健康,2019-09-16 13:11:54,2019-09-16 13:11:54,0,1,宁波市,http://www.nbdavid.com
140,7fcf94f2-d840-11e9-80c9-fa163e3115c2,91320200724183068U,320200400008830,724183068,存续（在营、开业、在册）,117006.228600万人民币,GE LI（李革）,制造业,2000-12-01,2000-12-01,,江苏省,无锡市市场监督管理局,股份有限公司(中外合资、上市),无锡药明康德新药开发股份有限公司,江苏省无锡市滨湖区马山五号桥,生产PT树脂、MG树脂；开发研究及报批新药；生物技术研究；提供组合化学及相关的技术咨询和服务；利用自有资金进行对外投资。（依法须经批准的项目，经相关部门批准后方可开展经营活动）,2019-07-17,021-50461111,chen_yilin@wuxiapptec.com,无锡药明康德新药开发有限公司,长期,医药制造业,化学药品原料药制造,滨湖区,大健康,2019-09-16 13:11:55,2019-09-16 13:11:55,0,1,无锡市,www.wuxiapptec.com.cn
141,8030d6b8-d840-11e9-80c9-fa163e3115c2,9133000076823762XE,330100400022052,76823762X,存续,74973.617200万人民币,曹晓春,科学研究和技术服务业,2004-12-25,2004-12-25,,浙江省,浙江省市场监督管理局,股份有限公司(中外合资、上市),杭州泰格医药科技股份有限公司,浙江省杭州市滨江区江南大道618号东冠大厦1502-1室,服务：医药相关产业产品及健康相关产业产品的技术开发、技术咨询、成果转让，临床试验数据的管理与统计分析，翻译，以承接服务外包方式从事数据处理等信息技术和业务流程外包服务，成年人的非证书劳动职业技能培训，成年人的非文化教育培训，收集、整理、储存和发布人才供求信息，开展职业介绍，开展人才信息咨询。,2019-08-27,0571-88211196,bd@tigermed.net,,长期,科技推广和应用服务业,技术推广服务,滨江区,大健康,2019-09-16 13:11:55,2019-09-16 13:11:55,0,1,杭州市,http://www.tigermed.net
142,76e67b43-d850-11e9-80c9-fa163e3115c2,9111030276350109XG,110000410205747,76350109X,开业,65629.357500万人民币,楼柏良,科学研究和技术服务业,2004-07-01,2004-07-01,,北京市,北京市工商行政管理局北京经济技术开发区分局,股份有限公司(中外合资、上市),康龙化成（北京）新药技术股份有限公司,北京市北京经济技术开发区泰河路6号1幢八层,药用化合物、化学药、生物制品、生物技术的研究与开发；提供技术开发、技术转让、技术咨询、技术服务、技术培训；货物、技术进出口业务。（涉及配额许可证管理及专项规定管理的商品按照国家有关规定办理）。（企业依法自主选择经营项目，开展经营活动；依法须经批准的项目，经相关部门批准后依批准的内容开展经营活动；不得从事本市产业政策禁止和限制类项目的经营活动。）,2019-04-26,57330000,qiuwen.zhong@pharmaron-bj.com,康龙化成（北京）新药技术有限公司,长期,科技推广和应用服务业,技术推广服务,,大健康,2019-09-16 15:06:11,2019-09-16 15:06:11,0,1,,http://www.pharmaron.com/
143,77339734-d850-11e9-80c9-fa163e3115c2,91120116700570514A,120000400035153,700570514,存续（在营、开业、在册）,23140.996200万人民币,HAO HONG,制造业,1998-10-07,1998-10-07,,天津市,天津市滨海新区市场和质量监督管理局,股份有限公司(中外合资、上市),凯莱英医药集团（天津）股份有限公司,天津经济技术开发区洞庭三街６号,开发、生产、销售高新医药原料及中间体和生物技术产品，制剂研发，相关设备、配件的进出口、批发零售业务（不设店铺）以及上述相关技术咨询服务和技术转让。（依法须经批准的项目，经相关部门批准后方可开展经营活动）,2019-08-08,022-66252888,BDchina@asymchem.com.cn,凯莱英医药化学（天津）有限公司,长期,医药制造业,化学药品原料药制造,,大健康,2019-09-16 15:06:12,2019-09-16 15:06:12,0,1,,www.asymchem.com
144,81488282-d840-11e9-80c9-fa163e3115c2,913201917937313394,320100400037244,793731339,存续（在营、开业、在册）,14300.000100万人民币,杨民民,科学研究和技术服务业,2006-12-26,2006-12-26,,江苏省,南京市江北新区管理委员会行政审批局,股份有限公司(上市),南京药石科技股份有限公司,南京江北新区学府路10号,生物医药专业领域内的技术开发、技术咨询、技术服务、技术转让；生物医药中间体（除药品）研发、生产、销售；自营和代理各类商品及技术的进出口业务；实业投资；投资服务与咨询；投资管理；化学药制剂、化学原料药研发、生产和销售（按许可证经营）；电子商务技术服务。（依法须经批准的项目，经相关部门批准后方可开展经营活动）,2019-06-28,025-86918218,PB-Stock@PharmaBlock.com,南京药石药物研发有限公司,长期,研究和试验发展,医学研究和试验发展,,大健康,2019-09-16 13:11:57,2019-09-16 13:11:57,0,1,南京市,http://www.pharmablock.com
145,819f44ba-d840-11e9-80c9-fa163e3115c2,9111030210221806X9,110106002952913,10221806X,开业,11499.460000万人民币,冯宇霞,科学研究和技术服务业,1998-02-25,1998-02-25,,北京市,北京市工商行政管理局北京经济技术开发区分局,股份有限公司(上市、自然人投资或控股),北京昭衍新药研究中心股份有限公司,北京市北京经济技术开发区荣京东街甲5号,食品、日用化学产品、化学试剂、生物制品、生物技术的技术开发、技术转让、技术咨询、技术服务、技术培训；货物进出口、技术进出口、代理进出口；技术检测。（企业依法自主选择经营项目，开展经营活动；依法须经批准的项目，经相关部门批准后依批准的内容开展经营活动；不得从事本市产业政策禁止和限制类项目的经营活动。）,2019-02-12,67869966,info@joinnlabortories.com,北京昭衍新药研究中心有限公司,长期,科技推广和应用服务业,其他科技推广和应用服务业,,大健康,2019-09-16 13:11:58,2019-09-16 13:11:58,0,1,,http://www.joinn-lab.com/about/beijing.html
146,1a77716a-4bbd-11e9-a8b1-fa163e5275a2,915000007748965415,500221000006854,774896541,存续(在营、开业、在册),54274.753300万人民币,居年丰,制造业,2005-07-07,2005-07-07,,重庆市,重庆市工商行政管理局,股份有限公司(中外合资、上市),重庆博腾制药科技股份有限公司,重庆市（长寿）化工园区精细化工一区,原料药生产（按药品生产许可证核定事项和期限从事经营）；创新药品的技术开发、技术服务；化学原料药研究开发（含中小规模试剂）、技术转让、技术服务；医药中间体、精细化学品的生产、销售(不含危险化学品、易制毒化学品等许可经营项目）；采用生物工程技术的新型药物研发、生产（须取得相关行政许可或审批后方可从事经营）；生物工程与生物医学工程技术开发、技术转让、技术服务；化学药品制剂制造（须取得相关行政许可或审批后方可从事经营）；药品销售（须取得相关行政许可或审批后方可从事经营）；货物进出口、技术进出口。『依法禁止经营的不得经营；依法应经许可审批而未获许可批准前不得经营』★★,2018-10-24,023-86083200,qin.han@porton.cn,,长期,化学原料和化学制品制造业,合成材料制造,精细化工一区,大健康,2019-03-21 17:38:38,2019-03-21 17:38:38,0,0,,http://cn.porton.cn/
147,77ce007e-d850-11e9-80c9-fa163e3115c2,9144070072115339X0,440700400013622,72115339X,在营（开业）企业,49977.689200万人民币,曾宪经,制造业,2000-01-26,2000-01-26,,广东省,江门市工商行政管理局,其他股份有限公司(上市),量子高科（中国）生物股份有限公司,江门市高新区高新西路133号,保健食品(国内保健食品批准证书范围内产品)的研发、生产、销售及技术转让；低聚果糖、低聚半乳糖、母乳低聚糖、医疗器械、诊断试剂、调味料(固态、液态)、饮料、蜂产品、茶叶及相关制品、糖果制品、其他食品等预包装食品、新食品原料、特殊膳食食品、特殊医学用途配方食品、食品添加剂及酶制剂、医药辅料、饲料添加剂的研发、生产、销售；医药研发服务；医药技术研发、技术咨询和技术转让；生物技术的开发和转让；研发、销售包装材料；健康管理服务（不含医疗服务）、咨询、生物健康技术开发；经营本企业生产、科研所需的原辅材料、产品、仪器仪表、机械设备、零配件及相关技术的进出口业务；批发、零售：预包装食品、乳制品、保健食品、化妆品、日用品、保健仪器、检测仪器、理疗仪器；资产租赁。（以上经营范围涉及前置审批的项目凭相关许可证核准的经营范围经营，未取得前置许可证的不得经营。上述经营范围不涉及国营贸易管理商品，涉及配额、许可证管理商品的，按国家有关规定办理申请）。(依法须经批准的项目，经相关部门批准后方可开展经营活动)〓,2018-10-30,0750-8258999,kf@qht.cc,,长期,食品制造业,其他食品制造,,大健康,2019-09-16 15:06:13,2019-09-16 15:06:13,0,1,江门市,http://www.qht.cc/
148,827426b3-d840-11e9-80c9-fa163e3115c2,91110228754175237Y,110228006107984,754175237,开业,16000.000000万人民币,刘建华,制造业,2003-09-03,2011-09-02,,北京市,北京市工商行政管理局密云分局,股份有限公司(台港澳与境内合资、上市),北京康辰药业股份有限公司,北京市密云区经济开发区兴盛南路11号,生产冻干粉针剂、原料药；生物医药开发研究；技术转让；咨询服务（不含中介服务）。（该企业于2011年09月02日由内资企业变更为外商投资企业。依法须经批准的项目，经相关部门批准后依批准的内容开展经营活动。）,2018-11-08,82898888,无,北京康辰药业有限公司,长期,医药制造业,化学药品制剂制造,密云区,大健康,2019-09-16 13:11:59,2019-09-16 13:11:59,0,1,,http://www.konruns.cn
149,82ca782e-d840-11e9-80c9-fa163e3115c2,91330000146008822C,330000000006107,146008822,存续,53649.445600万人民币,陈尧根,制造业,2001-12-31,2001-12-31,,浙江省,浙江省市场监督管理局,其他股份有限公司(上市),浙江亚太药业股份有限公司,浙江省绍兴市柯桥区云集路1152号,片剂（含青霉素类）、硬胶囊剂（含头孢菌素类、青霉素类）、透皮贴剂（激素类）、冻干粉针剂、粉针剂（头孢菌素类）的生产（详见《中华人民共和国药品生产许可证》），原料药的生产（详见《中华人民共和国药品生产许可证》）。经营进出口业务，医药相关产业项目的研究、投资与管理。,2017-10-19,0575-84815739,,,长期,医药制造业,卫生材料及医药用品制造,,大健康,2019-09-16 13:12:00,2019-09-16 13:12:00,0,1,绍兴市,http://www.ytyaoye.com
150,831b9c41-d840-11e9-80c9-fa163e3115c2,91440101743555883K,440106000113076,743555883,在营（开业）企业,13391.750000万人民币,王廷春,科学研究和技术服务业,2002-09-29,2002-09-29,,广东省,广州市工商行政管理局,股份有限公司,广州博济医药生物技术股份有限公司,广州市天河区华观路1933号701房,药品研发;医学研究和试验发展;生物技术推广服务;生物技术开发服务;信息技术咨询服务;科技信息咨询服务;科技项目评估服务;生物技术咨询、交流服务;生物技术转让服务;科技中介服务;科技成果鉴定服务;技术进出口;专利服务;商标代理等服务;化学试剂和助剂制造（监控化学品、危险化学品除外）;药物检测仪器制造;非许可类医疗器械经营;化学试剂和助剂销售（监控化学品、危险化学品除外）;商品批发贸易（许可审批类商品除外）;医疗用品及器材零售（不含药品及医疗器械）;商品零售贸易（许可审批类商品除外）;医疗设备租赁服务;机械设备租赁;房屋租赁;办公设备租赁服务;场地租赁（不含仓储）;,2018-08-23,020-38473208,gzboji@gzboji.com,,长期,研究和试验发展,医学研究和试验发展,天河区,大健康,2019-09-16 13:12:00,2019-09-16 13:12:00,0,1,广州市,www.gzboji.com
151,837f0899-d840-11e9-80c9-fa163e3115c2,916500007129676234,650000040000152,712967623,开业,40038.639400万,郑彩红,信息传输、软件和信息技术服务业,1996-06-21,1996-06-21,,新疆维吾尔自治区,五家渠工商行政管理局,其他股份有限公司(上市),新疆百花村股份有限公司,新疆五家渠十六区青湖南路1025号新华苑小区综合楼B段-11,一般货物与技术的进出口经营；边境小额贸易；能源投资销售；矿产品、建材及化工产品、机械设备、五金产品及电子产品、农、牧产品、食品饮料及烟草制品、纺织、服装及家庭用品销售；贸易经纪与代理；仓储业；租赁业；体育；商业服务；软件和信息技术服务业；其他批发业；综合零售；市场开发建设；广告经营；汽车租赁。,2019-03-11,09912356607,无,,长期,软件和信息技术服务业,软件开发,,大健康,2019-09-16 13:12:01,2019-09-16 13:12:01,0,1,,www.xjbhc.net
152,8415a6a2-d840-11e9-80c9-fa163e3115c2,912205012445783007,220500000013331,244578300,存续（在营、开业、在册）,203398.851700万人民币,冷春生,制造业,1992-12-28,1992-12-28,,吉林省,通化市工商行政管理局,其他股份有限公司(上市),通化东宝药业股份有限公司,通化县东宝新村,硬胶囊剂、片剂（含激素类）、颗粒剂、小容量注射剂、原料药（重组人胰岛素）、生物工程产品（重组人胰岛素注射剂），II类：6854手术室、急救室、诊疗设备及器具、II类6815注射穿刺器械；III类：6815注射穿刺器械;II类：6840临床检验分析仪器及诊断试剂（含诊断试剂）；6841医用化验和基础设备器具。（依法须经批准的项目，经相关部门批准后方可开展经营活动）,2019-03-08,04355088008,thdbcw@163.com,中国通化东宝实业股份有限公司,长期,医药制造业,化学药品制剂制造,通化县,大健康,2019-09-16 13:12:02,2019-09-16 13:12:02,0,1,通化市,http://www.thdb.com
153,846a4b0c-d840-11e9-80c9-fa163e3115c2,91440300279544901A,440301102761269,279544901,存续（在营、开业、在册）,124720.170400万人民币,李锂,制造业,1998-04-21,1998-04-21,,广东省,深圳市市场监督管理局,股份有限公司(上市),深圳市海普瑞药业集团股份有限公司,深圳市南山区松坪山郎山路21号,一般经营项目是：开发、生产经营原料药（肝素钠、依诺肝素钠），从事货物及技术进出口（不含分销及国家专营、专控、专卖商品）。，许可经营项目是：,2019-08-01,0755-26980200,sizheng@hepalink.com,"深圳市海普瑞实业发展有限公司,深圳市海普瑞生物技术有限公司,深圳市海普瑞药业有限公司,深圳市海普瑞药业股份有限公司",长期,医药制造业,化学药品原料药制造,南山区,大健康,2019-09-16 13:12:02,2019-09-16 13:12:02,0,1,深圳市,http://www.hepalink.com
154,84bd1591-d840-11e9-80c9-fa163e3115c2,914404006174883094,440400400032571,617488309,在营（开业）企业,55314.127100万人民币,朱保国,制造业,1985-01-26,1985-01-26,,广东省,珠海市工商行政管理局,股份有限公司(台港澳与境内合资、上市),丽珠医药集团股份有限公司,珠海市金湾区创业北路38号总部大楼,生产和销售自产的中西药原料、医药中间体、中药材、中药饮片医疗器械、卫生材料、保健品、药用化妆品、中西成药、生化试剂，兼营化工、食品、信息业务，医药原料药。本企业自产产品及相关技术的进出口业务；批发中成药、化学原料药及其制剂、抗生素原料药及其制剂、生物制品（预防性生物制品除外）、生化药品。（涉及配额许可证、国家有专项规定的商品应按有关规定办理；需其他行政许可项目，取得许可后方可经营）。,2019-07-24,,,,长期,医药制造业,化学药品制剂制造,金湾区,大健康,2019-09-16 13:12:03,2019-09-16 13:12:03,0,1,珠海市,
155,85187b13-d840-11e9-80c9-fa163e3115c2,91320100726054999R,320191000010753,726054999,存续（在营、开业、在册）,55242.590000万人民币,唐咏群,制造业,2000-10-16,2000-10-16,,江苏省,南京市市场监督管理局,股份有限公司(台港澳与境内合资、上市),南京健友生化制药股份有限公司,南京高新开发区MA010-1号地,药品生产（按许可证所列范围经营）；销售自产产品。药品的研发及其技术成果转让、技术咨询和服务。从事与本企业生产同类产品的批发、佣金代理（拍卖除外）和技术的进出口业务（不涉及国营贸易管理商品，涉及配额、许可证管理商品的，按国家有关规定办理申请）；自有房屋租赁。（涉及许可证经营的凭许可证经营）。（依法须经批准的项目，经相关部门批准后方可开展经营活动）,2018-06-06,025-86990815,sales@nkf-pharma.com.cn,,长期,医药制造业,化学药品原料药制造,,大健康,2019-09-16 13:12:03,2019-09-16 13:12:03,0,1,南京市,www.nkf-pharma.com
156,8584596a-d840-11e9-80c9-fa163e3115c2,91330000147968817N,330000000027652,147968817,存续,125098.839800万人民币,陈保华,制造业,2001-02-28,2001-02-28,,浙江省,浙江省工商行政管理局,其他股份有限公司(上市),浙江华海药业股份有限公司,浙江省临海市汛桥,药品的生产（范围详见《中华人民共和国药品生产许可证》）。医药中间体制造，经营进出口业务。,2018-07-05,85010288,yaoxiaofeng@huahaipharm.com,,长期,医药制造业,化学药品原料药制造,临海市,大健康,2019-09-16 13:12:04,2019-09-16 13:12:04,0,1,台州市,http://www.huahaipharm.com/
157,85dcaa67-d840-11e9-80c9-fa163e3115c2,913300002646284831,370200018046069,264628483,存续,117852.349200万人民币,祝方猛,金融业,1997-05-06,1997-05-06,,浙江省,浙江省市场监督管理局,股份有限公司(上市、自然人投资或控股),普洛药业股份有限公司,浙江省东阳市横店江南路399号,医药行业投资，网络投资，股权投资管理，生物制药技术的研究、开发、转让，国内贸易；经营进出口业务。,2019-04-16,0579-86557820,000739@apeloa.com,,长期,资本市场服务,资本投资服务,东阳市,大健康,2019-09-16 13:12:05,2019-09-16 13:12:05,0,1,金华市,http://www.apeloa.com
158,9f0e8cc7-4bbd-11e9-a8b1-fa163e5275a2,913300001482332737,330000000004437,148233273,存续,161882.025300万人民币,杨思卫,制造业,1998-05-07,1998-05-07,,浙江省,浙江省工商行政管理局,其他股份有限公司(上市),浙江海翔药业股份有限公司,浙江省台州市椒江区外沙支路100号,药品的生产（范围详见《中华人民共和国药品生产许可证》）。化工原料及产品的生产，经营进出口业务。,2018-07-06,0756-89088166,stock@hisoar.com,浙江海翔医药化工股份有限公司,长期,化学原料和化学制品制造业,基础化学原料制造,椒江区,大健康,2019-03-21 17:42:20,2019-03-21 17:42:20,0,0,台州市,http://www.hisoar.com/
159,864d9e65-d840-11e9-80c9-fa163e3115c2,91370000705877283D,370600400006926,705877283,在营（开业）企业,80221.432600万,由守谊,制造业,1998-12-31,1998-12-31,,山东省,烟台市市场监督管理局,其他股份有限公司(上市),烟台东诚药业集团股份有限公司,烟台经济技术开发区长白山路7号,原料药（肝素钠、肝素钙、硫酸软骨素钠、硫酸软骨素钠（供注射用）、那屈肝素钙、依诺肝素钠、达肝素钠）的生产、加工和销售；硫酸软骨素、胶原蛋白、透明质酸、细胞色素C（冻干）、鲨鱼骨粉、盐酸氨基葡萄糖的生产、加工和销售；货物及技术进出口；医药技术和产品的研发及成果转让、相关技术咨询及服务。(依法须经批准的项目，经相关部门批准后方可开展经营活动，有效期以许可证为准),2019-08-05,0535-6391521,dcadd@dcb-group.com,烟台东诚生化股份有限公司,长期,医药制造业,生物药品制造,,大健康,2019-09-16 13:12:05,2019-09-16 13:12:05,0,1,烟台市,http://www.dcb-group.com/
160,86aa7ce8-d840-11e9-80c9-fa163e3115c2,91330000704676703E,330000000014592,704676703,存续,80588.917100万人民币,花莉蓉,制造业,1998-07-13,1998-07-13,,浙江省,浙江省工商行政管理局,其他股份有限公司(上市),浙江九洲药业股份有限公司,浙江省台州市椒江区外沙工业区,化学原料药、医药中间体、医药制剂的研发、生产（凭许可证经营），创新药品、生物技术的技术开发、技术服务，新药、医药中间体及原料药的研发、销售（凭许可证经营），化工原料（不含危险化学品及易制毒品）、机械设备的制造、销售，经营进出口业务。（依法须经批准的项目，经相关部门批准后方可开展经营活动）,2019-01-30,0576-88820712,jiuzhou@jiuzhoupharma.com,,长期,医药制造业,化学药品原料药制造,椒江区,大健康,2019-09-16 13:12:06,2019-09-16 13:12:06,0,1,台州市,http://www.jiuzhoupharma.com
161,86fc661f-d840-11e9-80c9-fa163e3115c2,91370000164238285E,370300018517205,164238285,在营（开业）企业,39315.223800万人民币,赵叶青,租赁和商务服务业,2004-01-12,2004-01-12,2024-01-12,山东省,淄博市市场监督管理局,股份有限公司(上市),山东金城医药集团股份有限公司,山东省淄博市淄川经济开发区双山路1号,基础化学原料、化学药品原料药、化学药品制剂、生物药品、中药饮片、中成药、保健品、医疗仪器设备及器械的研发、生产、销售和技术咨询；企业管理服务；从事对未上市企业的股权投资、对上市公司非公开发行股票的投资及相关咨询服务（未经金融监管部门批准，不得从事吸收存款、融资担保、代客理财等金融业务）；货物、技术进出口。(依法须经批准的项目，经相关部门批准后方可开展经营活动),2019-03-28,05335414988,jinchengyiyao@126.com,"山东金城医药化工股份有限公司,山东金城医药股份有限公司",2024-01-12,商务服务业,企业管理服务,淄川区,大健康,2019-09-16 13:12:07,2019-09-16 13:12:07,0,1,淄博市,http://www.jinchengpharm.com/
162,049e1942-4bc8-11e9-a8b1-fa163e5275a2,91331000148144211K,331003000003258,148144211,存续,18199.312400万人民币,屠勇军,制造业,2003-02-14,2003-02-14,9999-09-09,浙江省,浙江省工商行政管理局,其他股份有限公司(上市),浙江天宇药业股份有限公司,台州市黄岩江口化工开发区,"年回收：乙酸乙酯631吨、四氢呋喃509吨、环己烷+异丙醇1135吨、甲苯5.3吨、N,N-二甲基甲酰胺（DMF）7.3吨、乙醇17.6吨、乙腈1.3吨、丙酮1.5吨、甲醇4.3吨、二氯甲烷3.3吨（凭有效许可证经营），药品生产（范围详见《药品生产许可证》，凭有效许可证经营），N,N-二环己基碳酰亚胺、坎地沙坦、4甲基-2-氰基联苯、4溴甲基-2-氰基联苯、沙坦主环、联苯乙酸、依普沙坦制造，货物与技术的进出口。",2019-01-15,,,"浙江天宇医药化工有限公司,浙江天宇药业有限公司,浙江黄岩天宇化工厂",长期,化学原料和化学制品制造业,基础化学原料制造,黄岩区,大健康,2019-03-21 18:56:45,2019-03-21 18:56:45,0,0,台州市,http://www.tianyupharm.com/
163,798b68cb-d850-11e9-80c9-fa163e3115c2,91500000759253791C,500221000008591,759253791,存续(在营、开业、在册),118971.238200万,汪天祥,制造业,2004-02-25,2004-02-25,,重庆市,重庆市工商行政管理局,股份有限公司(上市公司),福安药业（集团）股份有限公司,重庆市长寿区化南一路1号,生产、销售（限本企业自产产品）无菌原料药、非无菌原料药（以上经营范围按相关许可证核定事项及期限从事经营），研究、开发精细化工产品、专用化学品（不含危险化学品），生产、销售化工产品（不含危险化学品），技术转让，货物进出口，企业管理咨询服务。（依法须经批准的项目，经相关部门批准后方可开展经营活动）,2017-05-16,023-61213011,fapharm@fapharm.com,,长期,医药制造业,化学药品原料药制造,长寿区,大健康,2019-09-16 15:06:15,2019-09-16 15:06:15,0,1,重庆市,www.fapharm.com
164,87d362aa-d840-11e9-80c9-fa163e3115c2,91330000719525000X,331000000000876,719525000,存续,82009.382700万人民币,王莺妹,制造业,1999-10-11,1999-10-11,,浙江省,浙江省工商行政管理局,股份有限公司(上市、自然人投资或控股),浙江永太科技股份有限公司,浙江省化学原料药基地临海园区东海第五大道1号,农药（不含危险化学品）的销售（凭许可证经营）。有机中间体（不含危险化学品和易制毒化学品）、机械设备制造和销售，生物技术、农药技术、化学品技术开发、技术咨询、技术服务，仪器仪表、化工产品（不含危险化学品和易制毒化学品）、矿产品（除专控）、石油制品（不含成品油及危险化学品）、电子产品原料及产品的销售，从事进出口业务。,2018-06-07,0576-85588222,hr@yongtaitech.com,,长期,化学原料和化学制品制造业,基础化学原料制造,,大健康,2019-09-16 13:12:08,2019-09-16 13:12:08,0,1,,
165,8824e142-d840-11e9-80c9-fa163e3115c2,91130100787019708G,130100000144986,787019708,存续（在营、开业、在册）,20000.000000万人民币,韩峰,制造业,2006-04-05,2006-04-05,,河北省,石家庄市市场监督管理局,其他股份有限公司(上市),石药集团新诺威制药股份有限公司,石家庄市栾城区富强西路36号,原料药（咖啡因、茶碱、氨茶碱、二羟丙茶碱、可可碱、已酮可可碱、多索茶碱）、精神药品（咖啡因）的生产销售；食品添加剂（咖啡因）的生产销售；医药中间体的销售；饮料生产、销售；保健食品、糖果制品生产销售；预包装食品批发零售；预包装食品、保健食品（以上不含冷冻食品）技术研发、技术转让、技术咨询、技术推广服务；经营本企业自产产品和技术的出口业务和本企业生产、科研所需的原辅材料、机械设备、仪器仪表、零配件及相关技术的进口业务，但国家限定公司经营和禁止进口的商品及技术除外。（法律、法规及国务院决定禁止或者限制的事项，不得经营；需其它部门审批的事项，待批准后，方可经营）,2019-06-10,0311-85408926,xinnuowei@mail.ecspc.com,,长期,医药制造业,中成药生产,栾城县,大健康,2019-09-16 13:12:08,2019-09-16 13:12:08,0,1,石家庄市,http://www.xnwpharma.net/
166,8878e633-d840-11e9-80c9-fa163e3115c2,9135000070536404XU,350000100021905,70536404X,存续（在营、开业、在册）,263383.629000万人民币,邓海雄,租赁和商务服务业,2002-09-28,2002-09-28,2052-09-27,福建省,福建省市场监督管理局,股份有限公司(上市、自然人投资或控股),冠福控股股份有限公司,德化县浔中镇土坂村,对医疗业，制造业，采矿业，能源业，建筑业，批发和零售业，交通运输、仓储和邮政业，住宿和餐饮业，房地产业，租赁和商务服务业，信息传输、软件和信息技术服务业，科学研究和技术服务业，居民服务业，教育业，文化、体育和娱乐业的投资；仓储服务（不含危险品）；物业管理；房屋租赁；对外贸易；企业管理咨询服务；会议及展览服务；日用品、体育用品、建筑材料、化工产品（不含危险化学品和易制毒化学品）、五金交电、金属材料、电子产品、针纺织品的销售；计算机技术、医疗、医药技术的研发。（依法须经批准的项目，经相关部门批准后方可开展经营活动）,2019-03-07,0595-23519999,无,福建冠福现代家用股份有限公司,2052-09-27,商务服务业,企业管理服务,德化县,大健康,2019-09-16 13:12:09,2019-09-16 13:12:09,0,1,泉州市,http://guanfujj.tmall.com/shop/view_shop.htm?spm=a230r.1.14.5.2Fejnc&user_number_id=856488924
167,88cd88de-d840-11e9-80c9-fa163e3115c2,9141080074921334XW,410822100001782,74921334X,存续（在营、开业、在册）,21793.602500万,方华生,科学研究和技术服务业,2003-03-13,2003-03-13,,河南省,焦作市市场监督管理局,股份有限公司(上市、自然人投资或控股),博爱新开源医疗科技集团股份有限公司,河南省焦作市博爱县文化路（东段）1888号,研发、生产：药用辅料、原料药（聚维酮碘）、粘合剂、食品添加剂（不溶性聚乙烯聚吡咯烷酮）；聚乙烯吡咯烷酮系列产品、乙烯基甲醚/马来酸酐聚合物（工业级，按照许可证核定的有效期限经营）；医疗技术开发、转让、咨询、服务。Ⅰ、Ⅱ、Ⅲ类医疗器械；Ⅰ、Ⅱ、Ⅲ类诊断试剂的销售；生物技术的研发、技术服务、技术转让、技术咨询。经营本企业自产产品及技术的出口业务和本企业所需的机械设备、零配件、原辅材料及技术的进口业务，但国家限定公司经营或禁止进出口的商品及技术除外**（涉及许可经营项目，应取得相关部门许可后方可经营）,2019-01-28,0391-8694499,nature1111@sina.com,博爱新开源制药股份有限公司,长期,科技推广和应用服务业,技术推广服务,博爱县,大健康,2019-09-16 13:12:10,2019-09-16 13:12:10,0,1,焦作市,http://www.china-pvp.com
168,8933792b-d840-11e9-80c9-fa163e3115c2,91330000704720655L,331000400001749,704720655,存续,16789.838800万人民币,胡锦生,制造业,1997-09-15,1997-09-15,,浙江省,浙江省市场监督管理局,股份有限公司(中外合资、上市),浙江司太立制药股份有限公司,浙江省仙居县现代工业集聚区司太立大道1号,医药中间体制造、销售；经营本企业自产产品的出口业务和本企业所需的机械设备、零配件、原辅材料的进口业务，但国家限定公司经营或禁止进出口的商品及技术除外。原料药（碘海醇、碘克沙醇、碘帕醇、碘佛醇、盐酸左氧氟沙星、左氧氟沙星、甲磺酸帕珠沙星）制造（详见《药品生产许可证》）；（依法须经批准的项目，经相关部门批准后方可开展经营活动）,2019-08-21,0576-87718632,info@starrypharma.com,,长期,医药制造业,化学药品原料药制造,仙居县,大健康,2019-09-16 13:12:10,2019-09-16 13:12:10,0,1,台州市,http://www.starrypharm.com
169,89834e97-d840-11e9-80c9-fa163e3115c2,9112000071824811X4,120000000002656,71824811X,存续（在营、开业、在册）,109188.668000万人民币,张杰,制造业,1999-12-01,1999-12-01,,天津市,天津市滨海新区市场和质量监督管理局,股份有限公司(上市),天津天药药业股份有限公司,天津开发区西区新业九街19号,承办中外合资经营、合作生产企业；技术服务及咨询；压力容器设计（取得特种设备安全监察部门许可后经营）；食品添加剂生产；限分支机构经营：化学原料药、原料药、无菌原料药、中药材及中成药加工、医药中间体、化工原料、化妆品、生物柴油及相关技术和原辅材料生产加工；限分支机构经营：饲料添加剂生产；限分支机构经营：中西制剂药品生产(以上经营范围内国家有专营专项规定的按规定办理）,2019-09-06,022-65277560,tygfbgs@163.com,,长期,医药制造业,化学药品制剂制造,,大健康,2019-09-16 13:12:11,2019-09-16 13:12:11,0,1,,http://www.kingyork.biz/tianyaoyaoye/
170,338550e4-4bbd-11e9-a8b1-fa163e5275a2,913602007363605788,360200210008121,736360578,存续（在营、开业、在册）,11231.025万元人民币,包建华,制造业,2002-03-20,2002-03-20,,江西省,景德镇市市场和质量监督管理局,股份有限公司(上市、自然人投资或控股),江西富祥药业股份有限公司,江西省景德镇市昌江区鱼丽工业区2号（鱼山与丽阳交界处）,原料药制造、销售（凭药品生产许可证经营）；化工原料制造、销售（不含化学危险品）；经营进出口业务。（依法须经批准的项目，经相关部门批准后方可开展经营活动）***,2017-10-30,0798-2699929,stock@fushine.cn,,长期,化学原料和化学制品制造业,基础化学原料制造,昌江区,大健康,2019-03-21 17:39:20,2019-03-21 17:39:20,0,0,景德镇市,www.fushine.cn
171,8a077fae-d840-11e9-80c9-fa163e3115c2,91330000146733354E,330400000007042,146733354,存续,87768.994000万人民币,钱志达,批发和零售业,2001-03-19,2001-03-19,,浙江省,浙江省市场监督管理局,股份有限公司(上市、自然人投资或控股),兄弟科技股份有限公司,浙江省海宁市周王庙镇联民村蔡家石桥3号,饲料添加剂的生产（凭许可证经营）；食品添加剂的生产（凭有效许可证经营）。皮革化工产品的技术研究、技术开发及技术咨询服务；化工产品（不含危险化学品和易制毒化学品）的生产、销售，建材、装饰材料、日用百货的销售；房屋租赁，经营进出口业务（上述经营范围不含国家法律法规规定禁止、限制和许可经营的项目。）（依法须经批准的项目，经相关部门批准后方可开展经营活动）,2019-06-24,87532885,brother@brother.com.cn,,长期,批发业,矿产品、建材及化工产品批发,海宁市,大健康,2019-09-16 13:12:12,2019-09-16 13:12:12,0,1,嘉兴市,http://brother.com.cn
172,8a6e1d0d-d840-11e9-80c9-fa163e3115c2,91320600138297660P,320600000001352,138297660,存续（在营、开业、在册）,83572.437400万人民币,尹红宇,制造业,1994-01-03,1990-08-29,,江苏省,南通市行政审批局,股份有限公司(上市),精华制药集团股份有限公司,南通市港闸经济开发区兴泰路9号,生产、加工、销售：片剂、丸剂、散剂、冲剂、颗粒剂、胶囊剂、注射剂、糖浆剂、煎膏剂、酒剂、滋补保健品、药茶、饮料、口服液、合剂；包装材料及相关技术的进出口业务；经营本企业生产、科研所需要的原辅料、药材、农副产品（除专营）、机械设备、仪器仪表、零配件及相关技术的进口业务；开发咨询服务；承办中外合资经营、合作生产及开展“三来一补”业务；汽车货物自运。（依法须经批准的项目，经相关部门批准后方可开展经营活动）,2019-06-30,0513-85609118,ntjh@jhoa.net,,长期,医药制造业,化学药品原料药制造,港闸区,大健康,2019-09-16 13:12:12,2019-09-16 13:12:12,0,1,南通市,www.ntjhzy.com
173,8ac633af-d840-11e9-80c9-fa163e3115c2,91370300164103727C,370300400000376,164103727,在营（开业）企业,62185.944700万人民币,张代铭,制造业,1998-11-20,1998-11-20,,山东省,淄博市市场监督管理局,股份有限公司(台港澳与境内合资、上市),山东新华制药股份有限公司,淄博市高新技术产业开发区化工区,生产、批发、零售西药、化工原料、食品添加剂、保健食品、固体饮料、兽用药品、鱼油、制药设备、医药检测仪器及仪表；自行研制开发项目的技术转让、服务、技术咨询、技术培训；批发、零售中药材、中药饮片、医疗器械（Ⅰ、Ⅱ、Ⅲ类）、隐形眼镜及护理液、检测试纸（剂）、保健食品、母\婴用品、乳制品（含婴幼儿配方奶粉）、化妆品、洗涤用品、预包装食品、散装食品、日用百货、初级农产品、海鲜、成人计生类产品；销售化学原料药、化工产品、化学试剂、医药中间体（以上三项不含危险、易制毒化学品）；进出口业务；仓储服务（不含危险品）；互联网信息咨询与服务；电商代运营（依法须经批准的项目，经相关部门批准后方可开展经营活动）。,2018-08-01,0533-2166666,caold@aliyun.com,,长期,医药制造业,化学药品制剂制造,化工区,大健康,2019-09-16 13:12:13,2019-09-16 13:12:13,0,1,淄博市,http://xhzy.com/
174,8b182f4f-d840-11e9-80c9-fa163e3115c2,91440400617514036C,440400000182998,617514036,在营（开业）企业,40675.536600万,陈少美,制造业,1991-09-03,1991-09-03,,广东省,珠海市工商行政管理局,其他股份有限公司(上市),广东溢多利生物科技股份有限公司,广东省珠海市南屏高科技工业区屏北一路8号,生产及销售酶制剂、饲料添加剂、添加剂预混合饲料、兽药散剂。（以上需行政许可的项目，凭许可证经营，法律法规禁止的不得经营）根据《珠海经济特区商事登记条例》，经营范围不属登记事项。以下经营范围信息由商事主体提供，该商事主体对信息的真实性、合法性负责：(依法须经批准的项目，经相关部门批准后方可开展经营活动)〓,2016-11-23,,,,长期,农副食品加工业,饲料加工,高科技工业区,大健康,2019-09-16 13:12:13,2019-09-16 13:12:13,0,1,珠海市,http://www.yiduoli.com.cn/
175,8b693b35-d840-11e9-80c9-fa163e3115c2,914412001952767519,441200000028883,195276751,在营（开业）企业,73901.916600万人民币,陈武,居民服务、修理和其他服务业,1992-04-18,1992-04-18,,广东省,广东省肇庆市工商行政管理局,股份有限公司(上市、国有控股),广东肇庆星湖生物科技股份有限公司,肇庆市工农北路６７号,本企业及企业成员的进出口业务；法律法规禁止的，不得经营；应经审批的，按批准事项经营，未获审批的不得经营；法律、法规未规定审批的，企业自主选择经营项目，开展经营活动。,2019-05-17,0758-2290066,550526318@qq.com,,长期,其他服务业,其他未列明服务业,,大健康,2019-09-16 13:12:14,2019-09-16 13:12:14,0,1,肇庆市,http://www.starlake.com.cn/
176,8bcc071f-d840-11e9-80c9-fa163e3115c2,913302007588573234,330215000002952,758857323,存续,14968.200000万人民币,姚成志,科学研究和技术服务业,2004-02-19,2004-02-19,9999-09-09,浙江省,宁波市市场监督管理局,其他股份有限公司(上市),宁波美诺华药业股份有限公司,浙江省宁波市高新区扬帆路999弄1号1406室,片剂、胶囊生产（限分支机构经营）。（在许可证有效期内经营）医药原料及中间体、化工原料及产品的销售；医药原料、制剂、硬胶囊及中间体的研发；自营或代理各类商品和技术的进出口业务，但国家禁止或限定经营的商品和技术除外。,2019-08-26,15968557997,nbinfo@menovopharm.com,"宁波亿贸进出口有限公司,宁波美诺华药业有限公司,宁波联合亿贸进出口有限公司",长期,研究和试验发展,医学研究和试验发展,,大健康,2019-09-16 13:12:15,2019-09-16 13:12:15,0,1,宁波市,http://www.menovopharm.com/
177,8c3386f5-d840-11e9-80c9-fa163e3115c2,91420000707016110B,420000000022877,707016110,存续（在营、开业、在册）,25170.551300万,安靖,制造业,1993-05-28,1993-05-28,,湖北省,湖北省市场监督管理局,股份有限公司(上市),湖北广济药业股份有限公司,湖北武穴市江堤路1号,生产经营大容量注射剂（玻瓶、软袋）、原料药（核黄素磷酸钠、维生素B2、恩替卡韦、阿托伐他汀钙、盐酸坦洛新、利奈唑胺、替加环素、依普利酮、甲磺酸帕珠沙星、硫酸氢氯吡格雷、替硝唑）、片剂、颗粒剂、凝胶剂、乳膏剂；食品添加剂生产、销售；饲料添加剂的生产、销售；桶装纯净水生产、销售；内部职工食堂（不含凉菜、不含裱花蛋糕、不含生食海产品）；货物进出口及技术进出口（不含国家限制或禁止企业经营的货物及技术）；生产直接接触药品内包装材料（多层共挤输液用袋）；单一饲料的生产、销售；工业盐的生产与销售。（涉及许可经营项目，应取得相关部门许可后方可经营）,2017-09-20,0713-6213329,stock@guangjipharm.com,,长期,医药制造业,化学药品原料药制造,武穴市,大健康,2019-09-16 13:12:15,2019-09-16 13:12:15,0,1,黄冈市,http://www.guangjipharm.com/
178,8c915c4c-d840-11e9-80c9-fa163e3115c2,91331000554754592X,331082000047854,554754592,存续,16000.000000万人民币,郑志国,制造业,2010-04-22,2010-04-22,9999-09-09,浙江省,浙江省工商行政管理局,股份有限公司(台港澳与境内合资、上市),浙江奥翔药业股份有限公司,浙江省化学原料药基地临海园区东海第四大道5号,原料药、片剂制造(凭有效许可证经营)；有机中间体制造（不含危险化学品和易制毒化学品）；医药化工产品（不含危险化学品和易制毒化学品）的批发及其进出口业务，技术进出口，医药化工产品技术研究、咨询服务。以上涉及许可证的凭证经营。,2017-12-27,057685589365,xhy@ausunpharm.com,浙江奥翔药业有限公司,长期,医药制造业,卫生材料及医药用品制造,,大健康,2019-09-16 13:12:16,2019-09-16 13:12:16,0,1,,http://www.ausunpharm.com
179,8ce112f0-d840-11e9-80c9-fa163e3115c2,913609007599770366,360900520000786,759977036,存续（在营、开业、在册）,8139.500000万人民币,庞正伟,制造业,2004-04-20,2005-06-21,,江西省,宜春市工商行政管理局,股份有限公司(台港澳与境内合资、上市),江西同和药业股份有限公司,江西省宜春市奉新县奉新工业园区,"原料药、医药中间体、精细化工（危险品除外）生产销售。(依法须经批准的项目,经相关部门批准后方可开展经营活动)（该企业2005年6月21日前为内资企业）",2018-12-14,0795-4605622,fin@jxsynergy.com,江西同和药业有限责任公司,长期,医药制造业,化学药品原料药制造,奉新县,大健康,2019-09-16 13:12:16,2019-09-16 13:12:16,0,1,宜春市,http://www.jxsynergy.com/
180,8d348996-d840-11e9-80c9-fa163e3115c2,91429005728313974F,429005000012421,728313974,存续（在营、开业、在册）,29468.250000万,陈勇,制造业,2001-06-18,2001-06-18,,湖北省,潜江市市场监督管理局,股份有限公司(上市、自然人投资或控股),潜江永安药业股份有限公司,潜江经济开发区广泽大道2号,原料药的生产、销售；食品添加剂的生产、销售；饲料添加剂的生产、销售；环氧乙烷（4万吨/年）、液氧（4.5万吨/年）、液氮（4.4万吨/年）自产自销；经营本企业自产产品及相关技术的出口业务；经营本企业生产、科研所需的原辅材料、机械设备、仪器仪表、零配件及相关技术的进口业务；开展本企业的进料加工和“三来一补”业务。（涉及许可经营项目，应取得相关部门许可后方可经营）,2018-08-14,6202737,office@chinataurine.com,,长期,医药制造业,化学药品原料药制造,,大健康,2019-09-16 13:12:17,2019-09-16 13:12:17,0,1,,www.chinataurine.com
181,8d8dc533-d840-11e9-80c9-fa163e3115c2,91450300723095584K,450300000034708,723095584,存续（在营、开业、在册）,56521.474000万,秦本军,科学研究和技术服务业,2000-11-28,2000-11-28,,广西壮族自治区,桂林市市场监督管理局,股份有限公司(上市、自然人投资或控股),桂林莱茵生物科技股份有限公司,桂林市临桂区人民南路19号,植物制品、农副土特产品的研发、生产、销售、自营进出口（以上涉及许可审批项目除外）；护肤用化妆品的研发、销售及技术转让；饲料和饲料添加剂、食品添加剂、食品的研发、生产及销售。,2019-06-04,0773-3568858,002166@layn.com.cn,,长期,科技推广和应用服务业,技术推广服务,临桂区,大健康,2019-09-16 13:12:18,2019-09-16 13:12:18,0,1,桂林市,www.layn.com.cn
182,8df003bf-d840-11e9-80c9-fa163e3115c2,91130400106900891W,130435000000577,106900891,存续（在营、开业、在册）,51370.696700万人民币,卢庆国,制造业,2000-04-12,2000-04-12,2099-04-11,河北省,邯郸市市场监督管理局,其他股份有限公司(上市),晨光生物科技集团股份有限公司,河北省曲周县城晨光路1号,食品添加剂：红米红、甜菜红、茶多酚、甜菊糖苷、叶黄素、辣椒红、姜黄、姜黄素、番茄红、辣椒油树脂，天然胡萝卜素、叶黄素酯，绿咖啡豆提取物，虾青素，菊粉，食品用香精，食品用香料，复配食品添加剂，调味料（调味油），菊芋全粉、饲料原料、着色剂（I）辣椒红、天然叶黄素（源自万寿菊）、饲料添加剂甜菊糖苷、保健食品、植物提取物、叶黄素微囊、番茄红素微囊、叶黄素酯薇囊粉、（3R，3＇Ｒ）－二羟基－β－胡萝卜素、银杏叶提取物、肉桂提取物、水飞蓟素、迷迭香提取物、蛋白肽、茶多糖、山楂叶提取物、人参茎叶提取物、固体饮料、杉木油、黄芪提取物的生产及销售，预包装食品销售、散装食品销售，辣椒干、辣椒粉、辣椒籽等辣椒制品的采购、生产和销售。收购色素原料，技术引进及转让，自营和代理各类商品和技术的进出口（但国家限定或禁止进出口的商品和技术除外）；生产、销售、安装：植物油加工设备、天然植物色素萃取设备、环保设备、石油化工设备（特种设备除外）；环保工程；钢结构制作；植物油、蛋白粉、共轭亚油酸、油莎豆油、油茶籽油加工、销售、副产品销售（非食用）；收购：红花籽、番茄籽、葡萄籽、小麦胚芽、亚麻籽、南瓜子、杏仁、月见草、核桃仁、辣椒籽、水飞蓟籽、玻璃苣籽、火麻仁、沙棘籽、牡丹籽、紫苏籽、藿香籽、米糠、大豆、油莎豆、油茶籽；毛油加工及销售。以下限分公司经营：辣椒红、甜菜红、姜黄素检测服务；辣椒处理、粉碎、磨粉、造粒，辣椒红的生产和销售；叶黄素、叶黄素酯、番茄红、姜黄素、绿咖啡豆提取物、虾青素、红米红、甜菊糖苷、红曲米、甜菜红萃取、调配包装；菊粉、菊芋全粉生产及销售；食用植物油（半精炼、全精炼）、食用植物油（全精炼）（分装）、棉籽油、葡萄籽油、玉米油、红花籽油、大豆油（分装）、葵花籽油、分提棕榈油、食用调和油；植物油、蛋白粉、共轭亚油酸加工、销售、副产品销售（非食用）；收购：红花籽、番茄籽、葡萄籽、小麦胚芽、亚麻籽、南瓜子、杏仁、月见草、核桃仁、辣椒籽、水飞蓟籽、玻璃苣籽、火麻仁、沙棘籽、牡丹籽、紫苏籽、藿香籽、米糠、大豆；毛油加工及销售；棉短绒、棉壳、黑米渣、脱酚棉籽蛋白、酸化油、棉子糖、醋酸棉酚、棉籽蛋白肽、天然叶黄素（源自万寿菊）、棉子低聚糖的生产及销售，预包装食品销售；散装食品销售；棉籽粕的采购、生产和销售；甜菜粕的采购和销售；棉籽收购、加工及销售；发酵用棉籽蛋白粉、豆饼（粕）粉、玉米蛋白粉、花生饼粉；食品用包装容器的生产、销售。（依法须经批准的项目，经相关部门批准后方可开展经营活动）,2019-05-15,0310-8859030,cgswbgs@126.com,,2099-04-11,食品制造业,其他食品制造,曲周县,大健康,2019-09-16 13:12:18,2019-09-16 13:12:18,0,1,邯郸市,http://chenguangsp.tmall.com
183,8e62ce91-d840-11e9-80c9-fa163e3115c2,914403005586967563,440301104800923,558696756,存续（在营、开业、在册）,40010.000000万人民币,尹烨,科学研究和技术服务业,2010-07-09,2010-07-09,,广东省,盐田局,其他股份有限公司(上市),深圳华大基因股份有限公司,深圳市盐田区洪安三街21号华大综合园7栋7层-14层,一般经营项目是：贸易经纪与代理。，许可经营项目是：医学研究和试验发展；临床检验服务；医疗用品及器械研发、制造、批发、零售。,2019-07-03,0755-33023888,P_Support@genomics.cn,"深圳华大基因健康科技有限公司,深圳华大基因医学有限公司",长期,研究和试验发展,医学研究和试验发展,盐田区,大健康,2019-09-16 13:12:19,2019-09-16 13:12:19,0,1,深圳市,http://www.bgi.com/
184,8eb259b9-d840-11e9-80c9-fa163e3115c2,91510112633134930L,510109000083949,633134930,存续（在营、开业、在册）,35460.586500万人民币,高扬,科学研究和技术服务业,1997-04-14,1997-04-14,3999-01-01,四川省,成都市龙泉驿区市场和质量监督管理局,其他股份有限公司(上市),成都市贝瑞和康基因技术股份有限公司,四川省成都经济技术开发区（龙泉驿区)成都汽车城大道333号,技术开发；技术检测；技术服务；技术转让；计算机软件开发；经济信息咨询（不含中介服务）；销售：仪器仪表、医疗器械I类、化工产品（不含危险化学品）；零售机械设备；货物进出口、代理进出口、技术进出口；自然科学研究与试验发展；工程和技术研究与实验发展，医学研究与实验发展；汽车零部件及配件、摩托车零部件及配件的销售；（依法须经批准的项目，经相关部门批准后方可开展经营活动；未取得相关行政许可（审批），不得开展经营活动）。,2018-09-30,028-85127835,380789402@qq.com,成都天兴仪表股份有限公司,长期,科技推广和应用服务业,技术推广服务,,大健康,2019-09-16 13:12:19,2019-09-16 13:12:19,0,1,成都市,http://www.txyb.com.cn/
185,8f014307-d840-11e9-80c9-fa163e3115c2,914100007167932103,410198400000498,716793210,存续（在营、开业、在册）,42000.000000万人民币,杨增利,制造业,1999-09-15,1999-09-15,,河南省,河南省市场监督管理局,股份有限公司(中外合资、上市),郑州安图生物工程股份有限公司,郑州经济技术开发区经北一路87号,药品（体外诊断试剂）的研发、生产、销售、咨询与服务；医疗器械（6840体外诊断试剂）的生产；医疗器械的研发、销售、咨询与服务；办公、实验或生产用设备、配件、试剂和耗材（非医疗器械）的研发、生产、销售、咨询与服务；货物的储存运输；生物技术、计算机及网络技术的研发、销售、咨询与服务；货物和技术的进出口业务。（以上涉及审批或许可的，凭有效批准文件或许可证生产经营）,2019-04-25,0371-66299985,autobio@autobio.com.cn,,长期,医药制造业,生物药品制造,,大健康,2019-09-16 13:12:20,2019-09-16 13:12:20,0,1,郑州市,www.autobio.cn
186,8f5d2127-d840-11e9-80c9-fa163e3115c2,91330000742906207U,330500400002475,742906207,存续,29088.000000万人民币,胡赓熙,批发和零售业,2002-09-19,2002-09-19,,浙江省,浙江省工商行政管理局,其他股份有限公司(上市),浙江我武生物科技股份有限公司,浙江省德清县武康镇志远北路636号,生产销售变态反应原制品、体内诊断试剂（详见《中华人民共和国药品生产许可证》），二类：医用化验和基础设备器具的销售（详见《中华人民共和国医疗器械经营企业许可证》）。研究开发口服脱敏药、生物及化学制剂药品、生物及化学医药原料、医药包装材料、保健食品以及研究开发上述产品所需的机械设备、仪器仪表；并提供相关技术咨询、咨询服务；经营进出口业务。（依法须经批准的项目，经相关部门批准后方可开展经营活动）,2018-06-06,0572-8831088,invest@wolwobiotech.com,,长期,零售业,医药及医疗器材专门零售,德清县,大健康,2019-09-16 13:12:21,2019-09-16 13:12:21,0,1,湖州市,http://www.wolwobiotech.com/
187,8facc225-d840-11e9-80c9-fa163e3115c2,91440101618640472W,440101000008134,618640472,在营（开业）企业,34286.343300万人民币,王继华,批发和零售业,1992-11-13,1992-11-13,,广东省,广州市市场监督管理局,股份有限公司,广州万孚生物技术股份有限公司,广州市萝岗区科学城荔枝山路8号,许可类医疗器械经营（即申请《医疗器械经营企业许可证》才可经营的医疗器械”，包括第三类医疗器械和需申请《医疗器械经营企业许可证》方可经营的第二类医疗器械）;医疗诊断、监护及治疗设备制造;医疗诊断、监护及治疗设备零售;医疗诊断、监护及治疗设备批发;生物药品制造;化学药品原料药制造;生物技术推广服务;生物技术开发服务;生物技术咨询、交流服务;生物技术转让服务;化学试剂和助剂制造（监控化学品、危险化学品除外）;进出口商品检验鉴定;实验分析仪器制造;药物检测仪器制造;通用和专用仪器仪表的元件、器件制造;仪器仪表批发;技术进出口;贸易咨询服务;贸易代理;商品批发贸易（许可审批类商品除外）;商品零售贸易（许可审批类商品除外）;非许可类医疗器械经营（即不需申请《医疗器械经营企业许可证》即可经营的医疗器械”，包括第一类医疗器械和国家规定不需申请《医疗器械经营企业许可证》即可经营的第二类医疗器械）;化工产品零售（危险化学品除外）;材料科学研究、技术开发;货物进出口（专营专控商品除外）;药品研发;医疗用品及器材零售（不含药品及医疗器械）;,2019-07-26,32299999,jinxu@wondfo.com.cn,,长期,批发业,医药及医疗器材批发,萝岗区,大健康,2019-09-16 13:12:21,2019-09-16 13:12:21,0,1,广州市,http://www.wondfo.com.cn/
188,8ffe0c27-d840-11e9-80c9-fa163e3115c2,91330000731996462B,330106000013053,731996462,存续,62045.829600万人民币,陈海斌,租赁和商务服务业,2001-09-05,2001-09-05,,浙江省,浙江省市场监督管理局,其他股份有限公司(上市),迪安诊断技术集团股份有限公司,浙江省杭州市西湖区金蓬街329号2幢5层,诊断技术、医疗技术的技术开发、技术服务、技术咨询；医疗行业的投资；医疗器械（限国产一类）的制造、加工（限分支机构经营）、销售；企业咨询管理，培训服务，计算机软件的技术开发、技术服务；计算机信息系统的维护；医疗器械的批发（需许可经营的凭有效许可证经营），从事进出口业务。,2019-07-01,56137800,jtxz@dazd.cn,浙江迪安诊断技术股份有限公司,长期,商务服务业,企业管理服务,西湖区,大健康,2019-09-16 13:12:22,2019-09-16 13:12:22,0,1,杭州市,http://www.dazd.cn
189,905746e3-d840-11e9-80c9-fa163e3115c2,9151000020186004X7,510000000104554,20186004X,存续（在营、开业、在册）,55769.924000万人民币,唐勇,批发和零售业,1994-10-20,1994-10-20,3999-01-01,四川省,成都高新区市场监督管理局,股份有限公司(上市、自然人投资或控股),迈克生物股份有限公司,成都市高新区百川路16号,医疗器械的研发；生产医疗器械（未取得相关行政许可（审批），不得开展经营活动）；销售医疗器械（未取得相关行政许可（审批），不得开展经营活动）；医疗设备的维修、租赁；技术推广服务；商品批发与零售（不含许可经营项目）；货物及技术进出口；货物专用运输（冷藏保鲜）（未取得相关行政许可（审批），不得开展经营活动）（依法须经批准的项目，经相关部门批准后方可开展经营活动）。,2019-08-19,028-81731888,xieyan@maccura.com,四川迈克生物科技股份有限公司,长期,批发业,医药及医疗器材批发,,大健康,2019-09-16 13:12:22,2019-09-16 13:12:22,0,1,成都市,http://www.maccura.com
190,c46628f3-d842-11e9-80c9-fa163e3115c2,911100008020705889,110000002603153,802070588,开业,50178.794300万人民币,邹左军,科学研究和技术服务业,2001-03-29,2009-11-06,,北京市,北京市工商行政管理局海淀分局,股份有限公司(中外合资、上市),北京九强生物技术股份有限公司,北京市海淀区花园东路15号旷怡大厦5层,生产医疗机械Ⅲ类：体外诊断试剂，Ⅱ类：生化分析系统、电子设备；批发医疗器械Ⅲ类：临床检验分析仪器及诊断试剂（含诊断试剂）；研究、开发医疗器械、体外诊断试剂、电子设备；销售自产产品；批发电子设备；佣金代理（拍卖除外）；货物进出口（不涉及国营贸易管理商品，涉及配额、许可证管理商品的，按照国家有关规定办理申请）；技术咨询、技术服务、技术培训、技术转让。（该企业于2009年11月06日由内资企业变更为外商投资企业；依法须经批准的项目，经相关部门批准后依批准的内容开展经营活动。）,2019-03-13,010-82012486,546211336@qq.com,北京九强生物技术有限公司,长期,科技推广和应用服务业,其他科技推广和应用服务业,海淀区,大健康,2019-09-16 13:28:09,2019-09-16 13:28:09,0,1,北京市,www.bsbe.com.cn
191,c4be667c-d842-11e9-80c9-fa163e3115c2,91440101190445368X,440101000033838,190445368,在营（开业）企业,79741.251900万人民币,何蕴韶,科学研究和技术服务业,1988-08-17,1988-08-17,,广东省,广州市工商行政管理局,股份有限公司,中山大学达安基因股份有限公司,广州市高新技术产业开发区香山路19号,生物技术推广服务;机电设备安装服务;专用设备安装（电梯、锅炉除外）;室内装饰、装修;生物技术转让服务;医疗设备维修;货物进出口（专营专控商品除外）;食品科学技术研究服务;生物技术开发服务;通用机械设备零售;风险投资;投资咨询服务;企业自有资金投资;投资管理服务;非许可类医疗器械经营;软件开发;医学研究和试验发展;医疗设备租赁服务;计算机技术开发、技术服务;医疗用品及器材零售（不含药品及医疗器械）;建筑工程后期装饰、装修和清理;建筑物空调设备、通风设备系统安装服务;生物技术咨询、交流服务;通用机械设备销售;股权投资管理;医疗诊断、监护及治疗设备制造;临床检验服务;医疗诊断、监护及治疗设备零售;生物药品制造;二、三类医疗器械批发;医疗诊断、监护及治疗设备批发;股权投资,2018-12-29,020-32290789,daan413@126.com,,长期,研究和试验发展,自然科学研究和试验发展,,大健康,2019-09-16 13:28:09,2019-09-16 13:28:09,0,1,广州市,http://daangene.com/
192,c5515b6b-d842-11e9-80c9-fa163e3115c2,9135020066474298XL,350200490001112,66474298X,存续（在营、开业、在册）,14400.000000万人民币,LI-MOU ZHENG,制造业,2008-02-21,2008-02-21,,福建省,厦门市市场监督管理局,股份有限公司(台港澳与境内合资、上市),厦门艾德生物医药科技股份有限公司,厦门市海沧区鼎山路39号,从事分子诊断和免疫诊断试剂（三类6840体外诊断试剂）的研制、生产及相关技术服务和一类医疗器械、科研实验仪器的生产销售。,2018-09-03,6806131,meih@amoydx.com,,长期,医药制造业,化学药品制剂制造,海沧区,大健康,2019-09-16 13:28:10,2019-09-16 13:28:10,0,1,厦门市,http://www.amoydx.com/
193,c5aca8f9-d842-11e9-80c9-fa163e3115c2,913201007360621166,320121000037745,736062116,存续（在营、开业、在册）,26041.770300万人民币,苏恩本,制造业,2002-03-08,2002-03-08,,江苏省,南京市市场监督管理局,股份有限公司(上市、自然人投资或控股),基蛋生物科技股份有限公司,南京市六合区沿江工业开发区博富路9号,实验、生产或办公用设备、配件的研发、生产、销售；生物、生化试剂和实验器材（除许可证事项外）的研发、生产、销售；一类、二类、三类医疗器械的研制、生产、销售；三类6840体外诊断试剂的研制、生产、销售；软件的研发、生产、销售；医疗器械和实验、生产或办公用设备的租赁、维修；医药、生物、生化科技的技术咨询、技术开发、技术转让和技术服务；自营和代理各类商品及技术的进出口业务（国家限定公司经营或禁止进出口的商品和技术除外）。（依法须经批准的项目，经相关部门批准后方可开展经营活动）,2019-06-11,02568568588,GMO@getein.cn,南京基蛋生物科技有限公司,长期,医药制造业,生物药品制造,六合区,大健康,2019-09-16 13:28:11,2019-09-16 13:28:11,0,1,南京市,http://www.bio-gp.com.cn
194,c5fcf583-d842-11e9-80c9-fa163e3115c2,91310000631344037Q,310228000244163,631344037,存续（在营、开业、在册）,57953.407900万人民币,刘辉,批发和零售业,1999-01-06,1999-01-06,,上海市,上海市工商行政管理局,其他股份有限公司(上市),上海润达医疗科技股份有限公司,上海市金山区卫昌路1018号1号楼201室,从事医疗器械领域内技术咨询、技术转让、技术开发、技术服务及机械设备维修，医疗器械（见医疗器械经营企业许可证），药品类体外诊断试剂，自有设备租赁，化工原料及产品（除危险化学品、监控化学品、烟花爆竹、民用爆炸物品、易制毒化学品），电脑及配件、仪器仪表、办公用品销售，实业投资，从事货物及技术进出口业务，软件开发，信息系统集成服务，信息技术咨询服务。【依法须经批准的项目，经相关部门批准后方可开展经营活动】,1999-01-06,021-51096821,无,,长期,批发业,医药及医疗器材批发,金山区,大健康,2019-09-16 13:28:11,2019-09-16 13:28:11,0,1,上海市,http://www.rundamedical.com
195,c64db7ed-d842-11e9-80c9-fa163e3115c2,91310000132660318J,310000000000260,132660318,存续（在营、开业、在册）,51522.419300万人民币,胡勇敏,制造业,1981-11-22,1981-11-22,,上海市,上海市市场监督管理局,股份有限公司(台港澳与境内合资、上市),上海科华生物工程股份有限公司,上海市徐汇区钦州北路1189号,生化试剂、临床诊断试剂、医疗器械、兽用针剂、生化试剂检验用具、基因工程药物、微生物环保产品的研究、生产、经营、自有设备租赁及相关的技术服务，经营本企业自产产品的出口业务和本企业所需的机械设备、零配件、原辅材料的进口业务（但国家限定公司经营或禁止进出口的商品及技术除外）。【依法须经批准的项目，经相关部门批准后方可开展经营活动】,1981-11-22,021-64850088,kehua@skhb.com,,长期,医药制造业,生物药品制造,徐汇区,大健康,2019-09-16 13:28:12,2019-09-16 13:28:12,0,1,上海市,www.khb.com
196,c6b592b2-d842-11e9-80c9-fa163e3115c2,913302007503871799,330212000013891,750387179,存续,34613.830000万人民币,邹炳德,科学研究和技术服务业,2003-07-22,2003-07-22,,浙江省,宁波市市场监督管理局,股份有限公司(上市、自然人投资或控股),美康生物科技股份有限公司,宁波市鄞州区启明南路299号,第二、三类6840体外诊断试剂的制造、加工；第一类医疗器械、精密实验仪器的研发、生产、销售；生物酶及试剂的技术开发、研究；医药生物技术咨询；生物技术推广、技术开发、技术转让、技术服务；医疗器械的维修；第Ⅲ、Ⅱ类临床检验分析仪器的租赁；自营或代理货物和技术的进出口，但国家限定经营或禁止进出口的货物和技术除外；医疗项目投资；第二、三类医疗器械的批发、零售；化工原料（除危险化学品及易制毒化学品）、生物化学制剂的销售；信息系统集成技术转让、技术咨询服务；网络技术研发、咨询、服务；计算机软硬件的技术研发、技术转让、技术咨询、技术服务及销售；计算机的销售、安装、维修；健康信息咨询。（未经金融等监管部门批准不得从事吸收存款、融资担保、代客理财、向社会公众集（融）资等金融业务）（依法须经批准的项目，经相关部门批准后方可开展经营活动）,2019-05-14,18888692089,hongye.zhuo@nbmedicalsystem.com,"宁波美康生物科技有限公司,宁波美康生物科技股份有限公司",长期,科技推广和应用服务业,技术推广服务,鄞州区,大健康,2019-09-16 13:28:12,2019-09-16 13:28:12,0,1,宁波市,http://www.nb-medicalsystem.com/
197,c7151963-d842-11e9-80c9-fa163e3115c2,91220101605902656F,220107020005041,605902656,存续（在营、开业、在册）,27603.000000万人民币,宋洁,批发和零售业,1994-12-26,1994-12-26,2098-12-31,吉林省,长春市工商行政管理局高新技术产业开发区分局,股份有限公司(上市、自然人投资或控股),迪瑞医疗科技股份有限公司,长春市高新技术产业开发区云河街95号,从事医疗科技领域的技术开发、技术转让、技术咨询及技术服务，生产III类6840临床检验分析仪器、III类6840体外诊断试剂、II类6840临床检验分析仪器、II类6840体外诊断试剂（医疗器械生产许可证到2020年6月22日）、I类6840临床检验分析仪器及I类6840体外诊断试剂；医疗器械的经营（按医疗器械许可证核定范围经营）；自产产品的原辅材料及半成品、科研所需原辅材料、机械设备、仪器仪表的销售，软件开发、销售，生产经营产品的售后服务及租赁业务（依法须经批准的项目，经相关部门批准后方可开展经营活动）*,2019-04-10,0431-85100406,mahaiyan@dirui.com.cn,"长春迪瑞医疗科技股份有限公司,长春迪瑞实业有限公司",2098-12-31,批发业,医药及医疗器材批发,,大健康,2019-09-16 13:28:13,2019-09-16 13:28:13,0,1,长春市,http://www.dirui.com.cn/Y01/ws_index/index.asp
198,15cab703-4bc2-11e9-a8b1-fa163e5275a2,91445100751054069P,445100400001538,751054069,在营（开业）企业,18200.800000万人民币,黄伟雄,制造业,2003-06-13,2003-06-13,,广东省,广东省潮州市工商行政管理局,股份有限公司(台港澳与境内合资、上市),广东凯普生物科技股份有限公司,广东省潮州市经济开发试验区北片高新区Ｄ５-３-３-４小区,生产、研发、销售各类适用于科研、教育的高科技生物检测仪器及试剂（法律、法规规定须前置许可审批的225种化学试剂除外）、生物化学检测仪器、实验、实训设备和软件产品及教学实验室配套基础建设、装修工程；机电产品；化学原料（不含危险化学品）；教育、医疗仪器设备维修（不含计量器具）及技术服务；计算机软件的设计、开发、维修及技术服务；医疗生物检测仪器的研发；生产、销售：医疗器械。(以上项目不涉及外商投资准入特别管理措施)(依法须经批准的项目，经相关部门批准后方可开展经营活动)〓,2018-09-13,0768-2852923,,,长期,仪器仪表制造业,专用仪器仪表制造,经济开发试验区,大健康,2019-03-21 18:14:17,2019-03-21 18:14:17,0,0,潮州市,http://www.hybribio.cn/
199,c7808dfa-d842-11e9-80c9-fa163e3115c2,91310000756110429R,310115000800703,756110429,存续（在营、开业、在册）,9084.015000万人民币,姚见儿,制造业,2003-11-06,2003-11-06,,上海市,上海市市场监督管理局,股份有限公司(台港澳与境内合资、上市),上海透景生命科技股份有限公司,中国（上海）自由贸易试验区碧波路572弄115号1幢,生物、医药技术、医药中间体、诊断及科研试剂、仪器的研究、开发，自有技术成果转让；科研试剂及医疗器械生产，销售自产产品；科研仪器、科研试剂及医疗器械（限《医疗器械经营许可证》中核定的医疗器械，其他医疗器械除外）的批发、佣金代理（拍卖除外）、进出口；提供上述相关领域的技术咨询、技术服务、技术转让。（不涉及国营贸易管理商品，涉及配额、许可证管理、专项规定、质检、安检管理等要求的，需按照国家有关规定取得相应许可后开展经营业务。）。【依法须经批准的项目，经相关部门批准后方可开展经营活动】,2003-11-06,021-50800020,info@tellgen.com,上海透景生命科技有限公司,长期,专用设备制造业,医疗仪器设备及器械制造,,大健康,2019-09-16 13:28:14,2019-09-16 13:28:14,0,1,,www.tellgen.com
200,c7d788da-d842-11e9-80c9-fa163e3115c2,91420100758158557H,420112400001102,758158557,存续（在营、开业、在册）,20514.370900万元人民币,温伟,批发和零售业,2004-02-23,2004-02-23,,湖北省,武汉市市场监督管理局,股份有限公司(台港澳与境内合资、上市),塞力斯医疗科技股份有限公司,武汉市东西湖区金山大道1310号,自动化设备、机电、仪器设备的维护修理；设备租赁；相关产品技术咨询；化工产品（不含化学危险品），医用器械软件开发；生物科技品、医用电子设备及配套消耗品、试剂等进出口业务及批发业务；货物专用运输（冷藏保鲜）；实验室科教仪器及耗材的批发兼零售；销售临床及科研用检验仪器、检验试剂、新型诊断试剂、生物技术科研产品。第I、II、III类医疗器械及体外诊断试剂（含医疗器械类和药品类）和耗材的批发和零售。为其他医疗器械生产经营企业提供第Ⅱ、Ⅲ类医疗器械贮存、配送服务（含体外诊断试剂、冷藏、冷冻库）。（依法须经批准的项目，经相关部门批准后方可开展经营活动）,2018-09-13,027-83386378,thalys@thalys.net.cn,武汉塞力斯医疗科技股份有限公司,长期,批发业,医药及医疗器材批发,东西湖区,大健康,2019-09-16 13:28:14,2019-09-16 13:28:14,0,1,武汉市,www.thalys.net.cn
201,c837fc13-d842-11e9-80c9-fa163e3115c2,9142010066953862X0,420100000053229,66953862X,存续（在营、开业、在册）,6658.514700万元人民币,陈莉莉,科学研究和技术服务业,2008-01-28,2008-01-28,,湖北省,武汉东湖新技术开发区,股份有限公司(上市、自然人投资或控股),武汉明德生物科技股份有限公司,武汉市东湖开发区关东科技园东信路特1号留学生创业园E栋2楼,一类、二类和三类医疗器械（凭有效的许可证经营）生产、研制、销售及租赁；普通实验室试剂（不含危险化学品、易制毒化学品）销售；医疗器械技术咨询、安装、检测、维修；企业管理软件的销售及售后服务；诊断技术、医疗技术的技术开发、技术咨询、技术推广、技术转让；农业、环境、食品领域分析仪器和试剂的生产及批发兼零售；抗原抗体产品、校准品和质控品的开发、生产及批发兼零售；仪器仪表的元器件制造及批发兼零售；计算机软硬件、机电一体化产品开发、安装及批发兼零售；计算机软件技术开发、技术转让、技术咨询及技术服务；健康咨询（不含诊疗）；货物进出口、技术进出口、代理进出口（不含国家禁止或限制进出口的货物或技术）。（依法须经审批的项目，经相关部门审批后方可开展经营活动）,2018-07-23,027-86507708,supingping@ediagnosis.cn,,长期,研究和试验发展,医学研究和试验发展,,大健康,2019-09-16 13:28:15,2019-09-16 13:28:15,0,1,武汉市,www.mdeasydiagnosis.com
202,c88f4f3a-d842-11e9-80c9-fa163e3115c2,911100006000677198,110000410125421,600067719,开业,42380.523500万人民币,林霖,制造业,1997-11-05,1997-11-05,,北京市,北京市工商行政管理局北京经济技术开发区分局,股份有限公司(上市、外商投资企业投资),北京利德曼生化股份有限公司,北京市北京经济技术开发区兴海路5号,生产医疗器械Ⅲ类：Ⅲ-6840体外诊断试剂、Ⅲ-6840-3免疫分析系统，Ⅱ类：6840-2生化分析系统（医疗器械生产许可证有效期至2019年11月26日）；销售医疗器械Ⅲ类：临床检验分析仪器、体外诊断试剂，Ⅱ类：临床检验分析仪器、体外诊断试剂（医疗器械经营许可证有效期至2019年02月19日）；销售自产产品；医疗器械租赁；货物进出口；技术进出口；技术开发；技术服务；技术咨询；技术转让；出租办公用房、出租厂房。（企业依法自主选择经营项目，开展经营活动；依法须经批准的项目，经相关部门批准后依批准的内容开展经营活动；不得从事本市产业政策禁止和限制类项目的经营活动。）,2019-07-19,010-67855500,leadman@leadmanbio.com,北京利德曼生化技术有限公司,长期,医药制造业,化学药品制剂制造,,大健康,2019-09-16 13:28:16,2019-09-16 13:28:16,0,1,,http://www.leadmanbio.com/
203,c8ef510b-d842-11e9-80c9-fa163e3115c2,9144010163320680X7,440101000005674,63320680X,在营（开业）企业,162579.094900万人民币,李楚源,制造业,1997-09-01,1997-09-01,,广东省,广州市市场监督管理局,股份有限公司,广州白云山医药集团股份有限公司,广州市荔湾区沙面北街45号,停车场经营;西药批发;医疗诊断、监护及治疗设备批发;化工产品批发（含危险化学品；不含成品油、易制毒化学品）;酒类批发;药品零售;医疗诊断、监护及治疗设备零售;兽用药品销售;保健食品制造;食品添加剂制造;瓶（罐）装饮用水制造;果菜汁及果菜汁饮料制造;固体饮料制造;化学药品原料药制造;中药饮片加工;中成药生产;兽用药品制造;生物药品制造;预包装食品零售;预包装食品批发;许可类医疗器械经营（即申请《医疗器械经营企业许可证》才可经营的医疗器械”，包括第三类医疗器械和需申请《医疗器械经营企业许可证》方可经营的第二类医疗器械）;货运站服务;非酒精饮料、茶叶批发;中成药、中药饮片批发;道路货物运输;碳酸饮料制造;茶饮料及其他饮料制造;化学药品制剂制造;卫生材料及医药用品制造;其他酒制造;化妆品及卫生用品批发;化妆品及卫生用品零售;医疗用品及器材零售（不含药品及医疗器械）;运输货物打包服务;化妆品制造;口腔清洁用品制造;车辆过秤服务;清洁用品批发;肥皂及合成洗涤剂制造;非许可类医疗器械经营（即不需申请《医疗器械经营企业许可证》即可经营的医疗器械”，包括第一类医疗器械和国家规定不需申请《医疗器械经营企业许可证》即可经营的第二类医疗器械）;化工产品零售（危险化学品除外）;货物进出口（专营专控商品除外）;技术进出口;药品研发;房地产开发经营;物业管理;房屋租赁;,2019-09-05,020-66281011,,,长期,医药制造业,中成药生产,荔湾区,大健康,2019-09-16 13:28:16,2019-09-16 13:28:16,0,1,广州市,www.gyby.com.cn
204,c93e6a70-d842-11e9-80c9-fa163e3115c2,91350000705210294Q,350000100024317,705210294,存续（在营、开业、在册）,60331.721000万人民币,刘建顺,制造业,1999-12-28,1999-12-28,2049-12-28,福建省,福建省漳州市工商行政管理局,股份有限公司(上市、国有控股),漳州片仔癀药业股份有限公司,福建省漳州市上街,片剂、硬胶囊剂、颗粒剂、丸剂（水丸、水蜜丸）、糖浆剂、酊剂（含外用）、软膏剂、锭剂、煎膏剂、中药饮片（含直接口服饮片）（净制）的生产；糖果制品（糖果）的生产；代加工片剂、硬胶囊剂、颗粒剂类保健食品的生产；饮料（固体饮料类）的生产；对外贸易；工艺美术品、化妆品的批发、零售。（依法须经批准的项目，经相关部门批准后方可开展经营活动）,2017-06-23,0596-2305448,zzpzhbgs@163.com,,2049-12-28,医药制造业,化学药品原料药制造,,大健康,2019-09-16 13:28:17,2019-09-16 13:28:17,0,1,漳州市,http://www.zzpzh.com/
205,c9929fce-d842-11e9-80c9-fa163e3115c2,911100006336462669,110000005106240,633646266,开业,137147.026200万人民币,高振坤,制造业,1997-06-18,1997-06-18,,北京市,北京市工商行政管理局北京经济技术开发区分局,其他股份有限公司(上市),北京同仁堂股份有限公司,北京市北京经济技术开发区西环南路8号,制造、加工中成药制剂、化妆品；经营中成药、西药制剂、生化药品；普通货运；出租办公用房；出租商业用房；技术咨询、技术服务、技术开发、技术转让、技术培训；药用动植物的饲养、种植；自营和代理各类商品及技术的进出口业务，但国家限定公司经营或禁止进出口的商品及技术除外；零售百货；中西药广告设计；劳务服务；以下项目仅限分公司经营：销售定型包装食品（含乳冷食品）、保健食品、中药材、医疗器械、医疗保健用品；零售中药饮片、图书；制造酒剂、涂膜剂、软胶囊剂、硬胶囊剂、保健酒、营养液（不含医药作用的营养液）；鹿、乌鸡产品的加工；中医科、内科专业、外科专业、妇产科专业、儿科专业、皮肤科专业、老年病科专业诊疗；危险货物运输（3类）；养殖梅花鹿、乌骨鸡、麝、马鹿；物业服务和供热服务。（依法须经批准的项目，经相关部门批准后依批准的内容开展经营活动。）,2018-07-23,67179817,gfppgl@tongrentang.com,,长期,医药制造业,中成药生产,,大健康,2019-09-16 13:28:17,2019-09-16 13:28:17,0,1,,http://www.tongrentanggf.com/
206,c9ecb281-d842-11e9-80c9-fa163e3115c2,914403007109245909,440301103302647,710924590,存续（在营、开业、在册）,97890.000000万人民币,邱华伟,制造业,1999-04-21,1999-04-21,,广东省,龙华局,股份有限公司(上市),华润三九医药股份有限公司,深圳市龙华区观湖街道观澜高新园区观清路1号,中药材种植；相关技术开发、转让、服务；生产所需的机械设备和原材料的进口业务；自产产品的出口（国家限定公司经营或禁止进出口的商品及技术除外）。化妆品及一类医疗器械的开发、销售；自有物业租赁、机动车停放服务。^药品的开发、生产、销售；预包装食品（不含复热）的批发。,2018-12-12,0755-83360999,000999@999.com.cn,三九医药股份有限公司,长期,医药制造业,中成药生产,,大健康,2019-09-16 13:28:18,2019-09-16 13:28:18,0,1,深圳市,www.999.com.cn
207,ca39f2f4-d842-11e9-80c9-fa163e3115c2,9112000023944464XD,120000000001246,23944464X,存续（在营、开业、在册）,151266.622900万人民币,闫凯境,制造业,1998-04-30,1998-04-30,2050-01-01,天津市,天津市市场和质量监督管理委员会,股份有限公司(上市),天士力医药集团股份有限公司,天津市北辰区普济河东道2号（天士力现代中药城）,滴丸剂、颗粒剂、硬胶囊剂、软胶囊剂、片剂、丸剂的生产；汽车货物运输；货物及技术的进出口业务（以上经营范围内国家有专营专项规定的按规定办理）。限分支机构经营：药品、原料药制造、销售；药品（精神、麻醉药品除外技术开发、转让、咨询服务及技术培训。（依法须经批准的项目，经相关部门批准后方可开展经营活动）,2018-06-29,02226736999,stock@tasly.com,"天士力制药集团股份有限公司,天津天士力制药股份有限公司",2050-01-01,医药制造业,中成药生产,北辰区,大健康,2019-09-16 13:28:18,2019-09-16 13:28:18,0,1,天津市,http://www.tasly.com/gufen/default.aspx
208,ca86b59f-d842-11e9-80c9-fa163e3115c2,91420000706963132M,420000000034415,706963132,存续（在营、开业、在册）,80962.399900万,曹龙祥,制造业,1997-01-22,1997-01-22,,湖北省,湖北省市场监督管理局,股份有限公司(上市),湖北济川药业股份有限公司,湖北省荆州市沙市区园林路时尚豪庭602室,药品研发；医药及其他领域投资管理；日化品销售；橡胶制品、塑料制品制造与销售；有色金属、五金交电、化工原料（不含危险品）、装潢材料批发、零售；科技及经济技术咨询服务（不含证券期货咨询）；自营和代理各类商品及技术的进出口业务（不含国家禁止或限制进出口的商品及技术）。,2016-06-07,0523-87606428,jtb@jumpcan.com,湖北洪城通用机械股份有限公司,长期,金属制品业,结构性金属制品制造,沙市区,大健康,2019-09-16 13:28:19,2019-09-16 13:28:19,0,1,荆州市,www.jumpcan.com
209,cae15993-d842-11e9-80c9-fa163e3115c2,91370000728611939A,371700400000462,728611939,在营（开业）企业,88634.000000万人民币,赵涛,制造业,2001-05-10,2001-05-10,,山东省,山东省市场监督管理局,股份有限公司(台港澳与境内合资、上市),山东步长制药股份有限公司,菏泽市中华西路369号,片剂、硬胶囊剂、颗粒剂、丸剂（蜜丸、浓缩丸、水丸、水蜜丸）、口服液。(依法须经批准的项目，经相关部门批准后方可开展经营活动，有效期以许可证为准),2018-12-06,0530-5299369,sdbczjb9369@126.com,,长期,医药制造业,中成药生产,,大健康,2019-09-16 13:28:19,2019-09-16 13:28:19,0,1,菏泽市,https://www.buchang.com
210,cb415bcd-d842-11e9-80c9-fa163e3115c2,91330000142924161N,330000000010348,142924161,存续,266732.020000万人民币,胡季强,制造业,1993-01-09,1993-01-09,,浙江省,浙江省工商行政管理局,其他股份有限公司(上市),浙江康恩贝制药股份有限公司,浙江省兰溪市康恩贝大道1号,药品生产（范围详见《中华人民共和国药品生产许可证》）。食品生产（范围详见《食品生产许可证》），卫生材料及敷料的制造、销售，五金机械，通讯设备（不含无线通讯设备），仪器仪表，电脑软件，建筑材料，化工产品（不含危险品及易制毒品），纺织品，日用百货，家用电器，文化用品，健身器械，汽车配件、初级食用农产品的销售，技术咨询服务；经营进出口业务。（依法须经批准的项目，经相关部门批准后方可开展经营活动）,2019-01-10,0579-88276598,,"浙江康恩贝股份有限公司,浙江康恩贝集团股份有限公司",长期,医药制造业,化学药品制剂制造,兰溪市,大健康,2019-09-16 13:28:20,2019-09-16 13:28:20,0,1,金华市,http://gfgs.conbagroup.com/
211,cba550e3-d842-11e9-80c9-fa163e3115c2,9113000023565800XC,130000000018406,23565800X,存续（在营、开业、在册）,120294.558300万人民币,吴相君,制造业,2001-08-28,2001-08-28,,河北省,高新区市场监督管理局,其他股份有限公司(上市),石家庄以岭药业股份有限公司,石家庄市高新技术开发区天山大街２３８号,硬胶囊剂、片剂、颗粒剂、合剂、小容量注射剂、中药配方颗粒的生产；食品用塑料包装容器的生产；保健食品的生产、销售（许可生产品种以食品生产许可品种明细表核准的为准）；饮料（固体饮料类、其他饮料类）的生产、销售(许可生产食品品种以食品生产许可证副页核准的为准)；方便食品的生产、销售（许可生产食品品种以食品生产许可证副页核准的为准）；中药提取物的生产；自营和代理各类商品和技术的进出口，但国家限定公司经营和禁止进出口的商品和技术除外；自有房屋租赁；机械设备租赁；家具、家用电器租赁；农产品收购（不含粮食）；糖果制品的生产、销售（许可生产食品品种以食品生产许可证副页核准的为准）；企业管理咨询服务；健康管理咨询服务（诊疗、医疗、心理咨询除外）。（以下限分支机构经营）；中成药、医药保健品、传统医疗器械、西药、生物制品、卫生辅料的研究、开发；技术咨询、服务、转让。（依法须经批准的项目，经相关部门批准后方可开展经营活动）,2019-05-31,0311-85906122,ylfwb@yiling.cn,,长期,医药制造业,化学药品制剂制造,,大健康,2019-09-16 13:28:21,2019-09-16 13:28:21,0,1,石家庄市,http://www.yilingshop.com/
212,cbe4199f-d842-11e9-80c9-fa163e3115c2,91520400215650676U,522500000001859,215650676,存续（在营、开业、在册）,141120.000000万,姜伟,批发和零售业,1999-03-25,1999-03-25,,贵州省,安顺市工商行政管理局,股份有限公司(上市、自然人投资或控股),贵州百灵企业集团制药股份有限公司,贵州省安顺市经济技术开发区西航路212号,法律、法规、国务院决定规定禁止的不得经营；法律、法规、国务院决定规定应当许可（审批）的，经审批机关批准后凭许可（审批）文件经营;法律、法规、国务院决定规定无需许可（审批）的，市场主体自主选择经营。（片剂、胶囊剂、糖浆剂、软胶囊剂、颗粒剂、丸剂、散剂、喷雾剂、煎膏剂、酊剂、滴丸剂、原料药（岩白菜素）、大容量注射剂（含中药提取）；生产销售预包装食品；卫生用品类生产（皮肤、粘膜卫生用品）；保健食品生产加工（片剂[糖]、颗粒剂、口服液、酒剂）；生产糖果制品（糖果）；中药材种植（国家有专项规定的除外）；市场营销策划；设计、制作、发布、代理国内外各类广告（国家规定须取得专项审批的取得审批后才能从事经营活动）；市场推广宣传；市场调查与研究；文化学术交流、营销管理；化妆品销售（国家有专项规定的除外）；自有仓库及配套设备出租。）,2019-05-23,0851-33411559,1300239037@qq.com,,长期,批发业,矿产品、建材及化工产品批发,,大健康,2019-09-16 13:28:21,2019-09-16 13:28:21,0,1,安顺市,http://gzbl.com
213,cc44c409-d842-11e9-80c9-fa163e3115c2,91120000103100784F,120000000004711,103100784,存续（在营、开业、在册）,76887.307600万人民币,李立群,批发和零售业,1981-12-29,1981-12-29,2050-01-01,天津市,天津市市场和质量监督管理委员会,股份有限公司(上市),天津中新药业集团股份有限公司,天津市南开区白堤路17号,中药材、中成药、中药饮片、西药制剂、化学药品原药制造(3810)化学药品制剂、新草药、医疗器械、营养保健品、化学试剂加工、制造、批发、零售；中药外配加工；卫生用品、健身器材、生活及环境卫生用消毒用品、药物护肤产品、日用百货、服装、鞋帽、家用电器、日用杂品批发、零售；仓储、宣传广告、技术开发、转让、经济信息咨询服务、房屋租赁；计算机及软件、分析仪器的代购、代销、批发、零售；计划生育用品零售；药用设施租赁；经营本企业自产产品及技术的出口业务；经营本企业生产所需的原辅材料、仪器仪表、机械设备、零配件及技术的进口业务（国有限定公司经营和国家禁止进出口的商品及技术除外）；经营进料加工和“三来一补”业务；中药材收购；下列项目由分支机构经营：医疗包装材料、畜用药、饵料添加剂、饲料、饵料、畜禽药品制造、饲料添加剂制造、牲畜饲养、淡水动植物养殖、餐饮、会议服务；定型包装食品、食用油、副食、调料零售；纯净水、卫生用品制造；定型包装饮用水；瓶装纯净水生产经营；饮料；固体饮料；茶饮料生产经营；限分支机构经营：抗生素、生化药品的销售；限分支机构经营：诊疗科目：医学检验科、中医科、内科专业、儿科专业、皮肤科专业、针灸科专业、生物制品、诊断药品、二类精神药品制剂销售；包装印刷；道路运输；酒（黄酒、酒精）糖、茶、饮料品、蜂产品代购、代销；麻醉药品（限罂粟壳）；医疗用毒性药品；蛋白质同化剂；肽类激素的批发；食品、预包装食品、散装食品销售；生物工程及生物制品、化工产品（危险品除外）的研究开发与销售；保健食品批发经营（片剂类、硬胶囊类、袋泡茶类、口服液类）；食用农产品批发、零售；科学研究和技术服务业（依法须经批准的项目，经相关部门批准后方可开展经营活动）,2019-05-21,022-27020598,bgs@zhongxinp.com,,2050-01-01,批发业,医药及医疗器材批发,南开区,大健康,2019-09-16 13:28:22,2019-09-16 13:28:22,0,1,天津市,www.zhongxinp.com
214,ccb6fb02-d842-11e9-80c9-fa163e3115c2,91230300130721906W,230322100000050,130721906,存续（在营、开业、在册）,84916.000000万,方同华,制造业,1996-10-28,1996-10-28,,黑龙江省,鸡西市市场监督管理局,股份有限公司(上市、自然人投资或控股),黑龙江珍宝岛药业股份有限公司,黑龙江省鸡西市虎林市虎林镇红星街72号,冻干粉针剂、口服液、口服溶液剂、合剂、糖浆剂（含中药提取）、小容量注射剂、原料药（穿琥宁、七叶皂苷钠、埃索美拉唑镁、埃索美拉唑钠、盐酸莫西沙星）、无菌原料药、煎膏剂（含中药提取）、浸膏剂、中药提取（仅限分支机构经营）、中药饮片（净制、切制、炮灸（炒、灸法（酒灸、醋灸、盐灸、蜜灸、姜灸）、制炭、煅、蒸、煮、炖、煨）、直接口服饮片)生产；中药材收购、批发、零售；农、林、牧产品收购、批发；普通货物道路运输。,2018-12-19,0467-5854656,zbddsh@zbdzy.com,,长期,医药制造业,中药饮片加工,虎林市,大健康,2019-09-16 13:28:23,2019-09-16 13:28:23,0,1,鸡西市,www.zbdzy.com
215,cd2341d4-d842-11e9-80c9-fa163e3115c2,9122000070222720XH,220000000052632,70222720X,存续（在营、开业、在册）,128075.982600万人民币,郭春林,制造业,1998-05-25,2010-04-29,2058-05-25,吉林省,吉林省市场监督管理厅,股份有限公司(上市、自然人投资或控股),吉林紫鑫药业股份有限公司,吉林省柳河县英利路88号,加工销售中成药，化学药制剂（口服液，片剂，胶囊），药材原料，针织品加工，种养殖业。；设计，制作，代理电视，报纸，灯箱，路牌广告业务；经营本企业自产产品及相关技术的出口业务（国家限定公司经营或禁止出口的商品除外）；经营本企业生产科研所需的原辅材料、机械设备、仪器仪表、零配件及相关技术的进出口业务（国家限定公司经营或禁止进口的商品除外）；经营本企业的进料加工和“三来一补“业务；生产脱脂棉球；土特产品销售；中药饮片、农副产品、中药材的种植与销售。***（依法须经批准的项目，经相关部门批准后方可开展经营活动）。,2019-06-20,0431-88637355,zixin@zxpc.cc,"通化紫金药业有限责任公司,通化紫金药业股份有限公司",2058-05-25,化学原料和化学制品制造业,基础化学原料制造,柳河县,大健康,2019-09-16 13:28:23,2019-09-16 13:28:23,0,1,通化市,http://www.jklinzixin.com.cn
216,cd76ac50-d842-11e9-80c9-fa163e3115c2,9136000070550994XX,360000110002125,70550994X,存续（在营、开业、在册）,123834.007600万人民币,梅强,制造业,1996-12-04,2011-04-01,,江西省,江西省市场监督管理局,其他股份有限公司(上市),仁和药业股份有限公司,江西省南昌市高新开发区京东北大道399号,中药材种植；药材种苗培植；纸箱生产、销售；计算机软件开发；设计、制作、发布、代理国内各类广告；建筑材料、机械设备、五金交电及电子产品、化工产品、金属材料、文体办公用品、百货的批发、零售；技术服务与咨询。（依法须经批准的项目，经相关部门批准后方可开展经营活动）,2015-12-30,0791-83896755,rh000650@126.com,,长期,医药制造业,中成药生产,,大健康,2019-09-16 13:28:24,2019-09-16 13:28:24,0,1,南昌市,www.renheyaoye.com
217,cdca94cc-d842-11e9-80c9-fa163e3115c2,91230199775036754Q,230199100055264,775036754,存续（在营、开业、在册）,58400.000000万人民币,关玉秀,金融业,2005-09-07,2005-09-07,,黑龙江省,哈尔滨市松北区市场监督管理局,其他股份有限公司(上市),葵花药业集团股份有限公司,哈尔滨高新技术产业开发区迎宾路集中区东湖路18号,投资及投资管理；企业策划；医药技术开发。,2019-02-13,87690550,2445400940@qq.com,,长期,其他金融业,其他未列明金融业,,大健康,2019-09-16 13:28:24,2019-09-16 13:28:24,0,1,哈尔滨市,www.kuihuayaoye.com
218,ce1ef960-d842-11e9-80c9-fa163e3115c2,916300007104039124,630000100005561,710403912,存续（在营、开业、在册）,49199.969700万,张斌,制造业,1996-11-25,1996-11-25,,青海省,青海省市场监督管理局,其他股份有限公司(上市),广誉远中药股份有限公司,西宁经济技术开发区金桥路38号,中药原料药、西药原料药、片剂、硬胶囊剂、软胶囊剂、颗粒剂、注射剂、大输液、口服液的生产、销售、研究（仅限取得许可证的分支机构经营）；自营和代理各类商品和技术的进出口，但国家限定公司经营或禁止进出口的商品和技术除外。****,2019-07-31,029-88332288,34112734@qq.com,,长期,医药制造业,中成药生产,,大健康,2019-09-16 13:28:25,2019-09-16 13:28:25,0,1,西宁市,http://www.guangyuyuan.com
219,ce7938ed-d842-11e9-80c9-fa163e3115c2,91450300198888809P,4500001001428,198888809,存续（在营、开业、在册）,59020.000000万,邹节明,制造业,1994-02-23,1994-02-23,,广西壮族自治区,桂林市市场监督管理局,其他股份有限公司(上市),桂林三金药业股份有限公司,桂林市临桂区人民南路9号,片剂、硬胶囊剂、散剂、颗粒剂、酊剂（外用）（毒性中药前处理）、酊剂（内服）、药用辅料、茶剂、丸剂（浓缩丸、水蜜丸、水丸、大蜜丸、小蜜丸、微丸）、煎膏剂、糖浆剂、搽剂、合剂（口服液）、酒剂、喷雾剂、中药前处理和提取、制粒的生产经营；医药科技开发；进出口贸易（国家有专项规定的除外）。,2019-06-06,0773-5843205,yaoye@sanjin.com.cn,,长期,医药制造业,中药饮片加工,临桂区,大健康,2019-09-16 13:28:25,2019-09-16 13:28:25,0,1,桂林市,www.sanjin.com.cn
220,cec902c6-d842-11e9-80c9-fa163e3115c2,91430000712191079B,430000000008755,712191079,存续（在营、开业、在册）,86935.423600万人民币,李振国,制造业,1999-05-12,1999-05-12,,湖南省,湖南省市场监督管理局,其他股份有限公司(上市),九芝堂股份有限公司,长沙市高新区桐梓坡西路339号,生产、销售（限自产）片剂、颗粒剂、丸剂（大蜜丸、小蜜丸、水蜜丸、水丸、浓缩丸）、茶剂（含中药提取）、颗粒剂、煎膏剂、糖浆剂、合剂、灌肠剂、酊剂、胶剂（含中药提取）、酒剂、中药饮片；生产、销售保健品、食品、乳制品、食品添加剂、饮料、日化用品及化妆品；销售一类医疗器械、化学试剂（不含危险品和监控品）；提供制药技术咨询服务、健康咨询服务（不含医疗、诊疗）；医药科技开发；医药产业投资（不得从事吸收存款、集资收款、受托贷款、发行票据、发放贷款等国家金融监管及财政信用业务）；经营商品和技术的进出口业务；产品包装印刷（限分支机构凭有效许可证经营）；货物运输。（依法须经批准的项目，经相关部门批准后方可开展经营活动）,2017-05-17,0731-84499762,hnjzt@jzt.com,,长期,医药制造业,中药饮片加工,,大健康,2019-09-16 13:28:26,2019-09-16 13:28:26,0,1,长沙市,www.hnjzt.com
221,cf250376-d842-11e9-80c9-fa163e3115c2,91420100177701670K,420100000014150,177701670,存续（在营、开业、在册）,43105.389100万元人民币,陈平,制造业,1994-05-09,1994-05-09,2025-01-01,湖北省,武汉市市场监督管理局,股份有限公司(上市),马应龙药业集团股份有限公司,湖北省武汉市武昌南湖周家湾100号,中西药制造；企业经营本企业自产产品及相关技术的出口业务；经营本企业生产、科研所需的原辅材料、机械设备、仪器仪表、零配件及相关技术的进口业务；经营本企业的进料加工和“三来一补”业务；药用包装材料、化妆品、中药制药机械制造、加工、销售；汽车货运；食品（含保健食品）、第一、二类医疗器械、家庭用品、电子产品、日用品、卫生用品、消毒产品的生产及销售。（依法须经审批的项目，经相关部门审批后方可开展经营活动）,2017-07-05,027-87291611,stock@myl1582.com,,2025-01-01,医药制造业,化学药品制剂制造,武昌区,大健康,2019-09-16 13:28:27,2019-09-16 13:28:27,0,1,武汉市,www.mayinglong.cn
222,cf7c4923-d842-11e9-80c9-fa163e3115c2,91220501244575134M,220500000001247,244575134,存续（在营、开业、在册）,96649.470700万人民币,战红君,科学研究和技术服务业,1993-02-26,1993-02-26,,吉林省,通化市工商行政管理局,股份有限公司(上市、自然人投资或控股),通化金马药业集团股份有限公司,吉林省通化市二道江区金马路999号,合剂、颗粒剂、硬胶囊剂、片剂、小容量注射剂、口服溶液剂、糖浆剂、栓剂、丸剂（浓缩丸、糊丸）；中药材的种植、研究；中药饮片、药品、保健品的研发、销售；医疗器械的研究、开发；医疗项目投资；进出口贸易。（依法须经批准的项目，经相关部门批准后方可开展经营活动）。,2019-07-02,0435-3910258,thjmjt@163.com,通化金马药业股份有限公司,长期,研究和试验发展,医学研究和试验发展,二道江区,大健康,2019-09-16 13:28:27,2019-09-16 13:28:27,0,1,通化市,http://www.thjm.cn/
223,cfe1ffa1-d842-11e9-80c9-fa163e3115c2,91360000158307408H,360000110004725,158307408,存续（在营、开业、在册）,42000.000000万人民币,卢小青,制造业,1996-09-18,1996-09-18,,江西省,江西省市场监督管理局,股份有限公司(上市、国有控股),江中药业股份有限公司,江西省南昌市高新区火炬大道788号,硬胶囊剂、原料药（蚓激酶）、糖浆剂、片剂（A线、B线、D线、E线、F线、G线）、颗粒剂、口服液、膏滋剂(含中药前处理及提取）的生产及销售(许可证有效期至2020年12月31日)；糖类、巧克力和糖果（糖果），饮料的生产和销售（凭许可证经营）；保健食品的生产和销售（以上经营项目凭许可证经营）；皮肤粘膜卫生用品（卫生湿巾）的生产销售（卫生许可证的有效期至2018年9月21日）；农副产品收购（粮食收购除外）；国内贸易及生产加工，国际贸易；研发服务、技术转让服务、技术咨询服务。(依法须经批准的项目，经相关部门批准后方可开展经营活动）,2019-01-10,0791-88164183,css@jzjt.com,,长期,医药制造业,中成药生产,,大健康,2019-09-16 13:28:28,2019-09-16 13:28:28,0,1,南昌市,https://shenlingcao.tmall.com
224,d0302806-d842-11e9-80c9-fa163e3115c2,9153010062260401XJ,530100400001412,62260401X,存续（在营、开业、在册）,40050.000000万人民币,樊献俄,制造业,1996-09-16,1996-09-16,,云南省,昆明市工商行政管理局,股份有限公司(台港澳与境内合资、上市),昆明龙津药业股份有限公司,云南省昆明市高新技术开发区科高路2188号,开发、研究、生产、销售中、西医药（依法须经批准的项目，经相关部门批准后方可开展经营活动）,2016-07-26,0871-68520866,kmljyy@vip.sina.com,,长期,医药制造业,化学药品制剂制造,,大健康,2019-09-16 13:28:28,2019-09-16 13:28:28,0,1,昆明市,http://www.longjin.com.cn/
225,7f960417-d850-11e9-80c9-fa163e3115c2,91500102208507353E,20850541-1,208507353,存续(在营、开业、在册),55689.074400万,李阳春,房地产业,1979-11-26,1979-11-26,,重庆市,重庆市涪陵区市场监督管理局,股份有限公司(上市公司),重庆太极实业（集团）股份有限公司,重庆市涪陵区太极大道1号,加工、销售：中成药、西药；以下限分支机构经营：销售副食品及其他食品、汽车二级维护及其以下作业、包装装潢及其他印刷、住宿；保健用品加工、销售；医疗器械销售（仅限I类）；医疗包装制品加工；百货、五金、交电、化工（不含化学危险品）、工艺美术品（不含金银首饰）、机械设备、建筑材料销售(不含危险化学品和木材)销售；机械零部件加工；中草药种植；水产养殖(国家有专项规定的除外)；商品包装；旅游开发；房地产开发（取得相关行政许可后方可执业）；自有房屋、土地出租；贸易经纪与代理［以上范围法律、法规禁止经营的不得经营；法律、法规规定应经审批而未获审批前不得经营］＊＊,2019-07-19,72800072,tjzq@taiji.com,,长期,房地产业,房地产开发经营,涪陵区,大健康,2019-09-16 15:06:26,2019-09-16 15:06:26,0,1,重庆市,
226,d0cf6497-d842-11e9-80c9-fa163e3115c2,91430900MA4L101B51,430900000005212,MA4L101B5,存续（在营、开业、在册）,50320.000000万人民币,刘令安,制造业,1998-01-21,1998-01-21,,湖南省,益阳市市场监督管理局,其他股份有限公司(上市),湖南汉森制药股份有限公司,益阳市银城南路,大容量注射剂、小容量注射剂、片剂、硬胶囊剂、颗粒剂、丸剂（蜜丸、水蜜丸、水丸）、酊剂、煎膏剂、糖浆剂、口服液（含中药提取）（许可证有效期至2020年12月31日止）；生物制品的研发、生产与销售；医疗卫生投资与经营。（依法须经批准的项目，经相关部门批准后方可开展经营活动）,2019-07-08,0737-6351079,furenhui123@126.com,,长期,医药制造业,化学药品制剂制造,,大健康,2019-09-16 13:28:29,2019-09-16 13:28:29,0,1,益阳市,http://www.hanenzy.com/
227,d1200c56-d842-11e9-80c9-fa163e3115c2,91140400729655415C,140421100000376,729655415,存续（在营、开业、在册）,103305.466000万,李安平,制造业,1995-11-15,1995-11-15,2025-11-14,山西省,长治市市场监督管理局,股份有限公司(上市、自然人投资或控股),山西振东制药股份有限公司,山西省长治县光明南路振东科技园,药品生产：原料药（比卡鲁胺、甘草酸二胺、帕米磷酸二钠、美司钠、盐酸法舒地尔、硫酸氢氯吡格雷、羟苯磺酸钙、瑞格列奈、苹果酸阿莫曲坦）、抗肿瘤类原料药（盐酸伊立替康、盐酸托泊替康、盐酸尼莫司汀、盐酸吉西他滨、雷替曲塞、奥沙利铂、依西美坦、卡莫氟、来曲唑、盐酸米托蒽醌、异环磷酰胺、硫酸长春地辛、卡培他滨、达沙替尼、硼替佐米）、小容量注射剂（含抗肿瘤药）、冻干粉针剂（含抗肿瘤药）、片剂（含抗肿瘤药）、硬胶囊剂（含抗肿瘤药）、颗粒剂、散剂、中药提取生产制造。消杀剂系列产品、卫生用品销售；食品经营：保健品（仅限分支机构经营）；新药品开发（仅限研究）；货物进出口；道路货物运输；房屋租赁。（依法须经批准的项目，经相关部门批准后方可开展经营活动）,2019-01-28,0355-8096028,bgs@zdjt.com,,2025-11-14,医药制造业,化学药品原料药制造,长治县,大健康,2019-09-16 13:28:30,2019-09-16 13:28:30,0,1,长治市,www.zdjt.com
228,d178d4e0-d842-11e9-80c9-fa163e3115c2,914100006144026968,410000100020652,614402696,存续（在营、开业、在册）,58644.913800万,熊伟,制造业,1999-04-18,1999-04-18,2020-04-17,河南省,河南省市场监督管理局,其他股份有限公司(上市),河南羚锐制药股份有限公司,河南省新县将军路666号,药品、保健用品、保健食品、消毒用品、医疗器械的生产、销售（凭证）；糖果、调味品、营养食品、食品添加剂的制造、销售；饮料制造、销售；体育用品制造、销售；日用化学产品(不含易燃、易爆危险品)制造、销售；日用杂品制造、销售；新产品、新技术的研究、开发与技术服务；自营本企业自产产品及相关技术的出口业务；自营本企业生产、科研所需的原辅材料、机械设备、仪器仪表、零配件及相关技术的进口业务；进料加工，“三来一补”；信息咨询服务；对房地产、技术贸易、文化教育、广告及宾馆行业的投资。,2019-06-03,0376-2973599,gsbgs@lingrui.com,,2020-04-17,医药制造业,化学药品原料药制造,新县,大健康,2019-09-16 13:28:31,2019-09-16 13:28:31,0,1,信阳市,http://www.lingrui.com
229,d1c5e154-d842-11e9-80c9-fa163e3115c2,91310000630948912G,310226000171574,630948912,存续（在营、开业、在册）,107149.380000万人民币,穆竟伟,制造业,2000-04-12,2000-04-12,,上海市,上海市工商行政管理局,股份有限公司(上市、自然人投资或控股),上海凯宝药业股份有限公司,上海市工业综合开发区程普路88号,药品生产（小容量注射剂、片剂、硬胶囊剂、颗粒剂、合剂、丸剂（滴丸）、中药提取车间），农副产品收购。【依法须经批准的项目，经相关部门批准后方可开展经营活动】,2000-04-12,021-37572030-8008,kbyydmb@126.com,,长期,医药制造业,中药饮片加工,,大健康,2019-09-16 13:28:31,2019-09-16 13:28:31,0,1,,www.xykb.com
230,d2163a4f-d842-11e9-80c9-fa163e3115c2,91520000709667830M,520000000052373,709667830,存续（在营、开业、在册）,79192.740000万,窦啟玲,制造业,1995-06-12,1995-06-12,,贵州省,贵州省市场监督管理局,其他股份有限公司(上市),贵州益佰制药股份有限公司,贵州省贵阳市云岩区白云大道２２０－１号,法律、法规、国务院决定规定禁止的不得经营；法律、法规、国务院决定规定应当许可（审批）的，经审批机关批准后凭许可（审批）文件经营;法律、法规、国务院决定规定无需许可（审批）的，市场主体自主选择经营。（硬胶囊剂、小容量注射剂（含中药提取）、片剂、颗粒剂、糖浆剂、冻干粉针剂（含中药提取）、合剂、滴丸剂、煎膏剂、酊剂、口服溶液剂、贵州省安顺市平坝县新艺厂内：中药提取；本企业和本企业成员企业自产产品及相关技术的出口业务（国家限定公司经营或禁止进出口的商品除外）；经营本企业和本企业成员企业生产、科研所需的原辅材料、机械设备、仪器仪表、零配件及相关技术的进口业务（国家限定公司经营或禁止进口的商品除外）；经营本企业的进料加工和“三来一补”业务；中药材种植及养殖项目投资；农产品销售；中药材市场信息咨询服务；保健食品研发及信息咨询服务。）,2015-12-01,0851-84716781,2128399076@qq.com,,长期,医药制造业,中成药生产,云岩区,大健康,2019-09-16 13:28:32,2019-09-16 13:28:32,0,1,贵阳市,http://www.gzcci.com
231,d2695e19-d842-11e9-80c9-fa163e3115c2,914302007121024513,18429894-7,712102451,存续（在营、开业、在册）,41850.711700万人民币,江端预,批发和零售业,1993-08-13,1993-08-13,,湖南省,株洲市工商行政管理局,其他股份有限公司(上市),株洲千金药业股份有限公司,湖南省株洲市天元区株洲大道801号,片剂、颗粒剂、丸剂（水丸、浓缩丸、蜜丸、水蜜丸，含中药提取）、硬胶囊剂、糖浆剂、茶剂、酒剂、凝胶剂（含中药提取）、栓剂、抗（抑）菌制剂（液体）净化生产；上述商品的进出口业务。（依法须经批准的项目，经相关部门批准后方可开展经营活动）,2018-09-10,0371-22492124,qianjin@cnqjyy.com,,长期,批发业,医药及医疗器材批发,天元区,大健康,2019-09-16 13:28:32,2019-09-16 13:28:32,0,1,株洲市,www.cnqjyy.com
232,d2b556dc-d842-11e9-80c9-fa163e3115c2,91310000607228626G,310000400017887,607228626,存续（在营、开业、在册）,53407.162800万人民币,张涛涛,租赁和商务服务业,1992-07-22,1992-07-22,,上海市,上海市市场监督管理局,股份有限公司(中外合资、上市),上海神奇制药投资管理股份有限公司,上海市浦东新区上川路995号,在国家法律允许和政策鼓励的范围内进行投资管理（以医药领域为主）。【依法须经批准的项目，经相关部门批准后方可开展经营活动】,1992-07-22,021-53750015,shanghaiys@126.com,,长期,商务服务业,企业管理服务,浦东新区,大健康,2019-09-16 13:28:33,2019-09-16 13:28:33,0,1,上海市,www.gzsq.com
233,d307223a-d842-11e9-80c9-fa163e3115c2,91430000183855019M,430000000017049,183855019,存续（在营、开业、在册）,43782.272000万人民币,张庆华,制造业,1997-10-13,1997-10-13,,湖南省,湖南省市场监督管理局,股份有限公司(上市、自然人投资或控股),湖南方盛制药股份有限公司,长沙市河西麓谷麓天路19号,酊剂（外用、含中药提取）、片剂（含头孢菌素类）、硬胶囊剂（含头孢菌素类）、颗粒剂（含头孢菌素类）、口服混悬剂（头孢菌素类）、散剂（含中药提取）、栓剂、粉针剂（头孢菌素类）、丸剂、小容量注射剂、原料药的生产、经营；教学用模型及教具的生产、销售；中药材经营；市场营销策划服务；自营和代理各类商品和技术的进出口。(依法须经批准的项目，经相关部门批准后方可开展经营活动),2019-08-05,0731-88997188,kf@fangsheng.com.cn,,长期,医药制造业,化学药品原料药制造,,大健康,2019-09-16 13:28:33,2019-09-16 13:28:33,0,1,长沙市,www.fangsheng.com.cn/
234,d36d0eba-d842-11e9-80c9-fa163e3115c2,914405007229411602,440500000000755,722941160,在营（开业）企业,76677.320000万人民币,柯少彬,制造业,2000-03-25,2000-03-25,,广东省,广东省汕头市工商行政管理局,其他股份有限公司(上市),广东太安堂药业股份有限公司,汕头市金园工业区11R2－2片区第1、2座,药品生产；药品经营；保健食品生产；保健食品销售；药品研究开发；中药材收购；化妆品、消毒剂、卫生用品的生产、销售；货物进出口，技术进出口经营）；第一厂外车间（地址：汕头市金平区月浦南工业区）药品生产，药品经营；第二厂外车间（地址：汕头市揭阳路28号）药品生产，药品经营。,2019-01-10,0754-88116065,gdtaiantang@126.com,,长期,医药制造业,化学药品原料药制造,11R2-2片区,大健康,2019-09-16 13:28:34,2019-09-16 13:28:34,0,1,汕头市,http://www.pibao.cn/
235,d3c27b43-d842-11e9-80c9-fa163e3115c2,91620000712762468N,620000000016708,712762468,存续（在营、开业、在册）,51065.700000万人民币,石爱国,制造业,2000-06-28,2000-06-28,2050-06-28,甘肃省,甘肃省工商行政管理局,股份有限公司(上市),兰州佛慈制药股份有限公司,甘肃省兰州市兰州新区华山路2289号,中成药、西药、中药饮片(生产地址及范围详见药品生产许可证）及包装品的生产、批发零售；中药材种植、收购、加工、销售；自有资产投资、租赁、转让、收益；利用自有显示屏发布自产药品广告；自营和代理各类商品和技术进出口（国家限制和禁止的项目除外）；热力生产与供应.(依法须经批准的项目，经有关部门批准后方可经营)。,2018-12-25,0931-8362889,lzfc@public.lz.gs.cn,,2050-06-28,医药制造业,中成药生产,,大健康,2019-09-16 13:28:34,2019-09-16 13:28:34,0,1,兰州市,http://www.fczy.com
236,d41b1ecd-d842-11e9-80c9-fa163e3115c2,91410000607229055C,,607229055,存续（在营、开业、在册）,62715.751200万,朱文臣,,1993-08-13,1993-08-13,,河南省,河南省市场监督管理局,股份有限公司(上市、外商投资企业投资),辅仁药业集团制药股份有限公司,河南省鹿邑县产业集聚区同源路1号,化学药、抗生素、生物制品、中成药、中药饮片等，包括冻干粉针剂、小容量注射剂(含激素类)、片剂、硬胶囊剂、颗粒剂、口服液、滴眼剂、乳膏剂(含激素类)、软膏剂(激素类)、散剂、粉针剂、眼膏剂、原料药、医药中间体、医用辅料、无菌原料药(炎琥宁、氨曲南)。精神药品、易制毒化学品单方制剂(盐酸麻黄碱注射液、盐酸麻黄碱片)的研发、生产、销售；经营中药材、中成药、中药饮片、化学药制剂、抗生素、生化药品、生物制品；预包装食品批发兼零售；麻醉药品和第一类精神药品、第二类精神药品制剂的销售；医疗器械第一、二、三类的销售。化工产品（易燃易爆危险化学品除外）、化妆品、医药辅料的销售；进出口贸易（国家限定或禁止经营的除外）；商务咨询服务。从事货物及技术的进出口业务。(以上范围国家法律法规规定禁止经营的不得经营，国家有专项规定的从其规定，需经许可或审批的凭有效许可证或审批件核准的范围经营)；仓储配送；从事非配额许可证管理，非专营商品的收购出口业务；科技信息技术及网络技术的开发、转让、咨询技术服务；计算机软件的开发，设计、制作，销售自产产品及售后服务。（涉及许可经营项目，应取得相关部门许可后方可经营）,2018-09-13,15290895299,furen@shfuren.cn,辅仁药业集团实业股份有限公司,长期,,,鹿邑县,大健康,2019-09-16 13:28:35,2019-09-16 13:28:35,0,1,周口市,www.shfuren.cn
237,d471965d-d842-11e9-80c9-fa163e3115c2,91441400748002647K,440000000029131,748002647,在营（开业）企业,50750.984800万人民币,陈建宁,制造业,2003-03-07,2003-03-07,,广东省,广东省梅州市工商行政管理局,股份有限公司(上市、自然人投资或控股),广东嘉应制药股份有限公司,广东省梅州市东升工业园B区,货物进出口、技术进出口；生产：片剂，胶囊剂，颗粒剂，丸剂（蜜丸、水蜜丸、水丸），散剂，中药前处理和提取车间（口服制剂）；农副产品收购。(依法须经批准的项目，经相关部门批准后方可开展经营活动)〓,2018-11-05,0753-6133081,gdjyzymz@163.com,,长期,医药制造业,中成药生产,,大健康,2019-09-16 13:28:36,2019-09-16 13:28:36,0,1,梅州市,http://www.gdjyzy.com.cn/
238,d4e4dcbc-d842-11e9-80c9-fa163e3115c2,91330000147115443M,330000000017843,147115443,存续,60862.484800万人民币,汪涛,制造业,2000-01-28,2000-01-28,,浙江省,浙江省工商行政管理局,其他股份有限公司(上市),浙江佐力药业股份有限公司,浙江省德清县阜溪街道志远北路388号,药品的生产、销售（凭许可证经营）；食品的生产、销售（凭许可证经营）；保健食品原料（发酵虫草菌粉）的生产加工及销售；植物提取物的生产、销售；经营进出口业务；技术咨询服务，投资咨询，市场策划。（依法须经批准的项目，经相关部门批准后方可开展经营活动）,2019-02-26,0572-8281008,zuoli@jolly.sina.net,,长期,医药制造业,化学药品原料药制造,德清县,大健康,2019-09-16 13:28:36,2019-09-16 13:28:36,0,1,湖州市,http://www.zuoli.com/
239,d53a7a93-d842-11e9-80c9-fa163e3115c2,91440700738598678Q,440781000013044,738598678,在营（开业）企业,20000.000000万人民币,许丹青,制造业,2002-05-23,2002-05-23,,广东省,江门市工商行政管理局,股份有限公司(上市、自然人投资或控股),特一药业集团股份有限公司,台山市台城长兴路9、11号,医药制造业（凭有效《药品生产许可证》经营）；保健品生产；医疗器械、日用品批发；技术服务；房屋租赁。(依法须经批准的项目，经相关部门批准后方可开展经营活动)〓,2018-04-16,0750-5627588,ty002728@vip.sina.com,广东台城制药股份有限公司,长期,医药制造业,中成药生产,台山市,大健康,2019-09-16 13:28:37,2019-09-16 13:28:37,0,1,江门市,http://www.tczy.com.cn/
240,d59427e9-d842-11e9-80c9-fa163e3115c2,91370000165446553T,370000018079109,165446553,在营（开业）企业,36075.600000万人民币,赵丙贤,制造业,2002-02-09,2002-02-09,,山东省,潍坊市市场监督管理局,股份有限公司(上市),山东沃华医药科技股份有限公司,山东省潍坊高新技术产业开发区梨园街3517号,许可证范围内片剂、硬胶囊剂、颗粒剂、丸剂（蜜丸、水丸、浓缩丸）、散剂、口服液、合剂、酒剂、酊剂、煎膏剂、糖浆剂生产、销售(有效期限以许可证为准)。医药科技技术咨询服务。(依法须经批准的项目，经相关部门批准后方可开展经营活动)。,2019-03-20,0536-8553373,zhangtianxin@ccpi.net.cn,,长期,医药制造业,生物药品制造,,大健康,2019-09-16 13:28:37,2019-09-16 13:28:37,0,1,潍坊市,http://www.wohua.cn
241,d5ed16e8-d842-11e9-80c9-fa163e3115c2,91330000610004375Y,331081100008368,610004375,存续,35032.080100万人民币,陈合林,制造业,1993-05-13,1993-05-13,,浙江省,浙江省工商行政管理局,股份有限公司(上市、自然人投资或控股),浙江爱仕达电器股份有限公司,浙江温岭市经济开发区科技路2号,货运（范围详见《中华人民共和国道路运输经营许可证》）。炊具及配件、餐具及配件制造，销售；日用电器、玻璃制品、金属模具、非金属模具的设计，制造，金属复合材料、化工产品（不含危险化学品，易制毒化学品及监控化学品）的销售，货物进出口、技术进出口。,2017-05-08,13385663786,514002511@qq.com,浙江台州爱仕达电器有限公司,长期,金属制品业,金属制日用品制造,温岭市,大健康,2019-09-16 13:28:38,2019-09-16 13:28:38,0,1,台州市,http://www.chinaasd.com
242,d63d4468-d842-11e9-80c9-fa163e3115c2,91430400185034724L,430000000032950,185034724,存续（在营、开业、在册）,23947.126700万人民币,王书贵,批发和零售业,1993-11-12,1993-11-12,,湖南省,衡阳市工商行政管理局,其他股份有限公司(上市),启迪古汉集团股份有限公司,湖南省衡阳市高新区杨柳路33号,销售医疗器械；生产、销售精细化工产品（不含危险品及监控化学品）并提供相关技术转让服务；经营法律法规允许的商品和技术的进出口业务；网络信息科技、系统集成；电子数码产品领域的技术开发、技术转让、技术咨询、技术服务；生物技术推广服务；市场营销策划。（依法须经批准的项目，经相关部门批准后方可开展经营活动）,2017-08-09,0734-8239332,Webmaster@guhan.com,紫光古汉集团股份有限公司,长期,批发业,医药及医疗器材批发,,大健康,2019-09-16 13:28:39,2019-09-16 13:28:39,0,1,衡阳市,http://www.guhan.com
243,d696e947-d842-11e9-80c9-fa163e3115c2,91510100201958223R,510109000025140,201958223,存续（在营、开业、在册）,43102.137400万人民币,王仁果,科学研究和技术服务业,1988-01-27,1988-01-27,3999-01-01,四川省,高新工商局,其他股份有限公司(上市),成都泰合健康科技集团股份有限公司,成都高新区（西区）蜀新大道1168号2栋1楼101号,高新技术产品开发生产、经营；中西制剂、原料药的生产（具体经营项目以药品生产许可证核定范围为准，并仅限于分支机构凭药品生产许可证在有效期内从事经营）；药业技术服务和咨询，商品销售（不含国家限制产品和禁止流通产品）；物业管理（凭资质证经营）、咨询及其它服务；农产品自研产品销售；房地产开发（凭资质证经营）。,2017-07-20,028-65589504,无,成都华神集团股份有限公司,长期,研究和试验发展,工程和技术研究和试验发展,(西区,大健康,2019-09-16 13:28:39,2019-09-16 13:28:39,0,1,成都市,http://www.huasungrp.com
244,d700168c-d842-11e9-80c9-fa163e3115c2,91420100177701849P,420100000010751,177701849,存续（在营、开业、在册）,15339.860000万元人民币,刘勤强,制造业,1993-05-28,1993-05-28,,湖北省,武汉市市场监督管理局,股份有限公司(上市),健民药业集团股份有限公司,汉阳区鹦鹉大道484号,片剂、硬胶囊剂、颗粒剂、丸剂（蜜丸、水蜜丸、水丸、浓缩丸、糊丸）、糖浆剂、散剂、煎膏剂、酒剂、合剂生产；药品、医疗器械的研究、开发；饮料（固体饮料类）生产销售；日用品及化妆品的销售；（有效期及范围与许可证一致）塑料制品、建筑材料经营；货物进出口、代理进出口、技术进出口（国家有专项规定的项目经审批后方可经营）。,2016-03-02,027-84523207,381082452@qq.com,武汉健民药业集团股份有限公司,长期,医药制造业,中药饮片加工,汉阳区,大健康,2019-09-16 13:28:40,2019-09-16 13:28:40,0,1,武汉市,www.whjm.com
245,d75fc843-d842-11e9-80c9-fa163e3115c2,91610000223472005U,610000100202319,223472005,开业,8667.000000万,谢晓林,批发和零售业,1997-09-22,1997-09-22,,陕西省,陕西省市场监督管理局,股份有限公司(上市、自然人投资或控股),陕西盘龙药业集团股份有限公司,陕西省商洛市柞水县盘龙生态产业园,片剂、硬胶囊剂、软胶囊剂、散剂、颗粒剂、茶剂合剂、酒剂、原料药（醋酸棉酚）的生产、销售；中药材收购（国家禁止与专控的品种除外）；道路普通货物运输。（依法须经批准的项目，经相关部门批准后方可开展经营活动）,2019-06-19,029-83338888,pl@plgf.cn,,长期,批发业,医药及医疗器材批发,柞水县,大健康,2019-09-16 13:28:40,2019-09-16 13:28:40,0,1,商洛市,www.pljt.com
246,d7b1456e-d842-11e9-80c9-fa163e3115c2,915329002186714056,532900400008869,218671405,存续（在营、开业、在册）,13000.000000万人民币,杨君祥,制造业,2004-03-22,2004-03-22,,云南省,大理白族自治州工商行政管理局,股份有限公司(台港澳与境内合资、上市),大理药业股份有限公司,云南省大理市下关环城西路118号,生产和销售自产的大容量注射剂、小容量注射剂(含非最终灭菌），中药前处理及提取。（依法须经批准的项目，经相关部门批准后方可开展经营活动）,2018-12-25,0872-2192036,lishaoyun@daliyaoye.cn,,长期,医药制造业,中成药生产,大理市,大健康,2019-09-16 13:28:41,2019-09-16 13:28:41,0,1,大理白族自治州,www.daliyaoye.cn
247,d806a414-d842-11e9-80c9-fa163e3115c2,913300001463546966,330683000023900,146354696,存续,16000.000000万人民币,王岳钧,制造业,1998-11-18,1998-11-18,,浙江省,浙江省工商行政管理局,其他股份有限公司(上市),浙江新光药业股份有限公司,浙江省嵊州市剡湖街道环城西路25号,生产、销售：片剂、合剂（含口服液）、颗粒剂、糖浆剂、散剂、硬胶囊剂、口服溶液剂（有效期至2020年7月19日）；颗粒剂、口服液类保健食品（详见《食品生产许可证》）。货物进出口；技术进出口。（依法须经批准的项目，经相关部门批准后方可开展经营活动）,2018-09-13,057583292588,83292588@163.com,,长期,医药制造业,中药饮片加工,嵊州市,大健康,2019-09-16 13:28:42,2019-09-16 13:28:42,0,1,绍兴市,http://www.xgpharma.com/
248,d8602d72-d842-11e9-80c9-fa163e3115c2,91220501126870028U,220500000001302,126870028,存续（在营、开业、在册）,33095.160000万人民币,张益胜,制造业,1997-06-11,1997-06-11,,吉林省,集安市市场监督管理局,股份有限公司(上市、自然人投资或控股),吉林省集安益盛药业股份有限公司,吉林省集安市文化东路17-20号,经营本公司自产产品及相关技术的出口业务；经营本企业生产、科研所需的原辅材料、机械设备、仪器仪表、零配件及相关技术的进口业务；经营本企业的进料加工和“三来一补”业务；小容量注射剂、片剂、颗粒剂、硬胶囊剂、合剂、滴眼剂、搽剂、酒剂、糖浆剂、乳剂、原料药；普通货运；中药材种植；中药饮片（净制、切制、蒸制）；有机肥制造及销售；食品、保健食品、预包装食品及散装食品制造及销售；房屋租赁、机械设备租赁；化妆品销售。（依法须经批准的项目，经相关部门批准后方可开展经营活动）,2019-05-16,0435-6236016,906875990@qq.com,集安制药有限公司,长期,医药制造业,中药饮片加工,集安市,大健康,2019-09-16 13:28:42,2019-09-16 13:28:42,0,1,通化市,http://www.yisheng-pharm.com
249,d8c27c23-d842-11e9-80c9-fa163e3115c2,91150000733284733B,150000000005321,733284733,存续（在营、开业、在册）,26305.310000万,王冠一,批发和零售业,2001-12-26,2001-12-26,,内蒙古自治区,乌兰察布市工商行政管理局,股份有限公司(上市、自然人投资或控股)(1212),内蒙古福瑞医疗科技股份有限公司,内蒙古自治区乌兰察布市集宁区解放路103号,许可经营项目：中、西生化药品生产、销售；第二类、第三类医疗器械销售。一般经营项目：软件开发、信息技术咨询服务、自有房地产经营活动、其他专业技术服务业、技术推广服务,2018-06-05,0474-8287065,xingzhengbu@fu-rui.com,,长期,批发业,医药及医疗器材批发,集宁区,大健康,2019-09-16 13:28:43,2019-09-16 13:28:43,0,1,乌兰察布市,
250,d91b82ee-d842-11e9-80c9-fa163e3115c2,91620000720238148G,620123000000507,720238148,存续（在营、开业、在册）,30334.500000万人民币,康海军,制造业,2002-06-03,2002-06-03,2052-06-02,甘肃省,甘肃省工商行政管理局,股份有限公司(上市),甘肃陇神戎发药业股份有限公司,甘肃省兰州市榆中县定远镇国防路10号,医药产品、医疗产品、保健卫生产品的研究开发；中成药、中药饮片、化学药制剂、化学原料药、消毒产品、化妆品、保健食品、食品、饮料、医疗器械（一类）的研发、生产、销售；中药材种植、收购、加工及销售；自营和代理各类商品和技术的进出口；与上述业务有关的咨询，会议服务，货运，仓储服务；自有资产投资、租赁、转让；房屋和土地租赁；物业管理(依法须经批准的项目，经有关部门批准后方可经营)。,2018-05-06,0931-2143336,gslsrf@163.com,,2052-06-02,医药制造业,化学药品制剂制造,榆中县,大健康,2019-09-16 13:28:43,2019-09-16 13:28:43,0,1,兰州市,http://www.lsrfzy.com
251,d992ea28-d842-11e9-80c9-fa163e3115c2,91330000253930812T,330100000092723,253930812,存续,12178.000000万人民币,李祖岳,制造业,1993-08-12,1993-01-20,2023-08-11,浙江省,浙江省工商行政管理局,其他股份有限公司(上市),杭州天目山药业股份有限公司,浙江省临安市苕溪南路78号,生产：片剂、颗粒剂、丸剂、合剂、口服液、糖浆剂、滴眼剂、滴丸剂、（具体范围详见《药品生产许可证》，软胶囊、片剂、颗粒剂类保健食品。市场经营管理、货物进出口，食品生产、经营（凭许可证经营），医疗器械生产、销售（涉及许可的凭许可证经营），化妆品生产（凭许可证经营）、销售，卫生用品生产、销售。含下属分支机构的经营范围。（依法须经批准的项目，经相关部门批准后方可开展经营活动）,2018-08-02,057128250163,214059349@qq.com,,2023-08-11,医药制造业,中成药生产,临安市,大健康,2019-09-16 13:28:44,2019-09-16 13:28:44,0,1,杭州市,http://www.hztmyy.com/
252,d9e40c8a-d842-11e9-80c9-fa163e3115c2,91520115214595556N,520115000002085,214595556,存续（在营、开业、在册）,11709.600000万,董大伦,制造业,1995-08-11,1995-08-11,,贵州省,贵阳国家高新技术产业开发区行政审批局,其他股份有限公司(上市),贵阳新天药业股份有限公司,贵州省贵阳市贵阳国家高新技术产业开发区新添大道１１４号,法律、法规、国务院决定规定禁止的不得经营；法律、法规、国务院决定规定应当许可（审批）的，经审批机关批准后凭许可（审批）文件经营;法律、法规、国务院决定规定无需许可（审批）的，市场主体自主选择经营。（硬胶囊剂、颗粒剂、片剂、合剂、糖浆剂、酒剂、露剂、散剂、混悬剂、凝胶剂；中药前提取；蒸汽销售；进出口贸易。）,2019-01-14,0851-86317787,xtyy@xtyyoa.com,,长期,医药制造业,中成药生产,,大健康,2019-09-16 13:28:45,2019-09-16 13:28:45,0,1,贵阳市,http://www.gyxtyy.com
253,da379c89-d842-11e9-80c9-fa163e3115c2,916100006984144239,610000100257840,698414423,开业,9988.000000万人民币,王延岭,制造业,2009-12-24,2009-12-24,2020-07-18,陕西省,咸阳市市场监督管理局,股份有限公司(台港澳与境内合资、上市),陕西康惠制药股份有限公司,陕西省咸阳市高新技术产业开发区彩虹二路,片剂、胶囊剂、颗粒剂、口服液、酒剂、茶剂、合剂、洗剂、搽剂、酊剂、膏药、软膏药的生产，销售自产产品；中药前提取处理；医药化工技术开发、转让及咨询服务；企业自产产品运输、配送。（依法须经批准的项目，经相关部门批准后方可开展经营活动）,2019-06-20,33345990,sxkh3330666@vip.sina.com,,2020-07-18,医药制造业,化学药品制剂制造,,大健康,2019-09-16 13:28:45,2019-09-16 13:28:45,0,1,咸阳市,http://www.xkh.com/
254,da7fc268-d842-11e9-80c9-fa163e3115c2,91320600608304061J,320000400000850,608304061,存续（在营、开业、在册）,312156.695600万人民币,俞熔,科学研究和技术服务业,1991-01-22,1991-01-22,,江苏省,南通市行政审批局,股份有限公司(上市),美年大健康产业控股股份有限公司,江苏南通市人民东路218号,从事医疗技术专业领域内的技术开发、技术咨询、技术转让、技术服务；投资管理；健康管理咨询（不得从事医疗活动、心理咨询）；设计、生产、销售各式服装、服饰及原辅材料；纺织服装类产品的科技开发；自营和代理上述商品的进出口业务。（依法须经批准的项目，经相关部门批准后方可开展经营活动）,2019-06-30,021-55609900,meinianlaw@health-100.cn,江苏三友集团股份有限公司,长期,研究和试验发展,医学研究和试验发展,,大健康,2019-09-16 13:28:46,2019-09-16 13:28:46,0,1,南通市,http://www.sanyougroup.com
255,dad2782e-d842-11e9-80c9-fa163e3115c2,914600002012808546,460000000134920,201280854,存续（在营、开业、在册）,89882.220400万,贾岩燕,租赁和商务服务业,1987-08-28,1987-08-28,,海南省,海南省市场监督管理局,股份有限公司(上市),国新健康保障服务集团股份有限公司,海口市文华路18号君华海逸酒店703室,健康管理、慢性疾病管理网络系统的开发及维护；健康干预、健康咨询服务；健康科技项目开发；健康产品研发；互联网信息服务；互联网公共服务平台；互联网数据服务；软件开发；集成电路设计；信息系统集成和物联网技术服务；软件和信息技术的运行维护；信息处理和存储支持服务；信息技术咨询服务；电子商务网络经营；网络信息服务；第二类增值电信业务中的信息服务业务（不含固定网电话信息服务）；网络工程项目投资；网络工程设计、安装、维护；技术开发及转让；网络软、硬件及配套设备、元器件的销售；资产管理（不含金融资产）；投资策划咨询服务；旅游资源开发。,2019-04-04,68510128,ir@searainbow.com,海虹企业(控股)股份有限公司,长期,商务服务业,企业管理服务,,大健康,2019-09-16 13:28:46,2019-09-16 13:28:46,0,1,海口市,www.searainbow.com
256,db239269-d842-11e9-80c9-fa163e3115c2,91310000607601064L,310112000078806,607601064,存续（在营、开业、在册）,62833.704000万人民币,郑效东,科学研究和技术服务业,1993-12-25,1993-12-25,,上海市,上海市工商行政管理局,其他股份有限公司(上市),上海东富龙科技股份有限公司,上海市闵行区都会路1509号4幢,化工机械、生物医药机械、仪表自动化、制药工程科技咨询、技术开发、转让、服务、自身开发产品销售、代购代销，从事货物及技术的进出口业务，环保设备销售，消毒产品研发及销售。【依法须经批准的项目，经相关部门批准后方可开展经营活动】,1993-12-25,021-64906201,dfl@tofflon.com,,长期,科技推广和应用服务业,技术推广服务,闵行区,大健康,2019-09-16 13:28:47,2019-09-16 13:28:47,0,1,上海市,www.tofflon.com
257,db80b688-d842-11e9-80c9-fa163e3115c2,91430100743176293C,430124000003013,743176293,存续（在营、开业、在册）,46788.736300万人民币,唐岳,制造业,2002-11-08,2002-11-08,,湖南省,长沙市市场监督管理局,股份有限公司(上市、自然人投资或控股),楚天科技股份有限公司,宁乡县玉潭镇新康路1号,机电产品、水处理设备的研发；印刷、制药、日化及日用品生产专用设备、干燥设备、压力管道及配件、食品、酒、饮料及茶生产专用设备、水处理设备、工业自动控制系统装置、空气净化设备的制造；压力管道及配件、专用设备、水处理设备、机电设备、机电产品、通用机械设备的销售；电子自动化工程、机电设备的安装服务；工业、机械工程的设计服务；压力管道的改造、维修；应用软件、支撑软件的开发；信息系统工程的咨询、规划；机电设备的维修及保养服务；软件技术服务；软件开发系统集成服务；工程技术咨询服务；信息技术咨询服务；信息系统集成服务；灭菌行业相关软件技术服务；房屋租赁；机械设备租赁；医疗设备租赁服务；机电设备安装工程专业承包；工程总承包服务；压力管道设计；压力容器的安装；管道和设备安装；机电生产、加工；洁净净化工程设计与施工；专业技术认证；智能机器的研发、生产、销售、运营；工程项目管理服务；水处理设备的安装；工程管理服务；电子与智能化工程专业承包；工程施工总承包；自营和代理各类商品及技术的进出口，但国家限定公司经营或禁止进出口的商品和技术除外。（依法须经批准的项目，经相关部门批准后方可开展经营活动）,2019-06-25,0731-87938200,zhouy1@truking.cn,,长期,通用设备制造业,烘炉、风机、衡器、包装等设备制造,宁乡县,大健康,2019-09-16 13:28:47,2019-09-16 13:28:47,0,1,长沙市,www.truking.cn
258,dbd282a9-d842-11e9-80c9-fa163e3115c2,91330000683124669E,330324000025351,683124669,存续,25831.950000万人民币,方亨志,制造业,2008-12-15,2008-12-15,,浙江省,浙江省市场监督管理局,其他股份有限公司(上市),浙江迦南科技股份有限公司,浙江省温州市永嘉县瓯北镇东瓯工业园区,制药设备研发、生产、销售、安装、维修、技术咨询、技术服务，机械设备、仪器仪表、集成电路、普通管道及配件的研发、销售、安装、维修、技术咨询、技术服务，自动化控制系统、信息系统的研发、安装、技术咨询、技术服务，新能源的技术研发、技术咨询与服务及相关产品的销售、安装、运行维护，光伏发电，售电服务（凭许可证经营），药物的研究开发，软件开发、技术咨询、技术服务，货物进出口、技术进出口（法律、法规禁止的不得经营，应经审批的未获审批前不得经营）。（依法须经批准的项目，经相关部门批准后方可开展经营活动）,2019-08-01,0577-67378804,jianan@china-jianan.com,,长期,专用设备制造业,印刷、制药、日化及日用品生产专用设备制造,永嘉县,大健康,2019-09-16 13:28:48,2019-09-16 13:28:48,0,1,温州市,http://www.china-jianan.com
259,dc44f309-d842-11e9-80c9-fa163e3115c2,91430000743169683T,430000000009813,743169683,存续（在营、开业、在册）,36143.492000万人民币,刘祥华,制造业,2002-10-24,2002-10-24,,湖南省,衡阳市市场监督管理局,股份有限公司(上市、自然人投资或控股),湖南千山制药机械股份有限公司,湖南省衡阳市高新技术产业开发区蔡伦路10号,制造、销售制药机械、食品饮料机械、包装机械及备品备件、包装材料；销售电器及法律法规和政策允许的金属材料；提供制药机械维修、技术咨询服务；自营和代理各类商品和技术的进出口，但国家限定公司经营或禁止进出口的商品和技术除外。健康管理，营养健康咨询服务；医疗咨询（不含医疗诊断）；互联网信息服务；药品、医疗器械互联网信息服务；电信代办业务；软件服务。医疗器械；药品、生物试剂研发。（依法须经批准的项目，经相关部门批准后方可开展经营活动）,2019-08-08,13874981233,chinasun@chinasun.com.cn,,长期,专用设备制造业,印刷、制药、日化及日用品生产专用设备制造,,大健康,2019-09-16 13:28:49,2019-09-16 13:28:49,0,1,衡阳市,http://www.chinasun.com.cn
260,dc9fd340-d842-11e9-80c9-fa163e3115c2,914201007310624752,420100000246269,731062475,存续（在营、开业、在册）,6000.000000万元人民币,彭国红,科学研究和技术服务业,2001-09-28,2001-09-28,2021-09-27,湖北省,武汉东湖新技术开发区市场监督管理局,其他股份有限公司(非上市),武汉奇致激光技术股份有限公司,武汉市东湖新技术开发区光谷大道3号激光工程设计总部二期研发楼06幢06单元3-5层、07幢07单元3-4层,激光设备、医疗器械等相关技术的开发、研制、技术服务；开发产品的生产及销售；经营医疗器械产品一、二、三类；生产医疗器械产品，三类：医用激光仪器设备；二类：物理治疗及康复设备；自动化设备、医疗设备的租赁及维修；经营本企业和成员企业自产产品及技术的出口业务；经营本企业和成员企业科研生产所需的原辅材料、仪器仪表、机械设备、零配件及技术的进口业务（国家限定公司经营和国家禁止进出口的商品除外）；化妆品批发及零售。（依法须经审批的项目，经相关部门审批后方可开展经营活动）,2017-09-25,027-87429381,xz@miraclelaser.com,武汉奇致激光技术有限公司,2021-09-27,专业技术服务业,其他专业技术服务业,,大健康,2019-09-16 13:28:49,2019-09-16 13:28:49,0,1,武汉市,www.miraclelaser.com
261,82ffdd35-d850-11e9-80c9-fa163e3115c2,91110105746102505M,110000410180068,746102505,开业,2831.161600万人民币,熊振宏,科学研究和技术服务业,2003-01-27,2003-01-27,,北京市,北京市工商行政管理局朝阳分局,其他股份有限公司(非上市),爱科凯能科技（北京）股份有限公司,北京市朝阳区酒仙桥东路1号院8号楼5层503室,研发光电子技术；转让自有技术；提供相关的技术维护、技术咨询、技术培训；货物进出口；技术进出口；医疗器械Ⅱ类的批发；销售自产产品；生产医疗器械：Ⅲ类：Ⅲ-01-02激光手术设备及附件，Ⅲ-01-09内窥镜手术用有源设备（医疗器械生产许可证有效期至2020年08月05日）；销售Ⅲ类医疗器械。（企业依法自主选择经营项目，开展经营活动；销售Ⅲ类医疗器械以及依法须经批准的项目，经相关部门批准后依批准的内容开展经营活动；不得从事本市产业政策禁止和限制类项目的经营活动。）,2019-07-17,010-64392084,atoffice@acuretech.com,爱科凯能科技（北京）有限公司,长期,科技推广和应用服务业,其他科技推广和应用服务业,朝阳区,大健康,2019-09-16 15:06:31,2019-09-16 15:06:31,0,1,北京市,www.accu-tech.com.cn
262,dd51c0b6-d842-11e9-80c9-fa163e3115c2,91420100764642732E,420100000123068,764642732,存续（在营、开业、在册）,2374.400000万元人民币,张家荣,科学研究和技术服务业,2004-09-03,2004-09-03,,湖北省,武汉经济技术开发区(汉南区)行政审批局,股份有限公司(非上市、自然人投资或控股),武汉亚格光电技术股份有限公司,武汉市经济技术开发区珠山湖大街9MC号,激光设备、光、电子产品、机电产品、美容仪器、美容产品、科教设备、模具、塑料制品的研发、生产、批发、零售、维修、技术服务（不含重要工业产品、特种设备、医疗器械、化妆品及食品）；计算机软件产品及嵌入式软件产品的研发、生产、批发、零售、技术服务；技术进出口、货物进出口（不含国家禁止或限制进出口的货物或技术）；自有厂房、办公楼对外租赁；机械设备租赁；医疗器械一、二、三类的研发、生产、批发、零售、维修、技术服务。（依法须经审批的项目，经相关部门审批后方可开展经营活动）,2018-06-06,027-84472573,mail@yagelaser.com,武汉亚格光电技术有限公司,长期,科技推广和应用服务业,其他科技推广和应用服务业,,大健康,2019-09-16 13:28:50,2019-09-16 13:28:50,0,1,武汉市,www.yagelaser.com
263,dda5eaa9-d842-11e9-80c9-fa163e3115c2,91420100771357198Q,420103000026797,771357198,存续（在营、开业、在册）,2779.920000万元人民币,冯勇华,批发和零售业,2005-01-21,2005-01-21,,湖北省,武汉东湖新技术开发区,股份有限公司(非上市、自然人投资或控股),湖北益健堂科技股份有限公司,武汉市东湖新技术开发区光谷大道62号关南福星医药园7幢8层1-8号房,医疗器械、消毒用品的研发、生产及批发兼零售；机器人的研发、生产及批发兼零售；电子产品（不含电子出版物）的生产及批发兼零售；物联网医疗技术研发及技术应用；云计算技术研发及系统集成；计算机软件的技术开发、技术转让、技术服务及批发兼零售；健康管理；健康咨询（不含诊疗）；互联网信息服务(凭许可证在核定期限内经营）；市场营销策划；预包装食品、保健食品、日用百货的批发兼零售(凭许可证在核定期限内经营）；货物进出口（不含国家禁止或限制进出口的货物）。（依法须经审批的项目，经相关部门审批后方可开展经营活动）,2019-08-16,027-87771580,1963883714@qq.com,武汉海纳川科技有限公司,长期,批发业,医药及医疗器材批发,,大健康,2019-09-16 13:28:51,2019-09-16 13:28:51,0,1,武汉市,www.hnc.cn
264,ddf9b363-d842-11e9-80c9-fa163e3115c2,91340100743098352K,340100000010760,743098352,存续（在营、开业、在册）,6864.030000万,吴定刚,制造业,2002-10-29,2002-10-29,,安徽省,合肥市经济开发区市场监督管理局,其他股份有限公司(非上市),中科美菱低温科技股份有限公司,合肥市经济技术开发区紫石路1862号,低温制冷设备和产品的研制、开发、生产、销售及服务；医疗器械二类：6858医用冷疗、低温、冷藏设备及器具的研制、生产、销售及服务；计算机网络系统集成；智能产品系统集成；软件开发、技术信息服务；电子产品、自动化设备开发、生产、销售及服务；制冷工程设备安装、调试、维护、租赁及销售；冷链运输车、冷藏冷冻车的销售服务；冷链保温箱的开发、生产、销售及服务；冷库、商用冷链产品开发、生产、销售、租赁及仓储（除危险品）服务；液氮生物容器及配件开发、生产、销售及服务；家用健康产品的开发、生产、销售及服务；医用耗材、实验室耗材、监控产品的开发、生产、销售及服务；钣金及机电、机械配件加工、销售；金属材料销售；自营和代理各类商品和技术进出口业务（国家限定企业经营或禁止进出口的商品和技术除外）。（依法须经批准的项目，经相关部门批准后方可开展经营活动）,2018-12-27,0551-62219652,yanrong@zkmeiling.com,中科美菱低温科技有限责任公司,长期,通用设备制造业,锅炉及原动设备制造,,大健康,2019-09-16 13:28:51,2019-09-16 13:28:51,0,1,合肥市,www.zkmeiling.com
265,de65c438-d842-11e9-80c9-fa163e3115c2,913411007749613667,341181000002391,774961366,在营（开业）,5890.000000,钱文鑫,日用化工专用设备制造,2005-05-16,2005-05-16,2060-12-20,安徽省,滁州市市场监督管理局,股份有限公司(非上市、自然人投资或控股),华盛科技控股股份有限公司,安徽省天长市天扬路666号,智慧实验室成套装备制造、销售；智能控制系统研发、实验室检测服务；净化空调设备通风系统、CIT节能控制系统研发设计；恒温恒湿系统、废水废气处理系统的研发、销售；建筑智能化设计与施工一体化，二级空气净化和实验室装饰装修工程、环保工程专业承包、建筑装饰装修工程专业承包、机电设备安装工程专业承包、城市亮化灯饰工程；医用高分子绷带、医用高分子夹板、一类、二类、三类医疗器械生产和销售（上述经营范围凭许可证在有效期内经营）；化验仪器、机电产品加工、制造和销售；安防系统产品销售；气体管路、新材料、电子产品、实验室机器人设备研发、计算机软件开发、云存储、云计算、视频网络技术工程承包；经营和代理各类商品及技术的进出口业务（国家禁止和限定进出口的商品和技术除外）。（依法须经批准的项目，经相关部门批准后方可开展经营活动）,2019-06-13,7302555,,,2060-12-20,,,天长市,大健康,2019-09-16 13:28:52,2019-09-16 13:28:52,0,1,滁州市,
266,deb30493-d842-11e9-80c9-fa163e3115c2,91110113053639262T,110114015201879,053639262,开业,1100.000000万人民币,李妍,科学研究和技术服务业,2012-08-30,2012-08-30,,北京市,北京市工商行政管理局顺义分局,股份有限公司(非上市、自然人投资或控股),北京众拓联科技股份有限公司,北京市顺义区赵全营镇兆丰产业基地园盈路7号,生物技术推广服务；货物进出口、技术进出口、代理进出口；组织文化艺术交流活动（不含演出）；承办展览展示；会议服务；销售医疗器械Ⅰ类、计算机、软件及辅助设备、电子产品、家用电器、五金交电、日用品、文化用品、塑料制品、玻璃制品；设计软件；零售生物试剂（不含药品、危险化学品）。（企业依法自主选择经营项目，开展经营活动；依法须经批准的项目，经相关部门批准后依批准的内容开展经营活动；不得从事本市产业政策禁止和限制类项目的经营活动。）,2017-03-08,53965184,zhongtuolian@126.com,北京众拓联科技发展有限公司,长期,科技推广和应用服务业,技术推广服务,顺义区,大健康,2019-09-16 13:28:53,2019-09-16 13:28:53,0,1,北京市,http://www.zhongtuolian.com
267,df032e50-d842-11e9-80c9-fa163e3115c2,91320200560333890T,320213000140512,560333890,存续（在营、开业、在册）,540.000000万人民币,冯伟江,科学研究和技术服务业,2010-08-25,2010-08-25,,江苏省,无锡市行政审批局,股份有限公司(非上市、自然人投资或控股),无锡兰桂医疗股份有限公司,无锡市新区新洲路210号,药房自动化设备的技术开发、技术咨询、技术转让、技术服务、生产与销售；医疗器械的研发、生产、销售；电气机械及配件的销售；制药专用设备、医疗实验室及医用消毒设备和器具的制造；机械零部件加工；计算机网络工程服务；自营和代理各类商品和技术的进出口（国家限定企业经营或禁止进出口的商品和技术除外）。（依法须经批准的项目，经相关部门批准后方可开展经营活动）,2019-06-28,0510-88155333,196710953@qq.com,无锡兰桂联芳医疗科技有限公司,长期,研究和试验发展,工程和技术研究和试验发展,,大健康,2019-09-16 13:28:53,2019-09-16 13:28:53,0,1,无锡市,www.lglf.com.cn
268,df532a37-d842-11e9-80c9-fa163e3115c2,913201913023164302,320191000033439,302316430,存续（在营、开业、在册）,1480.000000万人民币,徐念沁,科学研究和技术服务业,2014-04-17,2014-04-17,,江苏省,南京市江北新区管理委员会市场监督管理局,股份有限公司(非上市),南京三生生物技术股份有限公司,南京江北新区星火路10号鼎业百泰生物大楼A座601室,生物制品、生物试剂（不含化学危险品）、医疗器械的研发、生产和销售；实验仪器仪表、实验试剂耗材、医疗仪器设备的销售；生物技术领域新产品、新工艺、新技术的研究开发及成果产业化；细胞技术的研究、开发；生物芯片、生物制品、医疗器械、保健食品、免疫系统、基因工程的技术服务及信息的咨询服务；投资及投资管理。（依法须经批准的项目，经相关部门批准后方可开展经营活动）,2018-12-29,13390785460,3090013712@qq.com,南京三生生物技术有限公司,长期,研究和试验发展,医学研究和试验发展,,大健康,2019-09-16 13:28:54,2019-09-16 13:28:54,0,1,南京市,
269,dfaae0a1-d842-11e9-80c9-fa163e3115c2,911201027384763638,120102000038737,738476363,存续（在营、开业、在册）,1000.000000万人民币,蔡凌,制造业,2002-06-03,2002-06-03,,天津市,天津市市场和质量监督管理委员会,股份有限公司,天津欧诺仪器股份有限公司,天津市河东区十一经路68号A201室,制造、加工：电子仪器、仪表、仪器设备、电子原器件；一类医疗器械生产、销售、维修；二类医疗器械生产、销售、维修；批发和零售业；技术推广服务业、机电设备维修、自有房屋租赁、化工产品销售（危险品和易制毒品除外）（依法须经批准的项目，经相关部门批准后方可开展经营活动）,2016-08-01,18522564973,1712322052@qq.com,天津市欧诺仪器仪表有限公司,长期,仪器仪表制造业,通用仪器仪表制造,河东区,大健康,2019-09-16 13:28:54,2019-09-16 13:28:54,0,1,天津市,www.ounuoyq.com
270,e009b207-d842-11e9-80c9-fa163e3115c2,91370100560778232M,370127400000209,560778232,在营（开业）企业,3000.000000万人民币,XUELIN LI,制造业,2010-11-10,2010-11-10,,山东省,济南市市场监督管理局,股份有限公司(中外合资、未上市),山东巴罗克生物科技股份有限公司,济南市高新区颖秀路2766号401、402室,生物制品的技术开发、转让、咨询、服务；生物制品、体外诊断试剂的生产、销售；实验室设备的生产、销售；实验室管理软件的开发、销售；进出口业务。（依法须经批准的项目，经相关部门批准后方可开展经营活动）,2019-08-30,18615655263,business@biologixgroup.com,巴罗克（济南）生物技术有限公司,长期,仪器仪表制造业,通用仪器仪表制造,,大健康,2019-09-16 13:28:55,2019-09-16 13:28:55,0,1,济南市,http://biologix.cn/
271,accc9f37-4bc2-11e9-a8b1-fa163e5275a2,914405001959930485,440000000016442,195993048,存续,62692.6827万元人民币,陈奕民,制造业,1993-02-19,1993-02-19,,广东省,汕头市工商行政管理局,其他股份有限公司(上市),宜华健康医疗股份有限公司,广东省汕头市澄海区文冠路北侧,医院后勤管理服务，医疗行业计算机软硬件的技术开发，养老产业项目投资、策划、服务；绿色有机食品产业项目投资、开发；节能环保产业项目投资、开发，高新技术产品项目投资、开发；医疗器械经营；对外投资；项目投资；资本经营管理和咨询。(依法须经批准的项目，经相关部门批准后方可开展经营活动)〓,2018-08-27,0754-85899188,279390672@qq.com,宜华地产股份有限公司,长期,仪器仪表制造业,光学仪器及眼镜制造,澄海区,大健康,2019-03-21 18:18:31,2019-03-21 18:18:31,0,0,汕头市,http://www.yihuarealetate.com/
272,e07a0ec1-d842-11e9-80c9-fa163e3115c2,9153000021652214XX,530000000023196,21652214X,存续（在营、开业、在册）,104139.971800万人民币,王明辉,批发和零售业,1993-11-30,2000-05-24,,云南省,云南省市场监督管理局,其他股份有限公司(上市),云南白药集团股份有限公司,云南省昆明市呈贡区云南白药街3686号,化学原料药、化学药制剂、中成药、中药材、生物制品、医疗器械、保健食品、食品、饮料、特种劳保防护用品、非家用纺织成品、日化用品、化妆品、户外用品的研制、生产及销售；橡胶膏剂、贴膏剂、消毒产品、电子和数码产品的销售；信息技术、科技及经济技术咨询服务；货物进出口；物业经营管理（凭资质证开展经营活动）。（依法须经批准的项目，经相关部门批准后方可开展经营活动）,2016-05-30,0871-66350538,ynby@ynby.cn,,长期,批发业,医药及医疗器材批发,呈贡区,大健康,2019-09-16 13:28:56,2019-09-16 13:28:56,0,1,昆明市,http://www.yunnanbaiyao.com.cn
273,e0de6ccc-d842-11e9-80c9-fa163e3115c2,91330000143083157E,330000000049286,143083157,存续,174980.954800万人民币,吕梁,制造业,1993-03-31,1993-03-31,,浙江省,浙江省市场监督管理局,其他股份有限公司(上市),华东医药股份有限公司,浙江省杭州市延安路468号1号楼1号门7、9、10楼,"药品的生产、经营（具体范围见许可证，涉及危险品的限下属分支机构凭证经营）；预包装食品销售（《食品经营许可证》），第二类增值电信业务（范围详见《中华人民共和国增值电信业务经营许可证》），互联网药品交易服务（《中华人民共和国互联网药品交易服务资格证书》），货运（凭许可证经营）。健字号滋补品、保健品的销售（限下属分支机构凭证经营），消字号及杀字号用品、医疗器械、玻璃仪器、日用化学品、家用电器、农副产品（不含食品）、百货、土特产品、工艺美术品、针纺织品、医疗器械、实验仪器、诊断仪器的维修和化妆品、化学试剂（不含危险品及易制毒化学品）、眼镜、初级食用农产品、食品添加剂的批发零售，仓储服务（不含危险品），医药咨询服务，经营进出口业务,老年人护理服务（除医疗）。（依法须经批准的项目，经相关部门批准后方可开展经营活动）",2019-07-05,0571-89903300,hz000963@126.com,杭州华东医药股份有限公司,长期,医药制造业,中药饮片加工,,大健康,2019-09-16 13:28:56,2019-09-16 13:28:56,0,1,杭州市,http://www.eastpharm.com/
274,e158834d-d842-11e9-80c9-fa163e3115c2,9142000071451795XA,420000400000103,71451795X,存续（在营、开业、在册）,187766.361300万元人民币,刘宝林,批发和零售业,1999-03-09,1999-03-09,,湖北省,湖北省市场监督管理局,股份有限公司(中外合资、上市),九州通医药集团股份有限公司,湖北省武汉市汉阳区龙阳大道特8号,批发中药饮片、中成药、中药材、化学药制剂、抗生素制剂、抗生素原料药、生化药品、生物制品、化学原料药、医疗用毒性药品（中西药）、精神药品（一类、二类）、体外诊断试剂、麻醉药品、蛋白同化剂、肽类激素；批发危险化学品；消毒品；销售一、二、三类医疗器械（含体外诊断试剂）；药品的包装材料和容器；医药中间体；化学试剂；中药材种植、中药研究、中药产业投资咨询（不含证劵投资咨询）、批零兼营化妆品、日用百货、农副土特产品、日用家电、五金、玩具、酒类、电子和数码产品；销售预包装食品（含冷藏冷冻食品）；特殊食品销售（保健食品、特殊医学用途配方食品、婴幼儿配方乳粉、其他婴幼儿配方食品）；各类技术和商品的进出口（国家法律法规规定需要获得批准后方可经营的商品和技术除外）；仓储设施建设与经营、物流技术开发与服务、信息咨询与服务。租赁一、二、三类医疗器械（含体外），医疗器械咨询、安装、检测、维修服务，自有房屋租赁、设备租赁，企业管理软件的销售与售后服务；添加剂的销售、农药销售；药用辅料和化工产品（不含危化品）;热食类食品制售。（涉及许可经营项目，应取得相关部门许可后方可经营）,2019-07-29,027-84683017,28888829@qq.com,,长期,批发业,医药及医疗器材批发,汉阳区,大健康,2019-09-16 13:28:57,2019-09-16 13:28:57,0,1,武汉市,http://www.jztey.com/
275,e1b480fa-d842-11e9-80c9-fa163e3115c2,91440300192186267U,440301103040048,192186267,存续（在营、开业、在册）,42812.698300万人民币,林兆雄,制造业,1986-08-02,1986-08-02,,广东省,福田局,股份有限公司(上市),国药集团一致药业股份有限公司,深圳市福田区八卦四路15号一致药业大厦,药用包装材料及医药工业产品研究与开发、咨询服务；投资兴办实业（具体项目另行申报）；国内商业、物资供销业（不含专营、专控、专卖商品）；救护车销售；经营进出口业务（法律、行政法规、国务院决定禁止的项目除外，限制的项目须取得许可后方可经营）；房屋租赁、物业管理服务；供应链管理；仓储代理服务；物流代理服务；道路货物运输代理；装卸搬运；运输货物打包服务；会议及展览服务。^中药饮片、中成药、化学原料药、化学药制剂、抗生素原料药、抗生素制剂、生化药品、生物制品（含疫苗和体外诊断试剂）、第二类精神药品（制剂）、麻醉药品、第一类精神药品（区域批发性企业）、医疗用毒性药品、蛋白同化制剂、肽类激素的批发；保健食品经营；经营二类、三类医疗器械；其他仓储业（不含原油、成品油仓储、燃气仓储、危险品仓储）。,2018-07-19,0755-25875149,1278429571@qq.com,"深圳一致药业股份有限公司,深圳市益力矿泉水有限公司,深圳市益力矿泉水股份有限公司,深圳市矿泉水厂",长期,医药制造业,卫生材料及医药用品制造,福田区,大健康,2019-09-16 13:28:58,2019-09-16 13:28:58,0,1,深圳市,
276,e209ad00-d842-11e9-80c9-fa163e3115c2,914201003000148505,420100000011675,300014850,存续（在营、开业、在册）,135370.430200万元人民币,王学海,科学研究和技术服务业,1993-03-30,1993-03-30,,湖北省,武汉东湖新技术开发区,股份有限公司(上市),人福医药集团股份公司,武汉东湖高新区高新大道666号,药品研发；生物技术研发；化工产品（化学危险品除外）的研发、销售；技术开发、技术转让及技术服务；货物进出口、技术进出口、代理进出口（不含国家禁止或限制进出口的货物或技术）；对医药产业、医疗机构的投资；对医药产业、医疗机构的管理；房地产开发、商品房销售（资质叁级）；组织“三来一补”业务。（依法须经审批的项目，经相关部门审批后方可开展经营活动）,2017-12-07,027-87596302,renfu.fwb@renfu.com.cn,,长期,专业技术服务业,其他专业技术服务业,,大健康,2019-09-16 13:28:58,2019-09-16 13:28:58,0,1,武汉市,www.renfu.com.cn
277,e25e463a-d842-11e9-80c9-fa163e3115c2,911100001000265317,110000011645011,100026531,开业,106848.553400万人民币,高渝文,批发和零售业,1997-05-08,1997-05-08,,北京市,北京市工商行政管理局东城分局,股份有限公司(上市、国有控股),中国医药健康产业股份有限公司,北京市东城区光明中街18号,批发中成药、中药材、中药饮片、化学药制剂、化学原料药、抗生素、生化药品、生物制品、体外诊断试剂、毒性中药材、毒性中药饮片；销售医疗器械III、II类：眼科手术器械；矫形外科（骨科）手术器械；计划生育手术器械；注射穿刺器械；医用电子仪器设备；医用光学器具、仪器及内窥镜设备；医用超声仪器及有关设备；医用激光仪器设备；医用高频仪器设备；物理治疗及康复设备；中医器械；医用磁共振设备；医用X射线设备；医用X射线附属设备及部件；医用高能射线设备；医用核素设备；医用射线防护用品、装置；临床检验分析仪器；体外诊断试剂；体外循环及血液处理设备；植入材料和人工器官；手术室、急救室、诊疗室设备及器具；病房护理设备及器具；医用冷疗、低温、冷藏设备及器具；口腔科材料；医用卫生材料及敷料；医用缝合材料及粘合剂；医用高分子材料及制品；II类：显微外科手术器械；耳鼻喉科手术器械；口腔科手术器械；泌尿肛肠外科手术器械；妇产科用手术器械；普通诊察器械；口腔设备及器具；消毒和灭菌设备及器具；批发（非实物方式）预包装食品、乳制品（含婴幼儿配方乳粉）；对外派遣实施境外工程所需的劳务人员；加工中药饮片（仅限分公司经营）；进出口业务；经营国际招标采购业务，承办国际金融组织贷款项下的国际招标采购业务；经营高新技术及其产品的开发；承包国（境）外各类工程和境内国际招标工程；汽车的销售；种植中药材；销售谷物、豆类、薯类、饲料、化工产品（危险化学品及一类易制毒化学品除外）；仓储服务；租赁机械设备。（企业依法自主选择经营项目，开展经营活动；依法须经批准的项目，经相关部门批准后依批准的内容开展经营活动；不得从事本市产业政策禁止和限制类项目的经营活动。）,2018-07-25,010-67164267,Meheco600056@meheco.com.cn,中国医药保健品股份有限公司,长期,批发业,医药及医疗器材批发,东城区,大健康,2019-09-16 13:28:59,2019-09-16 13:28:59,0,1,北京市,www.meheco.cn
278,e2b197eb-d842-11e9-80c9-fa163e3115c2,91370000766690447B,,766690447,在营（开业）企业,150471.047100万人民币,韩旭,批发和零售业,2004-09-21,2004-09-21,,山东省,烟台市市场监督管理局,股份有限公司(台港澳与境内合资、上市),瑞康医药集团股份有限公司,烟台市芝罘区机场路326号,中药材、中药饮片、中成药、化学原料药、化学药制剂、抗生素、生化药品、生物制品（除疫苗）、精神药品、麻醉药品、蛋白同化制剂、肽类激素、医疗用毒性药品、罂粟壳、药品类易制毒化学品的批发；Ⅱ、Ⅲ类医疗器械的批发，Ⅰ类医疗器械的批发、零售；预包装食品（含冷藏冷冻食品）销售，婴幼儿配方乳粉，其他婴幼儿配方食品，保健食品销售，特殊医学用途配方食品销售；日用品、健身器械、化妆品、消毒液的销售；药品的仓储、配送，普通货运，货物专用运输（冷藏保鲜）；医用织物的生产加工、租赁、销售及洗涤配送；玻璃仪器、化工产品（不含危险化学品）、化学试剂（不含危险化学品）的批发；医疗器械租赁和技术服务；仓储服务（国家专项规定除外）；经济贸易咨询；电子产品的销售；医疗设备维修保养；中药材加工。（依法须经批准的项目，经相关部门批准后方可开展经营活动）,2019-03-15,0535-6735656,stock@realcan.cn,"山东瑞康医药股份有限公司,瑞康医药股份有限公司",长期,批发业,医药及医疗器材批发,芝罘区,大健康,2019-09-16 13:28:59,2019-09-16 13:28:59,0,1,烟台市,http://www.realcan.cn
279,e302eb68-d842-11e9-80c9-fa163e3115c2,91500000203296235J,500000000003898,203296235,存续(在营、开业、在册),172818.469600万,刘绍云,租赁和商务服务业,1999-05-28,1999-05-28,,重庆市,重庆市市场监督管理局,股份有限公司(上市公司),重药控股股份有限公司,重庆市渝北区金石大道333号,利用自有资金对医药研发及销售项目、养老养生项目、健康管理项目、医院及医院管理项目进行投资（不得从事吸收公众存款或变相吸收公众存款、发放贷款以及证券、期货等金融业务，不得从事个人理财服务，法律、行政法规规定需经审批的未获审批前不得经营），药品研发，道路普通货物运输，国际国内货物运输代理，仓储服务（不含危险品存储），自有房屋租赁，货物及技术进出口，医院管理，健康管理。（依法须经批准的项目，经相关部门批准后方可开展经营活动）,2019-03-13,023-63910671,000950@cq-p.com.cn,重庆建峰化工股份有限公司,长期,商务服务业,企业管理服务,渝北区,大健康,2019-09-16 13:29:00,2019-09-16 13:29:00,0,1,重庆市,http://www.jfhggf.com/
280,e37b04af-d842-11e9-80c9-fa163e3115c2,91330000704676287N,330000000037277,704676287,存续,96553.184200万人民币,蒋国平,制造业,1998-02-11,1998-02-11,9999-09-09,浙江省,浙江省市场监督管理局,其他股份有限公司(上市),浙江海正药业股份有限公司,浙江省台州市椒江区外沙路46号,药品的生产（范围详见《中华人民共和国药品生产许可证》），兽药的生产、销售（生产范围详见（中华人民共和国兽药生产许可证》；兽药销售范围详见(《中华人民共和国兽药经营许可证》）。经营进出口业务，医药相关产业产品及健康相关产业产品的研发、技术服务，翻译服务，信息技术服务，培训服务（不含办班培训）。,2019-05-23,0576-88827890,bgs@hisunpharm.com,,长期,医药制造业,化学药品原料药制造,椒江区,大健康,2019-09-16 13:29:01,2019-09-16 13:29:01,0,1,台州市,http://www.hisunpharm.com
281,e3d37dd1-d842-11e9-80c9-fa163e3115c2,91440300192444086R,440301102909015,192444086,存续（在营、开业、在册）,276258.325700万人民币,张思民,制造业,1992-12-13,1992-12-13,2042-11-14,广东省,深圳市市场监督管理局,股份有限公司(上市),深圳市海王生物工程股份有限公司,深圳市南山区科技中三路1号海王银河科技大厦24层,生产经营生物化学原料、制品、试剂及其它相关制品(以上不含专营、专控和专卖商品)；自营进出口业务（按深贸管登证字第70号文规定执行）；开发生物化学产品和其他相关制品；投资兴办实业（具体项目另行申报）；房屋租赁；信息咨询；医药专业领域内技术转让，技术咨询，技术服务。（以上项目不涉及外商投资准入特别管理措施）预包装食品（不含复热预包装食品）、乳制品（含婴幼儿配方乳粉）批发。,2019-03-04,0755-26968666,chenjm@neptunus.com,"深圳市海王生物工程有限公司,深圳蛇口海王生物工程有限公司",2042-11-14,医药制造业,生物药品制造,南山区,大健康,2019-09-16 13:29:01,2019-09-16 13:29:01,0,1,深圳市,
282,e439f8a5-d842-11e9-80c9-fa163e3115c2,91450200198592223L,450200200002273,198592223,存续（在营、开业、在册）,25907.344100万,朱朝阳,批发和零售业,1981-12-23,1981-12-23,,广西壮族自治区,柳州市市场监督管理局,其他股份有限公司(上市),广西柳州医药股份有限公司,柳州市官塘大道68号,药品的批发（凭许可证在有效期内经营，具体项目以审批部门批准的为准）；预包装食品、保健食品、乳制品（含婴幼儿配方乳粉）、特殊医学用途配方食品零售兼批发；Ⅰ、Ⅱ、Ⅲ类医疗器械的批发兼零售；消杀用品（危险化学品除外）、润滑油、玻璃仪器、化学试剂、化妆品、防疫用品、日用百货的销售；包装材料的销售；计量器具和衡器、文化体育用品、健身器材、家用电器、农副产品、服装的销售；道路普通货物运输、货物专用运输（冷藏保鲜设备）；货物运输代理及仓储服务；装卸搬运；医院药库管理服务；商务服务；营养健康咨询服务；医疗设备维修、医疗设备租赁服务；办公室设备租赁服务；房屋租赁，场地出租；医药企业管理策划，医药技术信息咨询，计算机软硬件、网络、信息技术服务；会议展览服务。,2018-06-06,0772-2520703,285078467@qq.com,"广西壮族自治区柳州医药批发站,广西柳州医药有限责任公司",长期,批发业,医药及医疗器材批发,,大健康,2019-09-16 13:29:02,2019-09-16 13:29:02,0,1,柳州市,http://www.lzyy.cn
283,e4955d62-d842-11e9-80c9-fa163e3115c2,91520000709593915G,520000000025003,709593915,存续（在营、开业、在册）,166722.861100万人民币,安怀略,制造业,1995-01-27,1995-01-27,,贵州省,贵州省市场监督管理局,股份有限公司(中外合资、上市),贵州信邦制药股份有限公司,贵州省黔南布依族苗族自治州罗甸县龙坪镇信邦大道48号,法律、法规、国务院决定规定禁止的不得经营；法律、法规、国务院决定规定应当许可（审批）的，经审批机关批准后凭许可（审批）文件经营;法律、法规、国务院决定规定无需许可（审批）的，市场主体自主选择经营。（自产自销：硬胶囊剂（含头孢菌素类）、片剂、颗粒剂（含中药提取）、滴丸剂、软胶囊剂、原料药（人参皂苷-Rd)、中药提取；保健食品生产加工（片剂、胶囊剂、颗粒剂）；中药材种植及销售；企业集团内统借统还业务；医疗服务投资管理、咨询服务；养老康复健康产业投资管理、咨询服务；经营本企业自产产品及技术的出口业务；经营本企业所需的原辅材料、仪器仪表、机械设备、零配件及技术的进出口业务（国家限定经营和国家禁止进出口的商品及技术除外）；企业可以按国家规定，以各种贸易方式从事进出口业务。）,2018-09-18,0851-88660221,291765381@qq.com,,长期,医药制造业,中药饮片加工,罗甸县,大健康,2019-09-16 13:29:03,2019-09-16 13:29:03,0,1,黔南布依族苗族自治州,www.xinbang.com
284,e4e95386-d842-11e9-80c9-fa163e3115c2,91530000216562280W,530000000014415,216562280,存续（在营、开业、在册）,76239.199200万人民币,钟祥刚,制造业,1995-12-14,2002-04-08,,云南省,云南省工商行政管理局,其他股份有限公司(上市),昆药集团股份有限公司,云南省昆明市高新技术产业开发区科医路166号,中西药原辅料及制剂、化工原料、中间体、试剂、包装材料、提取物、中药饮片的采购、生产及销售，农副产品及中药材（种植、收购及销售），科技开发，咨询服务，机械加工，制药设备制造，安装及维修业务，医药工程设计，对外援助物资项目。（依法须经批准的项目，经相关部门批准后方可开展经营活动）,2018-12-28,0871-68319868,office.kpc@holley.cn,昆明制药集团股份有限公司,长期,医药制造业,化学药品原料药制造,,大健康,2019-09-16 13:29:03,2019-09-16 13:29:03,0,1,昆明市,www.kpc.com.cn
285,e53514bf-d842-11e9-80c9-fa163e3115c2,91310000607221926Y,310000400065644,607221926,存续（在营、开业、在册）,120705.669200万人民币,皮展,制造业,1993-11-15,1993-11-15,,上海市,上海市市场监督管理局,股份有限公司(中外合资、上市),上海海欣集团股份有限公司,上海市松江区洞泾镇长兴路688号,研究开发、生产毛绒制品、皮革制品、玩具、服装鞋帽等相关纺织品；加工、制造化学原料药、生物制品、保健品、中药原料药和各类制剂（涉及国家禁止类药品除外）、医疗器械（仅限于外商投资鼓励类和允许类项目）；医疗科技领域内的技术开发、技术服务、技术咨询、技术转让；道路货物运输、货运代理；仓储（危化品除外、冷冻冷藏除外）；物业管理；自有房屋租赁；环保项目管理；互联网数据服务；从事货物和技术的进出口业务；销售自产产品并提供技术咨询，从事符合国家产业政策的投资业务和资产经营管理（国家禁止外商投资的行业除外，国家限制外商投资的行业或有特殊规定的，须依法履行相关程序）。【依法须经批准的项目，经相关部门批准后方可开展经营活动】,1993-11-15,13524203812,zhujh_qq@163.com,,长期,纺织业,针织或钩针编织物及其制品制造,松江区,大健康,2019-09-16 13:29:04,2019-09-16 13:29:04,0,1,上海市,www.haixin.com
286,e586c9ab-d842-11e9-80c9-fa163e3115c2,91650100228582422A,650000040000667,228582422,开业,143966.294500万,张美华,制造业,1993-04-26,1993-04-26,,新疆维吾尔自治区,乌鲁木齐经济技术开发区（乌鲁木齐市头屯河区）市场监督管理局（食品安全委员会办公室）,股份有限公司(上市、外商投资企业投资),新疆同济堂健康产业股份有限公司,新疆乌鲁木齐经济技术开发区上海路130号,销售：药品、医疗器械（含中药材、中药饮片、中成药、化学药制剂、抗生素制剂、生化药品、生物药品、医疗器械）、保健食品（预包装食品兼散装食品、乳制品（含婴幼儿配方乳粉）、保健食品、保健品）批发兼零售。医药、医疗、健康产业领域的投资；日用品、化妆品、卫生材料的批发兼零售；物业管理；仓储服务、房屋出租；家具、办公用品、百货、家电、机电的批发零售；进出口业务；项目投资；房屋租赁。,2016-07-19,0991-3687310,zhangjuan@cnready.com,新疆啤酒花股份有限公司,长期,农副食品加工业,其他农副食品加工,,大健康,2019-09-16 13:29:04,2019-09-16 13:29:04,0,1,乌鲁木齐市,http://www.xjhops.com
287,e5e4780a-d842-11e9-80c9-fa163e3115c2,91320100250015862U,320192000001010,250015862,存续（在营、开业、在册）,104161.124400万人民币,周建军,批发和零售业,1994-01-25,1994-01-25,,江苏省,南京市市场监督管理局,股份有限公司(台港澳与境内合资、上市),南京医药股份有限公司,南京市雨花台区宁双路19号云密城A幢,药品批发（包含中药批发、西药批发）；药品零售（包含中药零售、西药零售）、医疗器械（包含一、二、三类医疗器械）销售；药事管理服务；药品质量监控服务；经营进出口业务（国家限定企业经营或禁止进出口的商品和技术除外）；信息咨询服务；特殊医学用途配方食品、预包装食品、乳制品（含婴幼儿配方乳粉）、散装食品的批发与零售；保健食品销售；道路运输、普通货物运输、货运代理；会议、展览展示及相关服务；仓储服务；百货、五金交电、日杂洗化用品、消毒产品、化妆品、劳保用品、眼镜及配件、汽车配件、摩托车配件、工程机械、金属材料、建筑材料、装饰材料、电子产品、照相器材、摄影器材、针纺织品、玻璃仪器、服装鞋帽销售；提供劳务服务；室内装饰服务；物业管理；房屋出租、维修；汽车租赁；装卸服务。（依法须经批准的项目，经相关部门批准后方可开展经营活动）,2019-07-29,025-84552606,bgs@njyy.com,,长期,批发业,食品、饮料及烟草制品批发,雨花台区,大健康,2019-09-16 13:29:05,2019-09-16 13:29:05,0,1,南京市,www.njyy.com
288,e63c3a92-d842-11e9-80c9-fa163e3115c2,91230199128173269W,230199100002435,128173269,存续（在营、开业、在册）,57988.859700万,张镇平,制造业,1994-02-19,1994-02-19,,黑龙江省,哈尔滨市市场监督管理局开发区分局,其他股份有限公司(上市),哈药集团人民同泰医药股份有限公司,哈尔滨市南岗区衡山路７６号,投资管理及咨询；以自有资产对医疗行业进行投资及投资管理；医疗、医药咨询服务；企业管理咨询；接受委托从事委托方的资产管理、企业管理。,2018-10-29,84802022,68864683@qq.com,哈药集团三精制药股份有限公司,长期,医药制造业,化学药品制剂制造,南岗区,大健康,2019-09-16 13:29:05,2019-09-16 13:29:05,0,1,哈尔滨市,www.sanjing.com.cn
289,e69ef2d0-d842-11e9-80c9-fa163e3115c2,911100006337942853,110000005100956,633794285,开业,25052.631500万人民币,续文利,批发和零售业,1997-04-22,1997-04-22,,北京市,北京市工商行政管理局海淀分局,其他股份有限公司(上市),嘉事堂药业股份有限公司,北京市海淀区昆明湖南路11号1号楼,销售中药饮片、中成药、化学药制剂、化学原料药、抗生素、生化药品、生物制品、体外诊断试剂、第二类精神药品制剂、蛋白同化制剂、肽类激素（药品经营许可证有效期至2019年09月22日）；预包装食品销售，含冷藏冷冻食品；特殊食品销售，限保健食品、特殊医学用途配方食品、婴幼儿配方乳粉、其他婴幼儿配方食品（食品经营许可证有效期至2021年09月26日）；销售医疗器械Ⅲ类；销售医疗器械Ⅰ、Ⅱ类、日用品、服装、服饰、鞋帽、针纺织品、文体用品、办公用品、化妆品、卫生用品、生活用消毒用品、洗涤用品、机械设备、仪器仪表、健身器材、通讯设备、电子产品、家用电器、化工产品（不含危险化学品及一类易制毒类）、日用杂货；仓储服务；技术咨询；技术开发；技术转让；经济信息咨询；会议服务。（企业依法自主选择经营项目，开展经营活动；销售第三类医疗器械以及依法须经批准的项目，经相关部门批准后依批准的内容开展经营活动；不得从事本市产业政策禁止和限制类项目的经营活动。）,2019-05-22,010-88506733,bmw300@126.com,,长期,零售业,医药及医疗器材专门零售,海淀区,大健康,2019-09-16 13:29:06,2019-09-16 13:29:06,0,1,北京市,www.cachet.com
290,e6f89119-d842-11e9-80c9-fa163e3115c2,91500000450533779H,500000000004751,450533779,存续(在营、开业、在册),59598.742500万,袁平东,制造业,1993-05-18,1993-05-18,,重庆市,重庆市工商行政管理局,股份有限公司(上市公司),北大医药股份有限公司,重庆市北碚区水土镇方正大道21号,制造、销售（限本企业自产药品）片剂、硬胶囊剂（含抗肿瘤药）、颗粒剂、小容量注射剂、大容量注射剂、粉针剂（含头孢菌素类）及原料药（按许可证核定的产品项目从事生产经营），普通货运、危险货物运输（第2类第1、2项，第3类，第4类第1、2项，第5类第1项，第8类），生产、销售饲料添加剂、食品添加剂，生产输液用袋，销售五金、交电、化工产品及原料（不含化学危险品）、百货，建筑材料、装饰材料（不含危险化学品），钢材、木材、电器机械及器材、普通机械，制药技术咨询及转让，货物及技术进出口。（依法须经批准的项目，经相关部门批准后方可开展经营活动）*,2018-09-19,023-67502832,pkuhealthcare@pku-hc.com,,长期,医药制造业,化学药品原料药制造,北碚区,大健康,2019-09-16 13:29:07,2019-09-16 13:29:07,0,1,重庆市,http://www.fsspc.com/
291,e7507437-d842-11e9-80c9-fa163e3115c2,91330000609120272T,330000000032529,609120272,存续,20744.994600万人民币,姜巨舫,制造业,1995-12-14,1995-12-14,2025-12-13,浙江省,浙江省工商行政管理局,其他股份有限公司(上市),浙江英特集团股份有限公司,杭州市下城区东新路江南巷2号3幢,实业投资，投资管理，市场营销策划，医药信息咨询，医疗器械信息咨询，企业管理咨询，商务信息咨询，健康管理咨询，计算机软硬件开发及信息技术服务，会展服务，医药研发，经营进出口业务。,2018-03-02,,,杭州凯地丝绸股份有限公司,2025-12-13,纺织业,丝绢纺织及印染精加工,下城区,大健康,2019-09-16 13:29:07,2019-09-16 13:29:07,0,1,杭州市,http://www.intmedic.com
292,e7aa25a8-d842-11e9-80c9-fa163e3115c2,913502006782575042,350200200047020,678257504,存续（在营、开业、在册）,32683.044000万人民币,吴金祥,批发和零售业,2008-09-03,2008-09-03,,福建省,厦门市市场监督管理局,其他股份有限公司(上市),鹭燕医药股份有限公司,厦门市湖里区安岭路1004号,西药批发；中药批发；第三类医疗器械批发；保健食品批发；特殊医学用途配方食品批发；婴幼儿配方乳粉批发；其他婴幼儿配方食品批发；其他未列明预包装食品批发（含冷藏冷冻食品）；第一类医疗器械批发；第二类医疗器械批发；化妆品及卫生用品批发；其他农业服务；道路货物运输（不含危险货物运输）；其他仓储业（不含需经许可审批的项目）；装卸搬运；其他未列明专业技术服务业（不含需经许可审批的事项）。,2019-06-17,8129011,1265329827@qq.com,,长期,批发业,医药及医疗器材批发,湖里区,大健康,2019-09-16 13:29:08,2019-09-16 13:29:08,0,1,厦门市,luyan.com.cn
293,e8078c1b-d842-11e9-80c9-fa163e3115c2,91450500198228069W,450500000008877,198228069,存续（在营、开业、在册）,46440.118500万,潘利斌,批发和零售业,1993-01-22,1993-01-22,,广西壮族自治区,北海市市场监督管理局,其他股份有限公司(上市),北海国发海洋生物产业股份有限公司,广西北海市北部湾中路3号,藻类、贝类、甲壳类等海洋生物系列产品的研究、开发、销售，对健康产业、文化产业、房地产业的投资；房地产开发、经营，建筑材料、装饰材料、灯饰、家具、仿古木艺术品、工艺美术品、五金交电、电子产品的购销代理；进出口贸易（国家有专项规定的除外），企业管理信息咨询，自有场地租赁、自有房屋租赁，滴眼剂、散剂、片剂、胶囊剂、颗粒剂、丸剂、酒剂、糖浆剂、合剂（含中药前处理和提取）的生产及销售本厂产品、消毒剂（75%单方乙醇消毒液）的生产，酒精批发（酒精储罐1*20立方米，凭有效《危险化学品经营许可证》经营），Ⅱ类医疗器械的生产及销售。,2019-06-06,07795080650,79590285@qq.com,北海国际经济发展股份有限公司,长期,批发业,农、林、牧产品批发,,大健康,2019-09-16 13:29:08,2019-09-16 13:29:08,0,1,北海市,gofar.com.cn
294,e856ce92-d842-11e9-80c9-fa163e3115c2,913100001322058845,310000000012441,132205884,存续（在营、开业、在册）,22308.634700万人民币,徐子瑛,制造业,1992-09-23,1992-09-23,,上海市,上海市市场监督管理局,其他股份有限公司(上市),上海第一医药股份有限公司,上海市南京东路616号,中成药、化学药制剂、抗生素、生化药品、生物制品、第二类精神药品（制剂）、蛋白同化制剂、肽类激素，医疗器械（Ⅲ、Ⅱ类具体内容详见许可证），商业网点用房及调网用房开发建设、利用、转让，网点用房维修、装潢和设施更新，房产经营，建筑材料，装潢材料，有色金属，五金交电，百货，化妆品，塑料，陶瓷制品，化工原料（除危险品），批发：预包装食品（不含熟食卤味、冷冻冷藏），乳制品（含婴幼儿配方乳粉），食用农产品（不含生猪产品），酒类（不含散装酒），房产咨询服务，家用电器，仪器仪表，工艺品，服装鞋帽，企业管理咨询，商务信息咨询，室内装潢装饰，电子商务（不得从事增值电信、金融业务），设计、制作、代理各类广告，利用自有媒体发布广告，附设分支。【依法须经批准的项目，经相关部门批准后方可开展经营活动】,1992-09-23,021-64333830,dyyyzhb@163.com,,长期,医药制造业,中成药生产,,大健康,2019-09-16 13:29:09,2019-09-16 13:29:09,0,1,,www.shdyyy.com.cn
295,e8b165c9-d842-11e9-80c9-fa163e3115c2,91330000145919552E,330000000052820,145919552,存续,33412.328600万人民币,吕军,批发和零售业,1993-04-02,1993-04-02,,浙江省,浙江省工商行政管理局,其他股份有限公司(上市),浙江震元股份有限公司,浙江省绍兴市中兴中路276号现代大厦A座8-11层,药品的批发（范围详见《药品经营许可证》），预包装食品兼散装食品及乳制品（含婴幼儿配方乳粉，凭《食品经营许可证》经营），中药饮片的生产（限分支机构凭有效许可证经营）。食用农产品、医疗器械、化学试剂、玻璃仪器、兽药、饲料添加剂、化工原料及产品（不含危险品及易制毒化学品）、五金交电、健身器械、化妆品、日用百货的销售，商务咨询服务，房屋及机械设备的租赁服务，会议服务，展览服务，仓储服务（不含危险品），农副产品的收购，消毒用品的销售，增值电信业务服务。（依法须经批准的项目，经相关部门批准后方可开展经营活动）,2019-02-28,85114730,000705@zjzy.com,,长期,批发业,医药及医疗器材批发,,大健康,2019-09-16 13:29:09,2019-09-16 13:29:09,0,1,绍兴市,http://www.zjzy.com
296,e903b4f5-d842-11e9-80c9-fa163e3115c2,91330000716184714D,330621000004792,716184714,存续,21000.000000万人民币,钱木水,批发和零售业,1999-08-16,1999-08-16,,浙江省,浙江省市场监督管理局,其他股份有限公司(上市),浙江华通医药股份有限公司,绍兴市柯桥区轻纺城大道1605号,批发：中药材、中药饮片、中成药、化学药制剂、抗生素制剂、生化药品、生物制品、麻醉药品、第一类精神药品、第二类精神药品、蛋白同化制剂、肽类激素（凭《药品经营许可证》经营）；中药材收购；医疗器械（详见医疗器械经营许可证浙绍食药监械经营许20140010号）。食品经营（凭许可证经营），批发、零售：日用百货、化妆品、消毒用品、无需审批的医疗器械；商品信息咨询；房屋租赁；国内广告代理、发布、设计、制作。（依法须经批准的项目，经相关部门批准后方可开展经营活动）,2019-06-06,0575-85565958,sxhtyy@sxhtyy.com,,长期,批发业,医药及医疗器材批发,,大健康,2019-09-16 13:29:10,2019-09-16 13:29:10,0,1,绍兴市,http://www.sxhtyy.net
297,e954f092-d842-11e9-80c9-fa163e3115c2,913100001322312146,310000400176770,132231214,存续（在营、开业、在册）,24300.000000万人民币,庄虔贇,制造业,1997-08-04,1997-08-04,,上海市,上海市市场监督管理局,股份有限公司(台港澳与境内合资、上市),上海开开实业股份有限公司,上海市万航渡路888号,生产衬衫、羊毛衫、针棉织品、服装、鞋帽、纺织面料、床上用品、卧具用品、家纺产品、座椅套、特种劳动保护用品；内销日用百货、五金交电、一般工艺品、皮革制品、玻璃制品、雨具；销售自产产品并提供产品咨询及售后服务；自有房屋出租。【依法须经批准的项目，经相关部门批准后方可开展经营活动】,1997-08-04,021-62712091,sf@chinesekk.com,,长期,纺织服装、服饰业,服饰制造,,大健康,2019-09-16 13:29:11,2019-09-16 13:29:11,0,1,,http://www.chineekk.com
298,e9a8b185-d842-11e9-80c9-fa163e3115c2,9150000073397948XL,500231000001009,73397948X,存续(在营、开业、在册),31800.000000万,刘爽,制造业,2001-10-16,2001-10-16,,重庆市,重庆市市场监督管理局,股份有限公司(上市公司),天圣制药集团股份有限公司,重庆市朝阳工业园区（垫江桂溪）,生产、销售（仅限本企业生产的产品）：片剂、硬胶囊剂、颗粒剂、散剂、大容量注射剂、茶剂、溶液剂、酊剂、醑剂、药用辅料（甘油、白凡士林、黄凡士林、液体石蜡）、原料药（盐酸小檗碱和罗通定）、软膏剂、乳膏剂、糊剂、栓剂、凝胶剂、消毒剂、卫生用品；批发化学原料药及其制剂、抗生素原料药及其制剂、生化药品、中成药、生物制品（除疫苗）、中药饮片、中药材、蛋白同化制剂、肽类激素；普通货运。（以上经营范围按相关许可证核定期限从事经营）*中药材种植，物流咨询服务，货物进出口，药品研发与技术服务，中药材初加工（仅限挑选、整理、捆扎、清洗、晾晒）。（依法须经批准的项目，经相关部门批准后方可开展经营活动）*,2019-02-13,023-62830000,无,,长期,农副食品加工业,制糖业,(垫江,大健康,2019-09-16 13:29:11,2019-09-16 13:29:11,0,1,,http://www.tszy.com.cn/
299,c912a890-4bbf-11e9-a8b1-fa163e5275a2,91310000759874061E,310115400147263,759874061,存续（在营、开业、在册）,160759.2175万人民币,周炜,信息传输、软件和信息技术服务业,2004-04-07,2004-04-07,,上海市,上海市工商行政管理局,股份有限公司（上市、自然人投资或控股）,卫宁健康科技集团股份有限公司,上海市浦东新区上南路4184号258室,从事健康科技领域内的技术开发、技术转让、技术咨询、技术服务，医疗器械生产（II类6870影像档案传输、处理系统软件），医疗器械经营【批发第二类医疗器械（不含体外诊断试剂）】，实业投资，自有房屋租赁，计算机软件的开发、设计和制作，计算机软、硬件及辅助设备的销售，计算机网络信息系统集成的维护，并提供相关的技术咨询和技术服务。【依法须经批准的项目，经相关部门批准后方可开展经营活动】,2004-04-07,021-80331000,houhui@winning.com.cn,上海金仕达卫宁软件股份有限公司,长期,软件和信息技术服务业,软件开发,浦东新区,大健康,2019-03-21 17:57:50,2019-03-21 17:57:50,0,0,上海市,www.winning.com.cn
300,ea299880-d842-11e9-80c9-fa163e3115c2,91420100731084500Y,420100000045713,731084500,存续（在营、开业、在册）,48251.753600万,邓志刚,科学研究和技术服务业,2001-11-16,2001-11-16,,湖北省,武汉东湖新技术开发区,股份有限公司(上市、自然人投资或控股),武汉中元华电科技股份有限公司,中国湖北武汉东湖新技术开发区华中科技大学科技园六路6号,计算机软、硬件、自动化、电力、电子设备与器件、电力作业机器人及系统、通讯、办公设备的开发、研制、生产、销售及技术服务；信息系统集成及服务；一、二、三类医疗器械的开发、研制、生产、批发兼零售及技术服务；医疗信息化领域的技术开发、技术服务、技术咨询；医疗投资；健康管理；养老服务；医院管理服务（不含诊疗）；自有房屋租赁；自营和代理各类产品和技术的进出口业务（国家禁止经营或禁止进出口的产品和技术除外）。（依法须经审批的项目，经相关部门审批后方可开展经营活动）,2019-06-25,027-87180701,2397299458@qq.com,,长期,专业技术服务业,其他专业技术服务业,,大健康,2019-09-16 13:29:12,2019-09-16 13:29:12,0,1,武汉市,www.zyhd.com.cn
301,9468ad54-d83f-11e9-80c9-fa163e3115c2,913502007617290664,350205200008366,761729066,存续（在营、开业、在册）,40193.000000万人民币,林志雄,制造业,2004-08-12,2004-08-12,,福建省,厦门市市场监督管理局,股份有限公司(台港澳与境内合资、上市),大博医疗科技股份有限公司,厦门市海沧区山边洪东路18号,研发生产二类6826物理治疗设备、二类6865医用缝合材料和三类6810矫形外科（骨科）手术器械；二类6810矫形外科（骨科）手术器械、三类6846植入材料；一类医疗器械的研发、生产；骨科植入材料模具的制造；批发和进出口：三类、二类：注射穿刺器械、医用电子仪器设备、医用光学器具仪器及内窥镜设备、医用超声仪器及有关设备、物理治疗及康复设备、临床检验分析仪器（体外诊断试剂除外）、植入材料和人工器官、手术室急救室诊疗室设备及器具、口腔科材料、医用卫生材料及敷料、医用缝合材料及粘合剂；三类、二类：医用高分子材料及制品；二类：手术器械、普通诊察器械、中医器械、口腔科设备及器具、病房护理设备及器具、消毒和灭菌设备及器具。,2019-03-01,6087672,无,,长期,专用设备制造业,医疗仪器设备及器械制造,海沧区,大健康,2019-09-16 13:05:20,2019-09-16 13:05:20,0,1,厦门市,http://www.double-medical.com/
302,11f51848-4bc3-11e9-a8b1-fa163e5275a2,91350200260060034P,350200200010911,260060034,在营（开业）,56070.400000,邹剑寒,其他家用电力器具制造,1996-08-01,1996-08-01,长期,福建省,厦门市市场监督管理局,股份有限公司(上市、自然人投资或控股),奥佳华智能健康科技集团股份有限公司,厦门市思明区前埔路168号（五楼）,研发、销售：一类医疗器械、保健器具、康复理疗器具（不含假肢、矫形器（辅助器具）等须经前置审批许可的项目）、健身器材、美容器具、家居产品；开发、生产、加工、销售：电子按摩器材及其相关材料，座、靠、垫制品，低压电器配件，日用五金制品，电子产品，模具，家具，家电，化工原料（需经前置许可项目除外），聚氨酯泡棉制品及其提供技术转让、咨询、服务；经营本企业自产产品的出口业务和本企业所需的机械设备、零配件、原辅材料的进口业务（不另附进出口商品目录），但国家限定公司经营或禁止进出口的商品及技术除外；未涉及前置审批许可的其他经营项目。,2019-01-24,1234567,,,长期,,,思明区,大健康,2019-03-21 18:21:20,2019-03-21 18:21:20,0,0,厦门市,
303,ea96b2c1-d842-11e9-80c9-fa163e3115c2,913100007449143662,310118002087613,744914366,存续（在营、开业、在册）,14000.000000万人民币,林琪,科学研究和技术服务业,2002-11-15,2002-11-15,,上海市,上海市市场监督管理局,股份有限公司(上市、自然人投资或控股),上海荣泰健康科技股份有限公司,上海市青浦区朱枫公路1226号,文体用品、按摩器材、电子器材、健身器材的开发、加工、制造销售，服务机器人的研发，从事货物及技术的进出口业务。【依法须经批准的项目，经相关部门批准后方可开展经营活动】,2002-11-15,021-31190888,bobo@chinarongtai.com,,长期,研究和试验发展,工程和技术研究和试验发展,青浦区,大健康,2019-09-16 13:29:13,2019-09-16 13:29:13,0,1,上海市,http://www.rotai.com/
304,eaec137b-d842-11e9-80c9-fa163e3115c2,91340100610307675N,340106000000643,610307675,存续（在营、开业、在册）,80404.031300万,邢芬玲,批发和零售业,1995-04-21,1995-04-21,,安徽省,合肥市高新开发区市场监督管理局,股份有限公司(上市、自然人投资或控股),融捷健康科技股份有限公司,安徽省合肥市长江西路669号AJ-9地块,远红外线桑拿设备、机电产品的生产、委托加工、销售及自营进出口业务（凭许可证经营）；医疗器械二类；6826物理治疗及康复设备的生产、销售；远红外线桑拿设备及衍生产品的设计、咨询、服务及销售及租赁；木材、木制品、建筑装潢材料、电子产品、电讯器材、五金交电、卫生洁具、计算机及配件、印刷器材、机械设备、文体用品、化工产品（除危险品）、工艺品（不含金银制品）、服装、皮革制品、保健用品、土特产品、玻璃制品销售。,2019-01-25,0551-62355468,zjb@saunaking.com.cn,"安徽乐金健康科技股份有限公司,安徽桑乐金股份有限公司",长期,批发业,机械设备、五金产品及电子产品批发,,大健康,2019-09-16 13:29:13,2019-09-16 13:29:13,0,1,合肥市,WWW.SAUNAKING.COM.CN
